{"type":"FeatureCollection","features":[{"type":"Feature","properties":{"id":"asturias","kind":"footprint"},"geometry":{"type":"Polygon","coordinates":[[[-7.0383,43.4792],[-7.0238,43.5258],[-7.0104,43.5332],[-7.0014,43.5567],[-6.944,43.566],[-6.7708,43.5686],[-6.7037,43.5576],[-6.6487,43.579],[-6.5977,43.5752],[-6.5101,43.5475],[-6.463,43.555],[-6.4691,43.5754],[-6.4176,43.5611],[-6.3146,43.5686],[-6.2228,43.5959],[-6.178,43.5754],[-6.0692,43.5697],[-6.0235,43.5884],[-5.9074,43.5884],[-5.9022,43.5975],[-5.9131,43.6129],[-5.9006,43.6232],[-5.9074,43.6368],[-5.8635,43.6414],[-5.8522,43.6629],[-5.8038,43.6505],[-5.7089,43.5686],[-5.702,43.5686],[-5.6968,43.5828],[-5.6775,43.5611],[-5.6256,43.555],[-5.4242,43.5611],[-5.3939,43.5552],[-5.3907,43.5413],[-5.4208,43.5134],[-5.4139,43.5065],[-5.3724,43.5202],[-5.3568,43.5386],[-5.2999,43.5377],[-5.1779,43.4894],[-5.0917,43.4863],[-5.0677,43.4814],[-5.057,43.4686],[-5.045,43.4743],[-4.9752,43.4588],[-4.941,43.4717],[-4.8365,43.4498],[-4.7349,43.4171],[-4.5138,43.4028],[-4.5133,43.3844],[-4.5373,43.3483],[-4.5187,43.306],[-4.5235,43.2879],[-4.5372,43.2772],[-4.5512,43.2792],[-4.5635,43.2942],[-4.5926,43.2982],[-4.6432,43.2722],[-4.7157,43.2647],[-4.7236,43.252],[-4.7279,43.2078],[-4.7427,43.1921],[-4.8319,43.1887],[-4.8594,43.2234],[-4.879,43.2352],[-4.9085,43.2373],[-5.0083,43.1929],[-5.0629,43.1788],[-5.0824,43.158],[-5.0955,43.1283],[-5.1181,43.1086],[-5.1596,43.1132],[-5.212,43.094],[-5.3075,43.0855],[-5.374,43.0897],[-5.3985,43.0565],[-5.4734,43.0511],[-5.4908,43.0286],[-5.541,43.0218],[-5.6652,43.0483],[-5.7052,43.0488],[-5.73,43.0406],[-5.7787,42.9747],[-5.8048,42.9706],[-5.8448,42.9717],[-5.9187,42.9988],[-5.9547,43.0176],[-5.9713,43.0514],[-5.9878,43.0623],[-6.0168,43.0573],[-6.0791,43.0651],[-6.0883,43.0621],[-6.1024,43.0348],[-6.122,43.0279],[-6.1997,43.041],[-6.2128,43.0389],[-6.2217,43.0201],[-6.2344,43.0144],[-6.3649,43.0514],[-6.3928,43.0422],[-6.4187,43.0005],[-6.4803,42.9879],[-6.4763,42.9769],[-6.4504,42.9681],[-6.4448,42.9577],[-6.5016,42.9297],[-6.5621,42.9167],[-6.6357,42.9273],[-6.7011,42.9245],[-6.7635,42.8928],[-6.7953,42.9109],[-6.8283,42.9148],[-6.8369,42.9627],[-6.8689,42.9887],[-6.9137,42.9947],[-6.9513,43.0251],[-6.9549,43.0016],[-6.9664,42.9943],[-6.9885,43.0193],[-6.9796,43.0366],[-6.9634,43.0426],[-6.9452,43.0767],[-6.8772,43.0918],[-6.8315,43.1202],[-6.8322,43.1399],[-6.8476,43.1592],[-6.8738,43.1746],[-6.8985,43.1491],[-6.9434,43.1326],[-6.9593,43.1388],[-6.9738,43.1592],[-6.9656,43.195],[-7.051,43.2373],[-7.0628,43.2549],[-7.0713,43.2977],[-7.1084,43.319],[-7.1216,43.3368],[-7.1301,43.3786],[-7.1701,43.3908],[-7.1609,43.4291],[-7.1127,43.4293],[-7.0469,43.4837],[-7.0383,43.4792]]]}}]}