{"type":"FeatureCollection","features":[{"type":"Feature","properties":{"id":"bas-saint-laurent","kind":"footprint"},"geometry":{"type":"MultiPolygon","coordinates":[[[[-69.7063,47.8645],[-69.7259,47.8562],[-69.7413,47.8307],[-69.7757,47.7994],[-69.7237,47.8725],[-69.6864,47.9032],[-69.7063,47.8645]]],[[[-69.431,48.0208],[-69.4956,47.9863],[-69.4241,48.0516],[-69.3883,48.0633],[-69.431,48.0208]]],[[[-68.8371,48.4131],[-68.8546,48.4066],[-68.8431,48.4052],[-68.8491,48.3965],[-68.8896,48.3869],[-68.88,48.4012],[-68.8371,48.4131]]],[[[-69.625,47.0668],[-69.9744,47.2914],[-70.003,47.2785],[-70.0969,47.3414],[-70.0556,47.3737],[-70.0429,47.3934],[-70.0458,47.4219],[-70.0614,47.4271],[-70.0241,47.4575],[-70.0245,47.4654],[-70.0341,47.4664],[-70.018,47.482],[-70.0249,47.4862],[-69.9886,47.5022],[-69.9889,47.4965],[-69.9742,47.4948],[-69.9424,47.5189],[-69.9393,47.5319],[-69.9323,47.5339],[-69.9196,47.521],[-69.903,47.5268],[-69.8554,47.5814],[-69.8222,47.5902],[-69.7781,47.6212],[-69.7467,47.6534],[-69.7443,47.6742],[-69.7409,47.6691],[-69.7278,47.676],[-69.6741,47.7276],[-69.6407,47.7372],[-69.5902,47.7891],[-69.5972,47.7934],[-69.5896,47.8072],[-69.5521,47.8404],[-69.5522,47.8536],[-69.5672,47.8463],[-69.5694,47.8479],[-69.5001,47.927],[-69.5139,47.9253],[-69.5184,47.9271],[-69.5099,47.9338],[-69.5195,47.935],[-69.4962,47.9511],[-69.4797,47.9482],[-69.4375,47.9947],[-69.4081,48.0024],[-69.3915,48.019],[-69.3477,48.0137],[-69.3426,48.0219],[-69.3487,48.0246],[-69.3488,48.0254],[-69.3319,48.0287],[-69.3337,48.0353],[-69.2771,48.0675],[-69.2657,48.0876],[-69.2155,48.0964],[-69.2208,48.1046],[-69.2028,48.1237],[-69.1868,48.1348],[-69.1845,48.1289],[-69.1723,48.1308],[-69.1647,48.142],[-69.1348,48.1528],[-69.1309,48.157],[-69.13,48.1632],[-69.1385,48.1631],[-69.1046,48.1925],[-68.9528,48.2905],[-68.8656,48.3175],[-68.85,48.3278],[-68.8541,48.3337],[-68.8053,48.3471],[-68.8077,48.3545],[-68.8308,48.3513],[-68.8156,48.3622],[-68.8192,48.3659],[-68.798,48.3656],[-68.7941,48.3508],[-68.7532,48.3757],[-68.7653,48.3682],[-68.7555,48.3602],[-68.7586,48.3539],[-68.7248,48.374],[-68.7061,48.375],[-68.7267,48.3793],[-68.6811,48.3968],[-68.6689,48.3932],[-68.5972,48.4277],[-68.5798,48.4433],[-68.5395,48.4453],[-68.518,48.4619],[-68.5175,48.4813],[-68.5079,48.4791],[-68.4645,48.5076],[-68.4636,48.5121],[-68.4702,48.5124],[-68.4688,48.5155],[-68.4741,48.5185],[-68.4732,48.5207],[-68.4254,48.529],[-68.3853,48.5505],[-68.3548,48.548],[-68.2908,48.5863],[-68.1655,48.6446],[-68.1341,48.6306],[-68.1314,48.6259],[-68.1399,48.6226],[-68.1393,48.6186],[-68.1301,48.6265],[-68.1333,48.6309],[-68.0824,48.6473],[-68.0624,48.6729],[-68.0333,48.681],[-68.039,48.6741],[-68.0239,48.6739],[-68.0195,48.6654],[-67.9617,48.6847],[-67.8941,48.7257],[-67.8336,48.7505],[-67.7944,48.7552],[-67.7236,48.7835],[-67.6935,48.784],[-67.6966,48.7883],[-67.6829,48.7954],[-67.5967,48.8204],[-67.5772,48.8339],[-67.5814,48.8451],[-67.5811,48.8464],[-67.5803,48.8474],[-67.5775,48.8491],[-67.5756,48.8379],[-67.5703,48.8418],[-67.5759,48.8472],[-67.5644,48.8438],[-67.5315,48.8525],[-67.5346,48.8564],[-67.479,48.8558],[-67.3687,48.8988],[-67.2866,48.9077],[-67.273,48.9193],[-67.1614,48.9421],[-66.9757,49.0073],[-66.9766,49.0037],[-66.9738,49.0048],[-66.9717,49.003],[-66.9685,49.0024],[-66.9674,49.0025],[-66.9454,49.021],[-66.9294,49.0205],[-66.9082,49.0339],[-66.8322,48.9851],[-66.7324,49.0174],[-66.6994,48.9886],[-66.7045,48.978],[-66.6967,48.971],[-66.6954,48.921],[-66.7158,48.9092],[-66.7061,48.902],[-66.5369,48.957],[-65.9491,48.5678],[-66.9754,48.3027],[-66.8371,48.1481],[-66.8447,48.1461],[-66.9072,48.1977],[-66.9427,48.1782],[-66.8836,48.1362],[-67.0984,48.0852],[-67.0976,48.0789],[-67.2779,48.0319],[-67.375,48.1953],[-67.6668,48.1171],[-67.6494,48.0811],[-67.6313,48.078],[-67.5868,48.0488],[-67.5957,48.0268],[-67.5872,48.0108],[-67.5965,47.9981],[-68.1226,47.9999],[-68.1228,47.9165],[-68.3823,47.9161],[-68.3835,47.5531],[-68.5681,47.4272],[-68.7996,47.349],[-69.0506,47.3002],[-69.044,47.3551],[-69.0529,47.3742],[-69.0395,47.384],[-69.0428,47.4014],[-69.0299,47.4086],[-69.0364,47.4074],[-69.0471,47.4356],[-69.0524,47.439],[-69.0579,47.4385],[-69.0588,47.4412],[-69.0615,47.4441],[-69.0607,47.4498],[-69.0618,47.4511],[-69.0669,47.4542],[-69.0677,47.4617],[-69.0707,47.4636],[-69.0675,47.4663],[-69.069,47.4697],[-69.0717,47.4727],[-69.0701,47.4771],[-69.0714,47.4798],[-69.0715,47.4786],[-69.0747,47.4802],[-69.0795,47.4798],[-69.084,47.4841],[-69.0884,47.4871],[-69.0896,47.4873],[-69.0928,47.4869],[-69.0934,47.4872],[-69.0986,47.4959],[-69.0994,47.4965],[-69.1005,47.4969],[-69.1015,47.4978],[-69.1014,47.499],[-69.1022,47.4998],[-69.1019,47.5],[-69.1017,47.5023],[-69.1019,47.5028],[-69.1027,47.5033],[-69.1026,47.5043],[-69.1036,47.5053],[-69.1019,47.498],[-69.0938,47.4872],[-69.0927,47.4868],[-69.0888,47.487],[-69.0804,47.4798],[-69.0707,47.4775],[-69.0723,47.4722],[-69.068,47.4661],[-69.0721,47.4627],[-69.0587,47.4386],[-69.0475,47.4354],[-69.0484,47.4278],[-69.0628,47.4346],[-69.0905,47.4243],[-69.0993,47.4319],[-69.1071,47.4276],[-69.1082,47.4361],[-69.1221,47.4429],[-69.1622,47.4475],[-69.1792,47.4577],[-69.2051,47.452],[-69.2058,47.4543],[-69.2251,47.4601],[-69.224,47.4595],[-69.625,47.0668]],[[-69.0406,47.3954],[-69.041,47.3955],[-69.0407,47.3952],[-69.0406,47.3954]],[[-69.2022,47.4528],[-69.2018,47.4532],[-69.2021,47.4533],[-69.2022,47.4528]],[[-69.2802,47.4059],[-69.2798,47.4062],[-69.2808,47.4062],[-69.2802,47.4059]]],[[[-68.6029,48.454],[-68.5437,48.4864],[-68.5575,48.4739],[-68.6029,48.454]]]]}}]}