{"type":"FeatureCollection","features":[{"type":"Feature","properties":{"id":"cascadia","kind":"footprint"},"geometry":{"type":"Polygon","coordinates":[[[-124.124,44.1058],[-124.1289,44.1375],[-124.117,44.1719],[-124.1111,44.2351],[-124.114,44.277],[-123.7756,44.2835],[-123.7758,44.3162],[-123.8165,44.3153],[-123.8167,44.3446],[-123.735,44.3458],[-123.7352,44.3603],[-123.7155,44.3605],[-123.7201,44.4334],[-123.5977,44.4331],[-123.6026,44.7212],[-123.7045,44.7212],[-123.7046,44.739],[-123.725,44.739],[-123.7244,45.0768],[-123.784,45.0767],[-123.7845,45.2163],[-123.4635,45.2163],[-123.4649,45.4333],[-123.1354,45.4335],[-123.1347,45.4189],[-123.1147,45.419],[-123.1146,45.4044],[-123.0322,45.405],[-123.0323,45.3909],[-123.0113,45.3909],[-123.0117,45.3763],[-122.9914,45.3755],[-122.9914,45.3611],[-122.9703,45.3608],[-122.9702,45.3465],[-122.9088,45.3462],[-122.9089,45.3175],[-122.8679,45.3173],[-122.8681,45.2597],[-122.8499,45.2597],[-122.8346,45.2741],[-122.7849,45.2741],[-122.7848,45.2596],[-122.739,45.2595],[-122.7519,45.2425],[-122.7454,45.216],[-122.7595,45.2033],[-122.7498,45.195],[-122.7599,45.1947],[-122.7532,45.1875],[-122.7601,45.1826],[-122.7519,45.1822],[-122.7737,45.1635],[-122.7885,45.1304],[-122.7498,45.1077],[-122.7052,45.0593],[-122.6493,45.0325],[-122.5955,45.0196],[-122.595,44.9909],[-122.5688,44.9837],[-122.5355,44.9367],[-122.5175,44.9328],[-122.5053,44.9183],[-122.4862,44.9227],[-122.4415,44.904],[-122.3996,44.9041],[-122.3932,44.8917],[-122.401,44.8857],[-121.7342,44.8857],[-121.7529,44.8616],[-121.7419,44.8474],[-121.7536,44.8289],[-121.7648,44.8203],[-121.8122,44.8116],[-121.8203,44.8001],[-121.8125,44.7817],[-121.796,44.7728],[-121.7732,44.7756],[-121.76,44.7623],[-121.7916,44.7463],[-121.8046,44.7292],[-121.7944,44.7259],[-121.803,44.7095],[-121.7872,44.6893],[-121.8004,44.683],[-121.7979,44.6403],[-121.8116,44.6158],[-121.7939,44.5941],[-121.8033,44.5553],[-121.8163,44.5374],[-121.8094,44.5144],[-121.8231,44.5112],[-121.8494,44.4845],[-121.843,44.479],[-121.8495,44.4667],[-121.8411,44.4449],[-121.8476,44.4305],[-121.8413,44.411],[-121.846,44.3669],[-121.8369,44.3573],[-121.8439,44.3464],[-121.8376,44.334],[-121.8413,44.2857],[-121.8256,44.2834],[-121.8192,44.262],[-121.7896,44.2493],[-121.7782,44.2215],[-121.7856,44.2078],[-121.774,44.1902],[-121.7797,44.1757],[-121.7716,44.1676],[-121.784,44.1485],[-121.7727,44.1398],[-121.7693,44.1013],[-121.8022,44.0527],[-121.8345,44.0397],[-121.822,44.0124],[-121.8334,43.9911],[-121.8284,43.9887],[-121.8451,43.9762],[-121.8367,43.9712],[-121.8597,43.9615],[-121.8694,43.9119],[-121.8914,43.9087],[-121.9015,43.9159],[-121.9282,43.9092],[-121.9393,43.9009],[-121.9324,43.8942],[-121.9751,43.8576],[-121.9755,43.8118],[-121.9638,43.8097],[-121.9674,43.787],[-121.9605,43.7812],[-121.9696,43.7695],[-121.9614,43.7637],[-121.9812,43.743],[-121.9737,43.7306],[-121.9746,43.7086],[-121.9669,43.7028],[-121.9869,43.6539],[-121.9649,43.627],[-122.0001,43.6264],[-122.011,43.6093],[-122.0715,43.5878],[-122.0713,43.5796],[-122.0935,43.5792],[-122.131,43.5573],[-122.1495,43.5207],[-122.1298,43.5057],[-122.1309,43.4851],[-122.1405,43.4667],[-122.1369,43.4563],[-122.153,43.4477],[-122.132,43.4402],[-122.7417,43.4374],[-122.7418,43.5447],[-123.1075,43.54],[-123.1073,43.6059],[-123.1372,43.6059],[-123.1373,43.7797],[-123.3482,43.7802],[-123.3482,43.8092],[-123.4704,43.8101],[-123.4703,43.8312],[-123.5292,43.8301],[-123.529,43.8683],[-123.5797,43.8683],[-123.5796,43.8911],[-123.6196,43.8917],[-123.619,43.9211],[-123.6589,43.9217],[-123.6588,43.9365],[-123.7036,43.9374],[-123.7038,43.9443],[-123.832,43.9431],[-123.8321,43.936],[-123.8828,43.9046],[-123.8972,43.9047],[-123.9024,43.8963],[-123.9259,43.8985],[-123.9255,43.8659],[-123.9465,43.8717],[-123.9463,43.8627],[-124.1587,43.8637],[-124.124,44.1058]]]}}]}