{"type":"FeatureCollection","features":[{"type":"Feature","properties":{"id":"connemara","kind":"footprint"},"geometry":{"type":"MultiPolygon","coordinates":[[[[-9.8922,51.6113],[-9.9179,51.6194],[-9.9155,51.6291],[-9.8817,51.6411],[-9.7993,51.6368],[-9.8135,51.6276],[-9.8922,51.6113]]],[[[-8.7,51.577],[-8.7428,51.5756],[-8.7651,51.5903],[-8.8539,51.5959],[-8.888,51.5556],[-8.9289,51.546],[-8.9332,51.5353],[-8.9911,51.563],[-9.0729,51.5494],[-9.1208,51.563],[-9.1208,51.5556],[-9.1077,51.5494],[-9.1157,51.5379],[-9.1433,51.5239],[-9.1925,51.5246],[-9.1896,51.5084],[-9.204,51.508],[-9.2238,51.4873],[-9.2648,51.4873],[-9.2721,51.5084],[-9.3353,51.477],[-9.3814,51.4736],[-9.3467,51.5009],[-9.3729,51.4913],[-9.3678,51.5084],[-9.3199,51.5351],[-9.3275,51.5425],[-9.4018,51.5009],[-9.4139,51.5111],[-9.4018,51.546],[-9.4433,51.5595],[-9.4565,51.5556],[-9.448,51.5436],[-9.5475,51.5253],[-9.5563,51.5081],[-9.5807,51.5084],[-9.6113,51.4938],[-9.6284,51.4941],[-9.6296,51.5041],[-9.6559,51.5202],[-9.7172,51.4804],[-9.7035,51.4736],[-9.7718,51.4531],[-9.769,51.4643],[-9.7779,51.4622],[-9.8066,51.4457],[-9.8134,51.4531],[-9.8202,51.4457],[-9.8134,51.4736],[-9.8339,51.4873],[-9.7938,51.4997],[-9.7401,51.5298],[-9.6831,51.5425],[-9.6217,51.5828],[-9.5459,51.6108],[-9.592,51.6137],[-9.785,51.5525],[-9.8475,51.5494],[-9.7864,51.5735],[-9.7703,51.5922],[-9.608,51.6424],[-9.5946,51.6555],[-9.4586,51.684],[-9.4429,51.72],[-9.4573,51.7246],[-9.4898,51.7145],[-9.5255,51.7269],[-9.5255,51.7473],[-9.5602,51.7616],[-9.5566,51.7309],[-9.5459,51.72],[-9.6268,51.685],[-9.8741,51.6562],[-9.9301,51.6374],[-9.9419,51.6213],[-10.0288,51.5965],[-10.0701,51.6039],[-10.1161,51.6003],[-10.1561,51.5828],[-10.1628,51.5903],[-10.1433,51.6136],[-10.0598,51.6313],[-10.0707,51.657],[-10.1008,51.6592],[-10.0881,51.6716],[-10.0038,51.678],[-9.9569,51.7064],[-9.9569,51.7138],[-9.9978,51.7138],[-9.9807,51.7319],[-9.9149,51.7576],[-9.8885,51.7616],[-9.9023,51.7412],[-9.8609,51.7548],[-9.8406,51.7418],[-9.8314,51.7158],[-9.8188,51.71],[-9.8192,51.6872],[-9.7839,51.6895],[-9.7161,51.7344],[-9.6583,51.7427],[-9.609,51.776],[-9.4515,51.7885],[-9.4128,51.8196],[-9.3217,51.8425],[-9.2748,51.8842],[-9.2836,51.9077],[-9.302,51.9239],[-9.2964,51.9375],[-9.2341,51.9653],[-9.1306,51.9796],[-9.1182,51.9938],[-9.2086,52.0263],[-9.2013,52.0572],[-9.1781,52.076],[-9.1964,52.0894],[-9.2203,52.133],[-9.241,52.1949],[-9.2646,52.2229],[-9.2653,52.2423],[-9.2535,52.2587],[-9.2155,52.2817],[-9.2166,52.294],[-9.1292,52.3306],[-9.0258,52.3157],[-8.9732,52.293],[-8.9705,52.3053],[-8.8959,52.3217],[-8.8733,52.345],[-8.7943,52.3792],[-8.7,52.3765],[-8.7,51.6413],[-8.7576,51.645],[-8.7433,51.6352],[-8.7,51.6313],[-8.7,51.577]]],[[[-9.8012,53.1465],[-9.7775,53.1468],[-9.7522,53.1354],[-9.7157,53.1383],[-9.6711,53.1305],[-9.6634,53.1232],[-9.6715,53.1092],[-9.6409,53.1015],[-9.6424,53.0938],[-9.6605,53.0906],[-9.8114,53.1376],[-9.8012,53.1465]]],[[[-9.0221,53.1268],[-9.0013,53.1456],[-9.0456,53.1662],[-9.0456,53.1737],[-9.0096,53.1661],[-9.0,53.1726],[-9.0,53.0948],[-9.0157,53.1052],[-9.0221,53.1268]]],[[[-9.0,53.216],[-9.0456,53.2209],[-9.0281,53.2275],[-9.0,53.2318],[-9.0,53.216]]],[[[-9.7104,53.2755],[-9.6847,53.2824],[-9.6627,53.2755],[-9.6383,53.251],[-9.6583,53.2327],[-9.6924,53.2264],[-9.7104,53.2386],[-9.719,53.2604],[-9.7104,53.2755]]],[[[-9.4479,53.2319],[-9.5117,53.2283],[-9.5329,53.2344],[-9.5664,53.2618],[-9.5473,53.2791],[-9.5546,53.2907],[-9.5714,53.2905],[-9.5968,53.2377],[-9.6123,53.2362],[-9.6284,53.2482],[-9.6091,53.2763],[-9.6173,53.3215],[-9.5974,53.3301],[-9.577,53.3239],[-9.5608,53.3412],[-9.6011,53.3649],[-9.5528,53.3854],[-9.6217,53.3785],[-9.6085,53.3666],[-9.6066,53.3494],[-9.6155,53.3347],[-9.6346,53.3301],[-9.6525,53.3413],[-9.6378,53.3775],[-9.6384,53.3854],[-9.6527,53.3928],[-9.6847,53.3752],[-9.7431,53.3144],[-9.8067,53.3016],[-9.8429,53.3233],[-9.8866,53.3172],[-9.9023,53.3239],[-9.8872,53.3592],[-9.8413,53.3679],[-9.7855,53.3928],[-9.7855,53.399],[-9.8202,53.399],[-9.8202,53.4064],[-9.7992,53.4127],[-9.7992,53.4195],[-9.8252,53.4167],[-9.8602,53.3942],[-9.8754,53.3952],[-9.8811,53.4064],[-9.8475,53.4337],[-9.8848,53.4195],[-9.9114,53.426],[-9.9256,53.4097],[-9.9224,53.3892],[-9.9614,53.3796],[-10.0141,53.3813],[-10.0493,53.4098],[-10.0632,53.4127],[-10.1276,53.4099],[-10.1418,53.4195],[-10.1765,53.4127],[-10.157,53.4396],[-10.1422,53.4457],[-10.068,53.4438],[-10.053,53.4536],[-10.053,53.4611],[-10.0742,53.4658],[-10.0871,53.4815],[-10.0206,53.4704],[-10.0121,53.4815],[-10.1073,53.4945],[-10.1282,53.5089],[-10.1348,53.5271],[-10.1527,53.5436],[-10.1935,53.538],[-10.2032,53.5436],[-10.1803,53.5555],[-10.1077,53.5498],[-10.1151,53.5703],[-10.0257,53.5629],[-10.0052,53.5436],[-9.9957,53.5462],[-9.9711,53.5629],[-10.0468,53.5993],[-10.0087,53.6044],[-9.9307,53.5998],[-9.8544,53.6181],[-9.8229,53.6064],[-9.6968,53.5982],[-9.5575,53.6095],[-9.5399,53.5831],[-9.5025,53.5785],[-9.4648,53.5631],[-9.3468,53.5633],[-9.3449,53.5433],[-9.29,53.5398],[-9.268,53.5098],[-9.2403,53.4998],[-9.2221,53.4827],[-9.1874,53.4752],[-9.1298,53.4843],[-9.0976,53.5013],[-9.0361,53.5541],[-9.0432,53.5717],[-9.016,53.5829],[-9.0,53.6034],[-9.0,53.2736],[-9.4014,53.248],[-9.4479,53.2319]]]]}}]}