{"type":"FeatureCollection","features":[{"type":"Feature","properties":{"id":"downeast-maine","kind":"footprint"},"geometry":{"type":"Polygon","coordinates":[[[-67.3882,44.5204],[-67.4434,44.5053],[-67.449,44.4726],[-67.4828,44.44],[-67.574,44.395],[-67.6274,44.3835],[-67.6746,44.3946],[-67.7153,44.3865],[-67.7417,44.3908],[-67.7747,44.4113],[-67.8056,44.391],[-67.796,44.3795],[-67.7953,44.3612],[-67.8237,44.327],[-67.8744,44.3169],[-67.8982,44.3221],[-67.9252,44.3414],[-67.9374,44.3988],[-67.9636,44.4249],[-67.9819,44.4723],[-67.9732,44.4893],[-67.9923,44.505],[-68.0172,44.5891],[-67.9936,44.5922],[-68.0161,44.6767],[-68.0346,44.6741],[-68.105,44.9391],[-67.9819,44.9559],[-68.055,45.2526],[-67.9398,45.2678],[-67.9669,45.3519],[-67.9579,45.3532],[-67.9727,45.4043],[-68.048,45.6399],[-67.897,45.6653],[-67.9023,45.6801],[-67.8736,45.6693],[-67.8057,45.6801],[-67.7687,45.6775],[-67.7543,45.6676],[-67.7444,45.6729],[-67.7201,45.6623],[-67.7335,45.684],[-67.7283,45.6892],[-67.7096,45.6813],[-67.6752,45.6307],[-67.6456,45.6133],[-67.6391,45.6251],[-67.6084,45.6061],[-67.5192,45.5876],[-67.499,45.5867],[-67.488,45.5958],[-67.4933,45.6013],[-67.45,45.6025],[-67.4232,45.5716],[-67.4289,45.5683],[-67.4207,45.5497],[-67.4349,45.5281],[-67.4162,45.5013],[-67.4501,45.5103],[-67.4516,45.4991],[-67.4636,45.5084],[-67.4712,45.5009],[-67.4637,45.4971],[-67.5037,45.4867],[-67.4821,45.4594],[-67.4727,45.4232],[-67.4612,45.4222],[-67.4192,45.3771],[-67.4345,45.365],[-67.4254,45.3574],[-67.4312,45.3411],[-67.4569,45.3253],[-67.4518,45.3177],[-67.4603,45.3],[-67.4761,45.2886],[-67.4851,45.2912],[-67.4897,45.2821],[-67.4764,45.2754],[-67.4642,45.2451],[-67.437,45.2227],[-67.4293,45.1935],[-67.4005,45.1777],[-67.405,45.1601],[-67.3408,45.125],[-67.3208,45.1313],[-67.32,45.1424],[-67.296,45.1478],[-67.3027,45.1607],[-67.2834,45.1919],[-67.2474,45.1809],[-67.2273,45.1634],[-67.2051,45.1714],[-67.1589,45.162],[-67.1126,45.1126],[-67.0217,44.9539],[-66.9687,44.9104],[-66.9821,44.8673],[-66.9749,44.8416],[-66.9653,44.8289],[-66.9326,44.8255],[-66.8854,44.7942],[-66.9026,44.7766],[-66.9523,44.7604],[-66.9775,44.7312],[-67.0393,44.697],[-67.0967,44.6392],[-67.1409,44.6083],[-67.2359,44.5581],[-67.3008,44.5499],[-67.3178,44.5315],[-67.343,44.5208],[-67.3882,44.5204]]]}}]}