{"type":"FeatureCollection","features":[{"type":"Feature","properties":{"id":"finger-lakes","kind":"footprint"},"geometry":{"type":"Polygon","coordinates":[[[-76.6195,42.2487],[-76.6423,42.2337],[-76.6857,42.2376],[-76.6858,42.2483],[-76.7327,42.2481],[-76.7339,42.2937],[-76.9648,42.2874],[-76.965,42.2785],[-77.0997,42.2724],[-77.1076,42.5058],[-77.1148,42.5083],[-77.1348,42.4948],[-77.1495,42.5001],[-77.1438,42.5769],[-77.3665,42.5764],[-77.3671,42.6678],[-77.3574,42.668],[-77.3466,42.7164],[-77.3129,42.7615],[-76.9714,42.7642],[-76.9781,42.7742],[-76.9729,42.8371],[-76.9813,42.8613],[-76.9634,42.8729],[-76.9639,43.0132],[-76.7138,43.024],[-76.7178,43.0626],[-76.7023,43.0804],[-76.7535,43.6843],[-76.7347,43.7081],[-76.6447,43.7035],[-76.605,43.2536],[-76.4811,43.2566],[-76.4731,43.146],[-76.4863,43.1432],[-76.4718,43.105],[-76.4912,43.1063],[-76.4993,43.0977],[-76.4919,43.005],[-76.463,43.0063],[-76.4507,42.8458],[-76.357,42.8494],[-76.2988,42.8075],[-76.2753,42.7805],[-76.2534,42.4076],[-76.2932,42.4066],[-76.2996,42.3845],[-76.2426,42.364],[-76.2377,42.3514],[-76.2514,42.325],[-76.2501,42.2967],[-76.2882,42.2968],[-76.2882,42.3082],[-76.3506,42.3084],[-76.3509,42.3183],[-76.4153,42.3184],[-76.4162,42.263],[-76.4745,42.2638],[-76.474,42.2811],[-76.6193,42.2824],[-76.6195,42.2487]]]}}]}