{"type":"FeatureCollection","features":[{"type":"Feature","properties":{"id":"kootenays","kind":"footprint"},"geometry":{"type":"Polygon","coordinates":[[[-118.3993,50.034],[-118.3995,50.0789],[-118.3806,50.0778],[-118.377,50.0908],[-118.3377,50.0989],[-118.2952,50.0974],[-118.2901,50.1316],[-118.2953,50.1358],[-118.2803,50.1438],[-118.2786,50.1566],[-118.2513,50.1695],[-118.2645,50.1814],[-118.2423,50.195],[-118.2369,50.2076],[-118.2607,50.228],[-118.2749,50.2784],[-118.2675,50.2963],[-118.2475,50.3012],[-118.2629,50.3136],[-118.2553,50.327],[-118.2657,50.3281],[-118.2578,50.3354],[-118.3049,50.3418],[-118.2912,50.3707],[-118.2985,50.3809],[-118.2811,50.3937],[-118.2538,50.3994],[-118.2755,50.4027],[-118.2718,50.4365],[-118.2123,50.4402],[-118.2022,50.4554],[-118.2205,50.4763],[-118.1929,50.4763],[-118.1716,50.4964],[-118.2116,50.5157],[-118.2037,50.5312],[-118.2162,50.5387],[-118.2018,50.5524],[-118.1815,50.552],[-118.1843,50.5694],[-118.1626,50.5893],[-118.1696,50.6065],[-118.1629,50.6122],[-118.18,50.6233],[-118.181,50.6353],[-118.2028,50.6386],[-118.2067,50.6547],[-118.1752,50.6676],[-118.2139,50.6796],[-118.208,50.6893],[-118.1273,50.6808],[-118.0717,50.6915],[-118.0671,50.6645],[-118.0086,50.6435],[-118.0099,50.6031],[-117.9886,50.5337],[-117.8502,50.5279],[-117.8447,50.5453],[-117.8246,50.5412],[-117.7781,50.5517],[-117.7695,50.5462],[-117.7526,50.5577],[-117.7081,50.551],[-117.6771,50.5388],[-117.6766,50.532],[-117.6493,50.5326],[-117.6377,50.5484],[-117.6166,50.5442],[-117.5868,50.5041],[-117.5511,50.498],[-117.5503,50.4842],[-117.5103,50.4608],[-117.4944,50.4711],[-117.5005,50.4864],[-117.4912,50.4904],[-117.4491,50.4935],[-117.4393,50.4832],[-117.3432,50.4826],[-117.2869,50.5041],[-117.2805,50.5137],[-117.2373,50.5137],[-117.2435,50.5348],[-117.2613,50.5391],[-117.2641,50.551],[-117.2848,50.5575],[-117.2824,50.5651],[-117.3076,50.5743],[-117.2746,50.596],[-117.2733,50.6139],[-117.2306,50.6319],[-117.2347,50.6528],[-117.256,50.6542],[-117.2753,50.6716],[-117.2642,50.6923],[-117.2667,50.721],[-117.2528,50.7421],[-117.2764,50.7441],[-117.3236,50.7244],[-117.3574,50.7197],[-117.3622,50.7156],[-117.3565,50.7061],[-117.367,50.6991],[-117.399,50.711],[-117.4027,50.7182],[-117.3891,50.7216],[-117.3829,50.7475],[-117.4056,50.7789],[-117.4311,50.7829],[-117.435,50.7968],[-117.4663,50.8036],[-117.4644,50.8218],[-117.4533,50.83],[-117.4698,50.8662],[-117.491,50.8852],[-117.468,50.9026],[-117.421,50.9067],[-117.4197,50.925],[-117.4393,50.9351],[-117.4286,50.9516],[-117.3956,50.9645],[-117.403,50.98],[-117.3894,50.9911],[-117.3907,50.9998],[-117.3526,51.0222],[-117.3433,51.0361],[-117.3003,51.0356],[-117.2578,51.0593],[-117.2103,51.0645],[-117.205,51.0516],[-117.1704,51.0419],[-117.1713,51.0246],[-117.1358,51.0226],[-117.1452,51.0046],[-117.1645,50.9943],[-117.1621,50.9751],[-117.127,50.977],[-117.1149,50.9669],[-117.0719,50.9713],[-117.0602,50.9609],[-117.04,50.9581],[-117.0725,50.92],[-117.0675,50.9094],[-117.0795,50.8981],[-117.0733,50.8908],[-117.087,50.8647],[-117.0689,50.8532],[-117.046,50.8584],[-117.0526,50.8299],[-117.0401,50.8148],[-117.0167,50.8196],[-116.9895,50.8084],[-116.9605,50.809],[-116.8847,50.7714],[-116.8591,50.7692],[-116.8444,50.7822],[-116.8134,50.785],[-116.8137,50.7682],[-116.8295,50.7531],[-116.8165,50.7429],[-116.821,50.7354],[-116.8086,50.7272],[-116.7953,50.7297],[-116.7887,50.7202],[-116.7943,50.7129],[-116.7813,50.6988],[-116.7688,50.7019],[-116.749,50.693],[-116.7499,50.6788],[-116.7174,50.6696],[-116.6576,50.6784],[-116.6533,50.6692],[-116.6105,50.6681],[-116.5981,50.6486],[-116.5784,50.6416],[-116.5763,50.6349],[-116.5856,50.6287],[-116.6121,50.6302],[-116.6323,50.6032],[-116.6559,50.5973],[-116.6694,50.5703],[-116.6611,50.562],[-116.6701,50.5346],[-116.6983,50.519],[-116.6908,50.4888],[-116.7188,50.4665],[-116.6936,50.4505],[-116.6917,50.4314],[-116.6557,50.4227],[-116.6405,50.41],[-116.6316,50.3855],[-116.6365,50.3773],[-116.6159,50.3499],[-116.627,50.3422],[-116.6166,50.3223],[-116.6205,50.3173],[-116.5937,50.308],[-116.5421,50.3194],[-116.5559,50.2808],[-116.5476,50.2431],[-116.559,50.2333],[-116.5544,50.223],[-116.5617,50.2166],[-116.5493,50.2075],[-116.5089,50.2042],[-116.4884,50.1906],[-116.4899,50.175],[-116.4775,50.1611],[-116.4529,50.1554],[-116.4486,50.1252],[-116.4667,50.1078],[-116.4802,50.1102],[-116.4947,50.0997],[-116.5,50.0656],[-116.498,50.0531],[-116.4699,50.0393],[-116.469,50.0044],[-116.4426,49.982],[-116.4522,49.9685],[-116.4652,49.966],[-116.5119,49.9864],[-116.5615,49.953],[-116.5804,49.953],[-116.5832,49.9306],[-116.6144,49.9176],[-116.6339,49.8875],[-116.6952,49.8761],[-116.6831,49.8627],[-116.6908,49.8445],[-116.6731,49.8188],[-116.6853,49.8131],[-116.6794,49.803],[-116.6614,49.7859],[-116.6428,49.7867],[-116.6276,49.776],[-116.6233,49.7507],[-116.587,49.7372],[-116.5947,49.7329],[-116.5919,49.7231],[-116.6075,49.7153],[-116.5886,49.697],[-116.6569,49.6709],[-116.6779,49.6419],[-116.672,49.6315],[-116.6446,49.6276],[-116.6497,49.6151],[-116.6826,49.5905],[-116.6747,49.583],[-116.6863,49.5796],[-116.6856,49.573],[-116.6507,49.5677],[-116.623,49.5466],[-116.622,49.5364],[-116.6393,49.5171],[-116.6411,49.4993],[-116.6647,49.4776],[-116.6312,49.4608],[-116.6151,49.4735],[-116.5958,49.4761],[-116.5785,49.4546],[-116.5254,49.4688],[-116.4878,49.4923],[-116.4653,49.4929],[-116.4535,49.5025],[-116.4592,49.5182],[-116.4525,49.5277],[-116.4256,49.5374],[-116.4141,49.5348],[-116.4093,49.5245],[-116.3617,49.5153],[-116.3397,49.5275],[-116.2974,49.523],[-116.2946,49.504],[-116.2795,49.4964],[-116.285,49.4771],[-116.2452,49.4639],[-116.244,49.4528],[-116.2566,49.4493],[-116.2325,49.4282],[-116.2384,49.4213],[-116.2063,49.4156],[-116.2055,49.4051],[-116.1824,49.3946],[-116.1793,49.3812],[-116.1601,49.3667],[-116.1568,49.3556],[-116.1804,49.3398],[-116.1852,49.326],[-116.1666,49.3036],[-116.169,49.2894],[-116.1251,49.2806],[-116.1049,49.2928],[-116.0665,49.261],[-116.0747,49.2543],[-116.0625,49.2339],[-116.0976,49.2001],[-116.0271,49.1998],[-116.0269,49.0009],[-117.4694,49.0005],[-117.4659,49.0881],[-117.5161,49.0881],[-117.5167,49.1169],[-117.5002,49.1603],[-117.4725,49.1747],[-117.6755,49.1787],[-117.6755,49.208],[-117.6811,49.2082],[-117.6737,49.2245],[-117.7037,49.2282],[-117.7037,49.2637],[-118.1348,49.2637],[-118.142,49.2738],[-118.1726,49.2446],[-118.1827,49.2654],[-118.1783,49.2752],[-118.1984,49.2792],[-118.2098,49.2942],[-118.213,49.3235],[-118.2408,49.3402],[-118.2394,49.3568],[-118.2532,49.3622],[-118.2513,49.3784],[-118.2674,49.3974],[-118.2572,49.4033],[-118.2607,49.413],[-118.2789,49.4218],[-118.2616,49.4228],[-118.2549,49.4379],[-118.2579,49.4508],[-118.2823,49.4671],[-118.2884,49.4908],[-118.2746,49.5109],[-118.2789,49.524],[-118.2596,49.5358],[-118.2441,49.5641],[-118.2549,49.6003],[-118.242,49.6338],[-118.2479,49.6534],[-118.2423,49.6617],[-118.2732,49.6631],[-118.2819,49.6917],[-118.2719,49.7084],[-118.2807,49.7169],[-118.2839,49.7421],[-118.3058,49.7376],[-118.2885,49.7543],[-118.2983,49.7681],[-118.2878,49.7887],[-118.3019,49.8111],[-118.3772,49.8247],[-118.3854,49.872],[-118.3679,49.8749],[-118.3529,49.8942],[-118.3771,49.9123],[-118.4173,49.9085],[-118.4138,49.9347],[-118.4225,49.9418],[-118.416,49.9749],[-118.4655,49.9758],[-118.4718,49.9894],[-118.4682,50.0041],[-118.451,50.0017],[-118.4526,50.0079],[-118.4381,50.0052],[-118.4315,50.0118],[-118.4506,50.0249],[-118.5,50.031],[-118.3993,50.034]],[[-116.5982,49.0882],[-116.6015,49.0951],[-116.6019,49.1027],[-116.6067,49.1027],[-116.6082,49.0879],[-116.5982,49.0882]],[[-116.5792,49.1658],[-116.5878,49.183],[-116.5932,49.1786],[-116.5887,49.171],[-116.6027,49.1569],[-116.5792,49.1658]],[[-116.5967,49.0882],[-116.5971,49.0908],[-116.5915,49.1027],[-116.6013,49.1027],[-116.5967,49.0882]],[[-116.5906,49.1027],[-116.5922,49.1007],[-116.5958,49.0882],[-116.5906,49.1027]],[[-116.596,49.139],[-116.5861,49.1484],[-116.5898,49.149],[-116.5963,49.1487],[-116.596,49.139]],[[-116.5765,49.0882],[-116.569,49.1027],[-116.588,49.1027],[-116.5941,49.0897],[-116.5765,49.0882]],[[-116.5831,49.1311],[-116.5792,49.1303],[-116.579,49.1389],[-116.5932,49.1403],[-116.5831,49.1311]],[[-116.5794,49.1176],[-116.5527,49.1173],[-116.5711,49.1306],[-116.5818,49.1257],[-116.5794,49.1176]],[[-116.5764,49.1171],[-116.5794,49.1171],[-116.5785,49.1117],[-116.5764,49.1171]],[[-116.562,49.0892],[-116.5553,49.0961],[-116.5647,49.1029],[-116.5759,49.0882],[-116.562,49.0892]],[[-116.5387,49.062],[-116.5475,49.0466],[-116.5221,49.0462],[-116.5174,49.0357],[-116.5363,49.0292],[-116.5131,49.0218],[-116.5133,49.0341],[-116.5123,49.0449],[-116.5137,49.0469],[-116.5133,49.0517],[-116.5305,49.0737],[-116.5314,49.0835],[-116.5634,49.0881],[-116.5596,49.0642],[-116.5387,49.062]],[[-116.5188,49.0617],[-116.5134,49.0599],[-116.5123,49.0585],[-116.5107,49.0585],[-116.5113,49.0691],[-116.5222,49.0694],[-116.5188,49.0617]],[[-116.5129,49.0517],[-116.5106,49.0368],[-116.5109,49.0555],[-116.5186,49.0612],[-116.5129,49.0517]],[[-116.5109,49.0561],[-116.511,49.0582],[-116.512,49.0579],[-116.5109,49.0561]]]}}]}