{"type":"FeatureCollection","features":[{"type":"Feature","properties":{"id":"millevaches","kind":"footprint"},"geometry":{"type":"Polygon","coordinates":[[[1.8157,45.4279],[1.8043,45.4305],[1.7908,45.4479],[1.7554,45.4375],[1.7327,45.4514],[1.6978,45.4494],[1.6985,45.4623],[1.6896,45.4663],[1.6804,45.4609],[1.6816,45.4694],[1.6723,45.473],[1.6913,45.489],[1.666,45.5112],[1.6762,45.528],[1.6691,45.5346],[1.6864,45.5558],[1.6653,45.5658],[1.6483,45.591],[1.627,45.5773],[1.601,45.5818],[1.5891,45.5764],[1.5827,45.5837],[1.5877,45.5906],[1.576,45.5981],[1.5797,45.6079],[1.5624,45.6199],[1.5696,45.6262],[1.566,45.6397],[1.5523,45.6412],[1.5842,45.6637],[1.6056,45.6586],[1.6321,45.6701],[1.6163,45.6722],[1.6166,45.6811],[1.6438,45.6761],[1.6431,45.6825],[1.6522,45.6821],[1.649,45.7001],[1.6707,45.7091],[1.6729,45.7179],[1.695,45.7156],[1.7092,45.7227],[1.6921,45.7374],[1.6752,45.7382],[1.6623,45.7615],[1.6477,45.7571],[1.6386,45.7685],[1.6229,45.7624],[1.611,45.7739],[1.5988,45.7675],[1.578,45.7773],[1.5721,45.7882],[1.5918,45.7926],[1.5824,45.8121],[1.5944,45.8135],[1.5892,45.8203],[1.5998,45.8249],[1.608,45.8174],[1.6091,45.826],[1.6026,45.826],[1.608,45.8303],[1.6125,45.8226],[1.6192,45.8249],[1.6162,45.8462],[1.6544,45.8455],[1.6598,45.834],[1.6924,45.8446],[1.7306,45.8419],[1.7557,45.8557],[1.7568,45.8675],[1.7815,45.8689],[1.7758,45.9004],[1.7904,45.909],[1.8083,45.9007],[1.8129,45.9249],[1.8051,45.9307],[1.8069,45.9411],[1.7924,45.9428],[1.7813,45.9635],[1.7859,45.9688],[1.7668,45.977],[1.769,45.9893],[1.7567,45.9947],[1.7786,45.9986],[1.7749,46.0111],[1.7957,46.0239],[1.7969,46.0334],[1.829,46.0192],[1.8303,46.0117],[1.8526,46.0113],[1.8694,46.0013],[1.8543,45.9913],[1.8705,45.9893],[1.8743,45.9811],[1.8621,45.9741],[1.8694,45.9643],[1.8576,45.955],[1.8701,45.9449],[1.8713,45.9214],[1.8563,45.9202],[1.8626,45.9102],[1.8464,45.9031],[1.8549,45.8963],[1.8501,45.8857],[1.8747,45.8798],[1.8921,45.8873],[1.9037,45.8738],[1.9497,45.9032],[1.9439,45.915],[1.9317,45.9156],[1.919,45.9293],[1.9258,45.9366],[1.9489,45.9369],[1.9508,45.9429],[1.9288,45.9555],[1.9508,45.9647],[1.9626,45.9604],[1.962,45.9735],[2.0149,45.9581],[2.0365,45.9403],[2.071,45.9409],[2.0666,45.93],[2.0768,45.9254],[2.0917,45.9276],[2.0783,45.9318],[2.0755,45.9431],[2.0833,45.9487],[2.12,45.9497],[2.1203,45.9378],[2.1425,45.9207],[2.1549,45.936],[2.1802,45.9261],[2.1797,45.9003],[2.187,45.901],[2.1952,45.8883],[2.2024,45.8932],[2.2303,45.8793],[2.2509,45.889],[2.257,45.8781],[2.2831,45.8828],[2.3105,45.9057],[2.3516,45.8943],[2.3647,45.9115],[2.3944,45.9034],[2.391,45.8945],[2.4298,45.8853],[2.4253,45.8762],[2.4427,45.8704],[2.4476,45.8456],[2.4359,45.847],[2.4306,45.8342],[2.4031,45.8387],[2.3881,45.8258],[2.427,45.7945],[2.4448,45.7582],[2.4549,45.7613],[2.4741,45.7457],[2.4848,45.7485],[2.5236,45.7111],[2.519,45.6978],[2.5269,45.6949],[2.5286,45.6821],[2.5126,45.6696],[2.5193,45.659],[2.5287,45.6588],[2.5209,45.6418],[2.4841,45.64],[2.4803,45.6114],[2.4611,45.5964],[2.4757,45.5823],[2.4713,45.5792],[2.4915,45.5682],[2.4909,45.5605],[2.5166,45.5532],[2.5201,45.5302],[2.5113,45.5246],[2.5205,45.5204],[2.5085,45.5011],[2.5107,45.5164],[2.4938,45.5291],[2.4785,45.5307],[2.4695,45.5211],[2.4658,45.5348],[2.4439,45.5328],[2.4252,45.5437],[2.3828,45.532],[2.3578,45.537],[2.3414,45.5273],[2.3462,45.5415],[2.3403,45.5553],[2.3558,45.566],[2.3462,45.5705],[2.356,45.5818],[2.3428,45.5944],[2.3052,45.6014],[2.2956,45.5746],[2.2818,45.5735],[2.2716,45.5534],[2.2586,45.554],[2.267,45.5415],[2.2319,45.5299],[2.2472,45.5291],[2.2511,45.5213],[2.2649,45.5261],[2.2571,45.5061],[2.2839,45.5108],[2.2887,45.4967],[2.2646,45.485],[2.2639,45.4692],[2.2464,45.4657],[2.2515,45.4525],[2.2083,45.451],[2.2022,45.4569],[2.1457,45.4321],[2.1476,45.3981],[2.141,45.3919],[2.1293,45.3919],[2.1257,45.4148],[2.1162,45.4075],[2.1151,45.3941],[2.1016,45.4042],[2.0863,45.4021],[2.0894,45.4052],[2.088,45.4087],[2.072,45.4139],[2.0672,45.4248],[2.043,45.4159],[2.0336,45.4282],[2.045,45.4383],[2.0426,45.4456],[2.0045,45.4554],[2.0152,45.4454],[1.998,45.4356],[1.9996,45.424],[1.9718,45.412],[1.9784,45.4076],[1.9673,45.397],[1.9872,45.383],[1.9585,45.375],[1.9619,45.3579],[1.9351,45.3431],[1.8828,45.3376],[1.8533,45.3257],[1.8424,45.3472],[1.8612,45.3649],[1.838,45.365],[1.8276,45.3571],[1.8223,45.3622],[1.8283,45.3938],[1.8057,45.4002],[1.8157,45.4279]]]}}]}