{"type":"FeatureCollection","features":[{"type":"Feature","properties":{"id":"ne-missouri-se-iowa","kind":"footprint"},"geometry":{"type":"Polygon","coordinates":[[[-92.3499,40.3027],[-92.35,40.3465],[-92.6842,40.3435],[-92.686,40.3943],[-92.6721,40.3915],[-92.6662,40.3977],[-92.6797,40.4038],[-92.6793,40.4069],[-92.6646,40.4094],[-92.7009,40.4287],[-92.6945,40.4357],[-92.7101,40.444],[-92.7014,40.4494],[-92.7093,40.46],[-92.6994,40.4639],[-92.7046,40.4742],[-92.7012,40.484],[-92.6851,40.4853],[-92.676,40.4995],[-92.6862,40.503],[-92.6883,40.5169],[-92.6708,40.5195],[-92.7076,40.535],[-92.6924,40.5503],[-92.6844,40.5485],[-92.6857,40.5631],[-92.7108,40.5572],[-92.7193,40.5636],[-92.6922,40.5675],[-92.6901,40.5754],[-92.6945,40.5683],[-92.7021,40.571],[-92.7022,40.581],[-92.7212,40.584],[-92.7146,40.5896],[-93.0973,40.584],[-93.0976,40.8985],[-91.7182,40.9011],[-91.7188,40.8135],[-91.4095,40.8129],[-91.3117,40.7721],[-91.2934,40.7726],[-91.2818,40.7537],[-91.2483,40.7504],[-91.2171,40.7323],[-91.2095,40.714],[-91.1968,40.7192],[-91.18,40.7083],[-91.1761,40.7214],[-91.1635,40.7227],[-91.1506,40.7062],[-91.1124,40.6963],[-91.1239,40.6692],[-91.187,40.6373],[-91.2531,40.638],[-91.3487,40.6097],[-91.4015,40.5595],[-91.4041,40.5391],[-91.3845,40.5309],[-91.3642,40.5],[-91.3818,40.4426],[-91.3729,40.3991],[-91.382,40.3876],[-91.4157,40.3814],[-91.4463,40.3618],[-91.4899,40.286],[-91.4973,40.2488],[-91.9508,40.2572],[-91.9497,40.3008],[-92.3499,40.3027]]]}}]}