{"type":"FeatureCollection","features":[{"type":"Feature","properties":{"id":"north-karelia-kainuu","kind":"footprint"},"geometry":{"type":"Polygon","coordinates":[[[29.1836,62.3628],[29.1595,62.3559],[29.1682,62.3321],[29.1244,62.3265],[29.0895,62.343],[29.0409,62.3212],[29.0051,62.3274],[28.9853,62.3106],[28.96,62.3094],[28.9514,62.2992],[28.972,62.2906],[28.9351,62.286],[28.9509,62.2768],[28.9267,62.257],[28.8886,62.2637],[28.8597,62.2529],[28.8477,62.2643],[28.7903,62.2778],[28.7793,62.2934],[28.7528,62.2868],[28.7467,62.2533],[28.794,62.2106],[28.7797,62.2049],[28.738,62.217],[28.7159,62.2355],[28.7018,62.2238],[28.66,62.2392],[28.6528,62.2313],[28.5831,62.2695],[28.5625,62.2944],[28.5513,62.2924],[28.4992,62.3164],[28.4745,62.3183],[28.4823,62.3114],[28.4379,62.3168],[28.423,62.3289],[28.4339,62.3486],[28.3981,62.3573],[28.315,62.3546],[28.3234,62.358],[28.3188,62.368],[28.329,62.3781],[28.2842,62.3933],[28.285,62.4124],[28.2448,62.424],[28.2508,62.4315],[28.2974,62.4419],[28.2947,62.4571],[28.2768,62.4624],[28.2864,62.4731],[28.3819,62.4616],[28.3934,62.4849],[28.3678,62.5033],[28.3877,62.5088],[28.4028,62.5289],[28.3976,62.5558],[28.4092,62.5689],[28.4011,62.575],[28.4775,62.5658],[28.5208,62.5485],[28.5455,62.5684],[28.467,62.5832],[28.4868,62.5885],[28.5367,62.5842],[28.5608,62.597],[28.5777,62.5801],[28.6242,62.5997],[28.626,62.6061],[28.5987,62.6104],[28.6337,62.6212],[28.655,62.6683],[28.7029,62.6943],[28.644,62.7282],[28.6327,62.744],[28.6426,62.7608],[28.6806,62.7763],[28.717,62.7733],[28.7477,62.7991],[28.7444,62.8124],[28.7901,62.8338],[28.9429,62.7749],[28.9662,62.803],[29.0976,62.8456],[29.0103,62.8735],[28.9895,62.8964],[28.9386,62.9159],[28.9309,62.9366],[28.9633,62.9249],[28.9957,62.9276],[28.9909,62.9422],[28.9628,62.9458],[28.9774,62.9551],[28.9718,62.9588],[29.0675,62.9842],[29.038,63.0109],[28.861,63.057],[28.8313,63.0939],[28.7075,63.1704],[28.698,63.1831],[28.6108,63.2038],[28.6615,63.2417],[28.6479,63.2501],[28.7071,63.2722],[28.7029,63.2843],[28.6835,63.284],[28.7368,63.3114],[28.7595,63.3878],[28.6661,63.4232],[28.6497,63.4722],[28.6035,63.5275],[28.6136,63.5399],[28.6368,63.5481],[28.6505,63.5403],[28.6849,63.5527],[28.6067,63.5754],[28.5858,63.6591],[28.6065,63.6747],[28.5509,63.7006],[28.4612,63.6986],[28.4242,63.7265],[28.3596,63.7548],[28.2739,63.6688],[28.2013,63.7096],[28.1446,63.7247],[28.0609,63.7815],[27.9103,63.8521],[27.8928,63.8491],[27.745,63.9084],[27.6639,63.923],[27.6503,63.9187],[27.5406,63.9564],[27.4778,63.9615],[27.497,63.9497],[27.4495,63.9444],[27.4285,63.9479],[27.4187,63.9664],[27.2611,63.9893],[27.0125,63.999],[26.7811,64.0571],[26.7675,64.2652],[26.7484,64.2785],[26.8138,64.3062],[26.8884,64.3015],[26.9261,64.3119],[26.9217,64.3217],[26.9417,64.3271],[26.9641,64.2957],[27.0424,64.2845],[27.1878,64.3103],[27.1918,64.3499],[27.2476,64.3803],[27.2539,64.3909],[27.2512,64.399],[27.18,64.441],[27.1851,64.4559],[27.2055,64.474],[27.2966,64.5019],[27.3479,64.55],[27.4025,64.5744],[27.4566,64.5353],[27.4892,64.5443],[27.4917,64.5233],[27.5347,64.5026],[27.5608,64.5069],[27.5626,64.5166],[27.5905,64.5181],[27.6181,64.5041],[27.7155,64.5352],[27.7555,64.5294],[27.8313,64.5542],[27.8989,64.6021],[28.0743,64.6329],[28.1131,64.656],[28.1438,64.6368],[28.246,64.6368],[28.3102,64.6029],[28.3104,64.5933],[28.3212,64.5897],[28.4311,64.5967],[28.6267,64.55],[28.6174,64.5432],[28.6421,64.5372],[28.6509,64.5441],[28.8598,64.4934],[28.8814,64.4967],[28.9456,64.4683],[29.0598,64.4533],[29.1633,64.4546],[29.4168,64.5199],[29.4897,64.5993],[29.5091,64.6046],[29.5127,64.6114],[29.5064,64.6157],[29.5305,64.623],[29.5474,64.615],[29.6223,64.6354],[29.9894,64.5876],[29.9974,64.5773],[29.987,64.5339],[30.0146,64.5043],[30.0297,64.5006],[30.0244,64.483],[30.0459,64.4721],[30.0583,64.4509],[30.0501,64.4416],[30.0572,64.4342],[30.0449,64.402],[30.1099,64.365],[30.2102,64.3505],[30.3669,64.2997],[30.3608,64.2813],[30.3883,64.2691],[30.4824,64.2623],[30.5096,64.2217],[30.4664,64.2044],[30.5159,64.155],[30.5534,64.1322],[30.5536,64.1017],[30.528,64.0489],[30.447,63.9828],[30.3209,63.9095],[30.2604,63.822],[29.9719,63.7572],[30.0648,63.708],[30.0605,63.7038],[30.073,63.6947],[30.2441,63.6073],[30.2582,63.5839],[30.3845,63.5455],[30.484,63.4667],[30.7877,63.4053],[30.8501,63.3685],[30.9344,63.3555],[30.944,63.3367],[30.9792,63.3078],[31.0207,63.3032],[31.1018,63.2709],[31.1375,63.2652],[31.1646,63.2441],[31.2398,63.2189],[31.2382,63.1951],[31.2548,63.1787],[31.2554,63.1418],[31.2721,63.1076],[31.3609,63.0722],[31.3873,63.0493],[31.425,63.0433],[31.463,63.0242],[31.4488,63.0061],[31.5021,62.9963],[31.5867,62.9087],[31.4556,62.7968],[31.4667,62.7839],[31.4392,62.7849],[31.3803,62.6899],[31.3853,62.675],[31.3763,62.6695],[31.3733,62.6498],[31.3452,62.6401],[31.2216,62.4986],[31.1849,62.4938],[31.1733,62.4819],[31.1628,62.4461],[31.1381,62.4422],[30.9427,62.3332],[30.9621,62.3277],[30.9432,62.3058],[30.9042,62.3105],[30.8108,62.2707],[30.8087,62.261],[30.7203,62.2089],[30.657,62.2089],[30.6287,62.1888],[30.6358,62.1737],[30.6029,62.1418],[30.3517,61.98],[30.3059,61.9645],[30.3128,61.945],[30.3007,61.935],[30.2742,61.9336],[30.2114,61.8927],[30.1941,61.8913],[30.1962,61.8822],[30.1439,61.8523],[30.1336,61.8643],[30.0824,61.8532],[29.5593,61.7221],[29.5707,61.7361],[29.6384,61.7606],[29.6759,61.7917],[29.6896,61.8203],[29.6883,61.8377],[29.6654,61.8551],[29.6968,61.8644],[29.6149,61.9133],[29.6162,61.9357],[29.6604,61.9769],[29.5664,62.0248],[29.5724,62.0301],[29.5093,62.0383],[29.4595,62.0812],[29.4073,62.2018],[29.4301,62.2365],[29.394,62.2504],[29.3075,62.3343],[29.296,62.3867],[29.2677,62.4077],[29.2308,62.4178],[29.1992,62.402],[29.1742,62.4074],[29.1608,62.398],[29.1836,62.3628]]]}}]}