{"type":"FeatureCollection","features":[{"type":"Feature","properties":{"id":"nova-scotia","kind":"footprint"},"geometry":{"type":"MultiPolygon","coordinates":[[[[-65.5742,43.4767],[-65.6106,43.4282],[-65.6288,43.4221],[-65.6214,43.435],[-65.6269,43.4451],[-65.6561,43.463],[-65.6078,43.4835],[-65.6171,43.5079],[-65.6052,43.5141],[-65.5599,43.5108],[-65.5742,43.4767]]],[[[-59.8584,43.9236],[-59.9632,43.9141],[-60.0188,43.9138],[-60.0751,43.9272],[-60.117,43.9429],[-60.1302,43.9605],[-60.0739,43.9425],[-59.8715,43.9421],[-59.7935,43.9646],[-59.7072,44.0144],[-59.7571,43.9661],[-59.8584,43.9236]]],[[[-66.2982,44.2833],[-66.3135,44.2507],[-66.3277,44.2581],[-66.2418,44.3774],[-66.213,44.3958],[-66.2034,44.3922],[-66.2045,44.3812],[-66.2982,44.2833]]],[[[-64.0077,46.005],[-63.9049,45.9803],[-63.8703,45.9625],[-63.8667,45.9364],[-63.8249,45.9252],[-63.8109,45.9098],[-63.8059,45.8887],[-63.7589,45.8854],[-63.7159,45.8682],[-63.7575,45.847],[-63.7362,45.8419],[-63.6903,45.8531],[-63.6687,45.847],[-63.6742,45.8364],[-63.6697,45.8234],[-63.6523,45.8368],[-63.6591,45.8738],[-63.6288,45.8623],[-63.593,45.8751],[-63.4919,45.8826],[-63.4391,45.8756],[-63.4086,45.8545],[-63.4831,45.8607],[-63.4381,45.8384],[-63.4285,45.8266],[-63.4476,45.8214],[-63.5043,45.8266],[-63.5228,45.8194],[-63.5159,45.8109],[-63.4963,45.807],[-63.4769,45.8135],[-63.4285,45.7999],[-63.4154,45.8135],[-63.354,45.7999],[-63.2591,45.8159],[-63.2298,45.8061],[-63.3017,45.7755],[-63.3472,45.7665],[-63.3807,45.772],[-63.3728,45.7572],[-63.3559,45.7481],[-63.288,45.7242],[-63.2816,45.7411],[-63.2572,45.7589],[-63.2572,45.7372],[-63.1957,45.7651],[-63.1889,45.7788],[-63.1822,45.7663],[-63.2052,45.7459],[-63.2025,45.7372],[-63.1173,45.763],[-63.0654,45.7589],[-63.0705,45.7784],[-63.0841,45.7903],[-63.1207,45.8061],[-63.1007,45.8113],[-62.7774,45.7651],[-62.675,45.772],[-62.696,45.7608],[-62.7569,45.7589],[-62.7288,45.7444],[-62.6824,45.7421],[-62.6334,45.7174],[-62.703,45.6869],[-62.7706,45.6744],[-62.7917,45.6422],[-62.765,45.6617],[-62.7488,45.664],[-62.7364,45.6553],[-62.7497,45.6129],[-62.7066,45.6556],[-62.6568,45.6278],[-62.647,45.6422],[-62.6724,45.6562],[-62.6647,45.6798],[-62.6247,45.6823],[-62.6129,45.6907],[-62.5657,45.6832],[-62.5447,45.6627],[-62.5264,45.6583],[-62.4757,45.6627],[-62.5091,45.615],[-62.4934,45.6081],[-62.4704,45.6145],[-62.4352,45.6427],[-62.3617,45.6733],[-62.371,45.6825],[-62.3834,45.6801],[-62.4416,45.6553],[-62.4161,45.6791],[-62.2703,45.7037],[-62.06,45.808],[-61.9888,45.863],[-61.9488,45.8818],[-61.9115,45.889],[-61.8974,45.8716],[-61.9215,45.8507],[-61.92,45.8299],[-61.8878,45.7377],[-61.8942,45.7037],[-61.8763,45.6927],[-61.8365,45.6812],[-61.7949,45.6529],[-61.7078,45.6233],[-61.6844,45.6217],[-61.6422,45.6415],[-61.626,45.6354],[-61.6485,45.6342],[-61.6481,45.6268],[-61.6198,45.6143],[-61.6099,45.6391],[-61.589,45.6454],[-61.5751,45.6727],[-61.558,45.6837],[-61.4925,45.6907],[-61.4705,45.6831],[-61.4372,45.6498],[-61.4,45.6326],[-61.3697,45.5808],[-61.3387,45.5528],[-61.2629,45.5119],[-61.2372,45.5058],[-61.2368,45.468],[-61.2485,45.4531],[-61.3529,45.4134],[-61.3728,45.4088],[-61.3741,45.4213],[-61.3881,45.418],[-61.4298,45.392],[-61.4827,45.3747],[-61.4615,45.3548],[-61.4508,45.3494],[-61.1369,45.3542],[-60.9986,45.3332],[-60.9712,45.3139],[-60.9687,45.2716],[-60.9831,45.2713],[-60.996,45.2921],[-61.037,45.2996],[-61.0165,45.2716],[-61.0241,45.263],[-61.0472,45.2546],[-61.063,45.2325],[-61.0785,45.2375],[-61.0712,45.2239],[-61.1197,45.2134],[-61.1394,45.218],[-61.1531,45.2375],[-61.1195,45.2716],[-61.1647,45.2637],[-61.1798,45.2425],[-61.1707,45.2157],[-61.1748,45.2028],[-61.2121,45.253],[-61.2631,45.2392],[-61.2629,45.2511],[-61.2786,45.254],[-61.3506,45.2174],[-61.3651,45.2012],[-61.3646,45.1896],[-61.3387,45.1898],[-61.3891,45.1636],[-61.5679,45.1471],[-61.6106,45.1506],[-61.6396,45.1754],[-61.6473,45.1568],[-61.6871,45.1754],[-61.7024,45.1693],[-61.6662,45.1493],[-61.6396,45.1208],[-61.6744,45.1147],[-61.6396,45.0873],[-61.6949,45.0914],[-61.7043,45.107],[-61.7564,45.101],[-61.7564,45.0799],[-61.8097,45.1009],[-61.8253,45.099],[-61.8116,45.0799],[-61.8594,45.0799],[-61.8362,45.0561],[-61.8389,45.0464],[-61.8805,45.0532],[-61.8867,45.0464],[-61.8824,45.0342],[-61.8969,45.0307],[-61.9184,45.0368],[-61.9352,45.0532],[-61.9413,45.0246],[-61.9595,45.0365],[-61.9757,45.036],[-62.004,45.011],[-62.0102,45.0321],[-62.0506,45.011],[-61.9761,44.9911],[-61.9888,44.9849],[-62.0313,44.9911],[-62.0734,44.973],[-62.0859,44.9774],[-62.1385,44.9688],[-62.1515,44.9752],[-62.1849,44.9564],[-62.2338,44.9593],[-62.2545,44.952],[-62.2703,44.9291],[-62.2777,44.9365],[-62.3061,44.9201],[-62.3392,44.9223],[-62.346,44.9086],[-62.3392,44.8949],[-62.3934,44.9103],[-62.4149,44.8949],[-62.4006,44.8813],[-62.4372,44.8685],[-62.4477,44.8532],[-62.4484,44.8335],[-62.4672,44.8414],[-62.4757,44.9011],[-62.5072,44.8634],[-62.5271,44.8559],[-62.5515,44.8676],[-62.5657,44.8402],[-62.531,44.8062],[-62.5527,44.8001],[-62.5778,44.8334],[-62.5992,44.8266],[-62.6068,44.8371],[-62.6614,44.8062],[-62.6539,44.7925],[-62.6872,44.8021],[-62.8053,44.7851],[-62.8026,44.7611],[-62.8258,44.7516],[-62.7979,44.7298],[-62.8304,44.7178],[-62.8426,44.7168],[-62.8638,44.7379],[-62.8736,44.7236],[-62.9302,44.7401],[-62.9895,44.711],[-62.9971,44.7137],[-63.004,44.7373],[-63.004,44.7714],[-63.0185,44.778],[-63.047,44.7662],[-63.0586,44.7782],[-63.0593,44.7633],[-63.021,44.7267],[-63.014,44.7106],[-63.0586,44.6752],[-63.0631,44.718],[-63.0956,44.7292],[-63.1027,44.784],[-63.1194,44.7907],[-63.1274,44.7851],[-63.1239,44.7348],[-63.1405,44.6889],[-63.1605,44.7057],[-63.1548,44.7298],[-63.1732,44.7211],[-63.1832,44.6916],[-63.2139,44.6812],[-63.2162,44.7032],[-63.2367,44.7373],[-63.2532,44.7115],[-63.2367,44.6889],[-63.2813,44.6435],[-63.2851,44.6274],[-63.3891,44.6431],[-63.4154,44.6553],[-63.3876,44.6684],[-63.399,44.682],[-63.4169,44.6829],[-63.4558,44.6684],[-63.4206,44.6483],[-63.4154,44.6336],[-63.4217,44.6138],[-63.439,44.5963],[-63.5102,44.6241],[-63.6326,44.713],[-63.6619,44.7168],[-63.6401,44.6762],[-63.5876,44.6642],[-63.5635,44.6348],[-63.5452,44.5933],[-63.5465,44.5501],[-63.5233,44.5181],[-63.5238,44.5032],[-63.5486,44.4732],[-63.5793,44.4635],[-63.5869,44.4691],[-63.5793,44.484],[-63.5962,44.4874],[-63.6328,44.4407],[-63.6437,44.4496],[-63.6278,44.4698],[-63.6581,44.4752],[-63.7008,44.4676],[-63.7159,44.4561],[-63.7286,44.475],[-63.7369,44.4698],[-63.7584,44.4814],[-63.7649,44.5045],[-63.7934,44.4684],[-63.8059,44.4766],[-63.8094,44.4901],[-63.7848,44.5318],[-63.8121,44.5113],[-63.834,44.5245],[-63.8468,44.5187],[-63.8401,44.5045],[-63.874,44.4986],[-63.9005,44.4981],[-63.9294,44.5113],[-63.9425,44.534],[-63.9417,44.5543],[-63.922,44.5933],[-63.943,44.6205],[-63.9186,44.6341],[-63.9151,44.6417],[-63.9294,44.6479],[-63.8909,44.6798],[-63.8884,44.6964],[-63.9259,44.6747],[-64.066,44.6343],[-64.0619,44.5867],[-64.0367,44.5709],[-64.0113,44.5113],[-64.0412,44.5226],[-64.0758,44.4766],[-64.0971,44.4747],[-64.1175,44.4875],[-64.124,44.5219],[-64.1188,44.5375],[-64.128,44.5549],[-64.1622,44.5797],[-64.1976,44.5803],[-64.2115,44.5714],[-64.2106,44.5523],[-64.2274,44.537],[-64.3055,44.566],[-64.2926,44.5455],[-64.3039,44.5426],[-64.3013,44.5026],[-64.326,44.4766],[-64.2987,44.4698],[-64.3539,44.4561],[-64.3537,44.4451],[-64.3356,44.4291],[-64.3397,44.4151],[-64.2753,44.4154],[-64.2577,44.4089],[-64.2882,44.4009],[-64.3124,44.381],[-64.2607,44.3803],[-64.2106,44.3673],[-64.2279,44.3605],[-64.3472,44.3673],[-64.3358,44.3498],[-64.3397,44.3326],[-64.305,44.3204],[-64.2926,44.3263],[-64.3124,44.34],[-64.2646,44.3326],[-64.2888,44.2991],[-64.2373,44.2991],[-64.269,44.2671],[-64.2866,44.2586],[-64.3055,44.2718],[-64.3124,44.2643],[-64.3472,44.2922],[-64.3335,44.2991],[-64.4291,44.34],[-64.4016,44.313],[-64.359,44.2956],[-64.3602,44.2718],[-64.4256,44.2339],[-64.4396,44.1991],[-64.4774,44.1824],[-64.4979,44.1408],[-64.5492,44.1619],[-64.5594,44.1483],[-64.6062,44.1586],[-64.6004,44.1483],[-64.6208,44.1408],[-64.5543,44.13],[-64.5458,44.1173],[-64.5609,44.08],[-64.5765,44.0692],[-64.5941,44.0794],[-64.6492,44.0589],[-64.717,44.0588],[-64.7054,44.0457],[-64.6694,44.0355],[-64.6618,44.0145],[-64.667,43.9979],[-64.6967,43.9901],[-64.7445,43.9578],[-64.8157,43.9541],[-64.8284,43.931],[-64.8474,43.9291],[-64.7971,43.8949],[-64.786,43.8745],[-64.814,43.8741],[-64.8188,43.8666],[-64.8126,43.8529],[-64.8296,43.845],[-64.839,43.8297],[-64.8741,43.8671],[-64.915,43.8807],[-64.8883,43.8466],[-64.8815,43.8118],[-64.9066,43.805],[-64.9498,43.8671],[-64.9668,43.8736],[-64.9325,43.8063],[-64.9582,43.7658],[-64.984,43.7579],[-64.9971,43.7696],[-65.0204,43.817],[-65.0392,43.8323],[-65.016,43.7584],[-65.0166,43.7272],[-65.025,43.7162],[-65.0344,43.7123],[-65.0429,43.7237],[-65.0528,43.7205],[-65.0597,43.7032],[-65.077,43.7108],[-65.0731,43.745],[-65.087,43.7579],[-65.1232,43.6968],[-65.1286,43.6747],[-65.1512,43.6891],[-65.1366,43.7271],[-65.1416,43.751],[-65.1612,43.7156],[-65.1785,43.7101],[-65.1937,43.7245],[-65.2117,43.772],[-65.2379,43.8056],[-65.2379,43.7845],[-65.2547,43.7757],[-65.2246,43.7188],[-65.2504,43.6734],[-65.2893,43.6747],[-65.3272,43.6964],[-65.3135,43.7436],[-65.323,43.7654],[-65.3408,43.7579],[-65.3515,43.7368],[-65.3675,43.7436],[-65.3343,43.6703],[-65.3406,43.6173],[-65.3581,43.6036],[-65.3461,43.5874],[-65.3408,43.5449],[-65.3712,43.5791],[-65.4017,43.5654],[-65.4569,43.5995],[-65.413,43.5388],[-65.4017,43.504],[-65.4162,43.5001],[-65.4289,43.5449],[-65.4501,43.5605],[-65.4554,43.5347],[-65.4842,43.5245],[-65.4714,43.4938],[-65.4748,43.4709],[-65.4842,43.4719],[-65.504,43.5028],[-65.5468,43.5323],[-65.5517,43.543],[-65.5456,43.556],[-65.566,43.574],[-65.6692,43.4971],[-65.6897,43.5108],[-65.7296,43.5135],[-65.7381,43.5313],[-65.7316,43.5627],[-65.7396,43.5767],[-65.7523,43.5865],[-65.7449,43.5586],[-65.7544,43.5517],[-65.7781,43.5682],[-65.7716,43.6688],[-65.779,43.689],[-65.7888,43.6911],[-65.807,43.6548],[-65.7923,43.6339],[-65.7995,43.6064],[-65.8148,43.6316],[-65.82,43.7094],[-65.848,43.751],[-65.8616,43.8056],[-65.8685,43.8056],[-65.8616,43.7709],[-65.8772,43.7696],[-65.9094,43.8192],[-65.9372,43.826],[-65.9413,43.8199],[-65.9299,43.8056],[-65.9713,43.7801],[-65.9967,43.8541],[-66.0037,43.8097],[-65.9634,43.7373],[-65.9796,43.706],[-65.9913,43.7032],[-65.9831,43.7195],[-65.9838,43.7293],[-65.9916,43.7311],[-66.005,43.7237],[-66.0064,43.6999],[-66.0238,43.6981],[-66.0261,43.7162],[-66.0323,43.7162],[-66.0309,43.7367],[-66.0421,43.7464],[-66.0555,43.7409],[-66.0602,43.7162],[-66.0742,43.7293],[-66.0732,43.7677],[-66.0794,43.7724],[-66.1217,43.7436],[-66.1337,43.8097],[-66.1112,43.8475],[-66.1285,43.8495],[-66.1496,43.8255],[-66.1492,43.8524],[-66.1701,43.8603],[-66.1701,43.8944],[-66.1496,43.9322],[-66.1629,43.9757],[-66.1503,44.0104],[-66.1834,44.0841],[-66.1943,44.0926],[-66.2104,44.0856],[-66.1906,44.1654],[-66.1422,44.2308],[-66.1137,44.3434],[-66.095,44.3742],[-66.0467,44.4066],[-66.0325,44.4368],[-65.966,44.4892],[-65.8668,44.5434],[-65.8479,44.5565],[-65.8405,44.5734],[-65.8491,44.5868],[-65.9425,44.5834],[-66.1968,44.3909],[-66.1923,44.4175],[-66.1803,44.4344],[-65.9988,44.5797],[-65.8889,44.6308],[-65.7859,44.6964],[-65.7563,44.6573],[-65.7571,44.6109],[-65.7296,44.6092],[-65.6923,44.6207],[-65.625,44.6665],[-65.6016,44.6964],[-65.5941,44.6889],[-65.5367,44.7366],[-65.4289,44.7782],[-65.4473,44.7811],[-65.6153,44.7091],[-65.6763,44.6964],[-65.7418,44.6678],[-65.7585,44.6827],[-65.7235,44.7274],[-65.4569,44.8546],[-65.3976,44.8949],[-65.2317,44.9552],[-65.1805,44.9932],[-65.0221,45.0602],[-64.8632,45.1396],[-64.714,45.1924],[-64.5107,45.2286],[-64.4154,45.2716],[-64.3953,45.3016],[-64.4176,45.3196],[-64.4979,45.3338],[-64.4778,45.3411],[-64.3487,45.3194],[-64.3297,45.3096],[-64.3184,45.2949],[-64.3205,45.2829],[-64.3516,45.2481],[-64.3675,45.1966],[-64.3524,45.1852],[-64.357,45.1708],[-64.3881,45.1488],[-64.3673,45.1261],[-64.3624,45.1161],[-64.3675,45.1078],[-64.3455,45.1059],[-64.326,45.142],[-64.3055,45.1488],[-64.2235,45.1084],[-64.1516,45.0498],[-64.1553,44.9837],[-64.1359,45.0032],[-64.1069,44.998],[-64.119,45.0299],[-64.1007,45.0594],[-64.1365,45.0729],[-64.1838,45.1143],[-64.1993,45.1487],[-64.1659,45.1594],[-64.1656,45.186],[-64.1151,45.2161],[-63.9629,45.2511],[-63.9058,45.2758],[-63.8253,45.2796],[-63.809,45.2887],[-63.8014,45.311],[-63.7604,45.3113],[-63.7369,45.2996],[-63.7159,45.3263],[-63.5787,45.3223],[-63.5241,45.3338],[-63.5045,45.3287],[-63.4695,45.2921],[-63.4609,45.325],[-63.4331,45.3449],[-63.3602,45.3611],[-63.3917,45.3716],[-63.5287,45.3778],[-63.593,45.3952],[-63.8158,45.3952],[-63.8489,45.3846],[-63.8909,45.3529],[-63.9105,45.3589],[-63.9083,45.3815],[-63.9366,45.3985],[-64.0138,45.3904],[-64.0523,45.3952],[-64.038,45.402],[-64.066,45.413],[-64.1053,45.4151],[-64.2759,45.3921],[-64.3124,45.402],[-64.3145,45.3819],[-64.3472,45.389],[-64.3881,45.3673],[-64.4359,45.3815],[-64.4588,45.4],[-64.5762,45.4156],[-64.6725,45.389],[-64.707,45.3606],[-64.6966,45.3263],[-64.7174,45.3246],[-64.7587,45.2996],[-64.7684,45.2979],[-64.7682,45.33],[-64.8227,45.348],[-64.8599,45.353],[-64.8975,45.3465],[-64.9293,45.3263],[-64.9357,45.3512],[-64.9287,45.383],[-64.902,45.43],[-64.8539,45.4573],[-64.7996,45.4709],[-64.8331,45.484],[-64.6488,45.5591],[-64.6454,45.5863],[-64.5728,45.6153],[-64.4843,45.6764],[-64.457,45.6832],[-64.4291,45.7099],[-64.4391,45.7385],[-64.4321,45.7479],[-64.3981,45.7563],[-64.3789,45.7812],[-64.3806,45.7924],[-64.3055,45.8266],[-64.293,45.8158],[-64.2944,45.805],[-64.3314,45.7772],[-64.3277,45.7545],[-64.3335,45.7446],[-64.3031,45.7619],[-64.2646,45.7651],[-64.2789,45.7786],[-64.3055,45.7788],[-64.2745,45.8045],[-64.2734,45.8357],[-64.2447,45.8813],[-64.1985,45.9157],[-64.1751,45.95],[-64.141,45.9725],[-64.0513,45.9768],[-64.0427,45.992],[-64.0077,46.005]]],[[[-60.8793,45.5666],[-60.8843,45.5576],[-60.9141,45.5529],[-60.9526,45.5316],[-60.9618,45.5173],[-60.9476,45.4982],[-61.0035,45.4608],[-61.0239,45.4709],[-61.0021,45.4945],[-61.0649,45.5045],[-61.1051,45.5271],[-61.1117,45.5488],[-61.0097,45.5808],[-60.9586,45.5814],[-60.9141,45.5666],[-60.9081,45.5774],[-60.8793,45.5666]]],[[[-62.5124,45.8144],[-62.5558,45.7992],[-62.6031,45.8042],[-62.6032,45.8106],[-62.5744,45.824],[-62.5069,45.8281],[-62.5124,45.8144]]],[[[-59.781,46.0044],[-59.7781,46.0124],[-59.7237,46.0289],[-59.6886,46.0303],[-59.7029,46.0229],[-59.7081,45.9947],[-59.781,46.0044]]],[[[-60.2156,45.7194],[-60.235,45.7069],[-60.3229,45.6837],[-60.3954,45.6425],[-60.4626,45.6357],[-60.4752,45.6491],[-60.5118,45.6264],[-60.6298,45.595],[-60.6718,45.5737],[-60.736,45.5666],[-60.7443,45.5903],[-60.7524,45.5939],[-60.8443,45.6046],[-60.8555,45.6388],[-60.8711,45.6457],[-60.9073,45.6143],[-60.936,45.628],[-60.9476,45.628],[-60.9462,45.6123],[-60.97,45.6081],[-61.0239,45.6143],[-61.0097,45.6081],[-61.0162,45.5953],[-61.0576,45.5915],[-61.0854,45.5733],[-61.1567,45.5566],[-61.1748,45.5591],[-61.1572,45.5651],[-61.155,45.5786],[-61.2056,45.5927],[-61.2083,45.6081],[-61.225,45.5819],[-61.2412,45.5854],[-61.2772,45.5666],[-61.2702,45.5483],[-61.2846,45.5477],[-61.3349,45.5662],[-61.3629,45.6112],[-61.442,45.6818],[-61.4553,45.7099],[-61.4754,45.8113],[-61.4973,45.8352],[-61.4889,45.8887],[-61.5226,45.9328],[-61.5162,45.9508],[-61.5236,45.9917],[-61.5515,46.0218],[-61.5411,46.0405],[-61.4752,46.0736],[-61.459,46.1453],[-61.3844,46.1943],[-61.2806,46.2456],[-61.1779,46.3856],[-61.0862,46.4665],[-61.0753,46.5133],[-61.0304,46.568],[-61.0575,46.6013],[-61.0431,46.6253],[-61.0165,46.6422],[-61.0302,46.6116],[-61.0238,46.5932],[-61.0048,46.6333],[-60.965,46.662],[-60.8992,46.7688],[-60.8692,46.8],[-60.7696,46.8437],[-60.7013,46.9047],[-60.6421,47.0037],[-60.5936,47.0348],[-60.5231,47.0189],[-60.5011,47.0012],[-60.4858,46.9991],[-60.3961,47.0264],[-60.3834,47.0168],[-60.3984,46.9956],[-60.4958,46.8955],[-60.4522,46.8925],[-60.442,46.8844],[-60.4547,46.8681],[-60.3935,46.863],[-60.3387,46.8756],[-60.3108,46.8544],[-60.309,46.8034],[-60.3449,46.694],[-60.3995,46.6701],[-60.3815,46.656],[-60.358,46.6558],[-60.358,46.6496],[-60.3859,46.6422],[-60.3505,46.6159],[-60.3518,46.6013],[-60.3797,46.5808],[-60.4211,46.5248],[-60.4616,46.4231],[-60.5094,46.3685],[-60.5304,46.3236],[-60.5779,46.2641],[-60.6058,46.2113],[-60.5987,46.1972],[-60.5524,46.2623],[-60.4752,46.32],[-60.4426,46.3325],[-60.4189,46.3298],[-60.4269,46.284],[-60.4752,46.2518],[-60.6124,46.1282],[-60.6322,46.118],[-60.7008,46.088],[-60.7149,46.1074],[-60.7254,46.1047],[-60.7558,46.0805],[-60.8164,46.0619],[-60.8732,46.0532],[-60.8795,46.0618],[-60.8741,46.0683],[-60.852,46.0736],[-60.8741,46.0792],[-60.9932,45.9821],[-61.1186,45.9494],[-61.1264,45.9296],[-61.0099,45.9414],[-60.9687,45.9849],[-60.9027,46.0102],[-60.8839,46.0347],[-60.8179,46.0388],[-60.7475,46.0662],[-60.736,46.0566],[-60.7432,46.0373],[-60.7974,45.9917],[-60.8151,45.937],[-60.8865,45.9084],[-60.9617,45.9152],[-60.981,45.9102],[-60.9892,45.8989],[-61.0712,45.8955],[-61.0438,45.8887],[-61.0886,45.8682],[-61.0985,45.8545],[-61.0609,45.8571],[-61.0194,45.8757],[-60.9827,45.8769],[-60.9892,45.8887],[-60.9686,45.8862],[-60.9141,45.8545],[-60.9263,45.8477],[-60.965,45.8607],[-60.9346,45.8266],[-60.9687,45.8341],[-60.9819,45.8207],[-61.0131,45.8232],[-61.1029,45.7789],[-61.1338,45.7446],[-61.112,45.7515],[-61.1128,45.7276],[-61.1476,45.7079],[-61.1334,45.6989],[-61.082,45.6907],[-61.0494,45.6985],[-60.9476,45.7515],[-60.9128,45.7562],[-60.8357,45.7405],[-60.8074,45.7208],[-60.7992,45.7033],[-60.8502,45.6512],[-60.8384,45.6423],[-60.8289,45.6406],[-60.8321,45.6553],[-60.8104,45.6627],[-60.8179,45.6689],[-60.784,45.6689],[-60.7657,45.6929],[-60.7325,45.6844],[-60.7301,45.691],[-60.7422,45.7038],[-60.7301,45.7139],[-60.749,45.7446],[-60.7372,45.7737],[-60.7148,45.7924],[-60.6534,45.8198],[-60.6234,45.8558],[-60.5411,45.9009],[-60.521,45.9243],[-60.4452,45.9539],[-60.3995,45.998],[-60.4635,45.9774],[-60.4972,45.9566],[-60.564,45.9439],[-60.646,45.9128],[-60.6649,45.8987],[-60.6991,45.8909],[-60.7223,45.8955],[-60.749,45.9296],[-60.7867,45.9301],[-60.7912,45.9402],[-60.7816,45.9543],[-60.6658,46.0151],[-60.6225,46.0244],[-60.564,46.0668],[-60.4896,46.1015],[-60.4054,46.1638],[-60.3749,46.197],[-60.3146,46.2088],[-60.301,46.2187],[-60.2971,46.2381],[-60.4007,46.2182],[-60.4473,46.1767],[-60.607,46.0765],[-60.6391,46.0668],[-60.6527,46.0722],[-60.6505,46.0907],[-60.6014,46.1159],[-60.5714,46.1494],[-60.5026,46.2009],[-60.4754,46.2335],[-60.351,46.3121],[-60.2835,46.3275],[-60.2596,46.2791],[-60.2047,46.2418],[-60.212,46.2239],[-60.2903,46.1562],[-60.2562,46.1767],[-60.2437,46.1763],[-60.205,46.1423],[-60.192,46.1662],[-60.2016,46.1938],[-60.1932,46.2117],[-60.1361,46.2518],[-60.0832,46.2462],[-60.0371,46.2238],[-60.0911,46.2108],[-59.9914,46.2069],[-59.9442,46.1962],[-59.9477,46.1624],[-59.9338,46.1585],[-59.8822,46.1767],[-59.8105,46.1699],[-59.8634,46.1364],[-59.8824,46.1113],[-59.8856,46.0805],[-59.8511,46.1044],[-59.8105,46.1152],[-59.8105,46.1078],[-59.8719,46.0736],[-59.9093,46.042],[-59.9542,46.0358],[-59.9579,46.0275],[-59.9371,46.0017],[-59.9207,45.9946],[-59.8321,46.0031],[-59.8241,45.998],[-59.8303,45.9993],[-59.8304,45.978],[-59.8031,45.9569],[-59.8053,45.9355],[-59.862,45.9357],[-59.9393,45.9044],[-59.9682,45.9097],[-59.9886,45.8887],[-59.9757,45.8751],[-60.1273,45.8695],[-60.1556,45.838],[-60.0754,45.8155],[-60.0746,45.7968],[-60.1988,45.7557],[-60.2156,45.7194]]]]}}]}