{"type":"FeatureCollection","features":[{"type":"Feature","properties":{"id":"saxony-anhalt","kind":"footprint"},"geometry":{"type":"Polygon","coordinates":[[[10.6976,51.6374],[10.669,51.6699],[10.6611,51.711],[10.6442,51.7213],[10.6192,51.7585],[10.5839,51.7803],[10.5802,51.8449],[10.6399,51.8836],[10.6352,51.9116],[10.613,51.9245],[10.6181,51.9434],[10.6455,51.9571],[10.5902,51.9762],[10.5701,52.0068],[10.6216,52.0105],[10.6608,52.0447],[10.963,52.0598],[10.9693,52.0835],[10.9488,52.0997],[11.0138,52.1189],[11.0483,52.1397],[11.0579,52.1528],[11.0543,52.1684],[11.0272,52.1775],[11.0207,52.194],[11.0374,52.2115],[11.0783,52.221],[11.0851,52.2307],[11.0784,52.251],[11.0636,52.2437],[11.0607,52.2614],[11.0446,52.2618],[11.0148,52.2874],[11.0337,52.3065],[11.0229,52.3216],[11.003,52.3288],[10.9993,52.3403],[11.0638,52.3538],[11.073,52.3722],[11.0107,52.4035],[10.9391,52.4621],[10.9525,52.4944],[11.0017,52.4981],[10.9537,52.5455],[10.9465,52.5629],[10.9484,52.5889],[10.9768,52.6163],[10.9572,52.6225],[10.9282,52.6142],[10.8849,52.6514],[10.8369,52.7103],[10.801,52.7225],[10.7938,52.7479],[10.7569,52.7865],[10.7586,52.8351],[10.7954,52.8463],[10.8855,52.8472],[10.9417,52.8591],[10.9893,52.8821],[10.9988,52.9059],[11.0147,52.9119],[11.2136,52.8978],[11.2533,52.8762],[11.4087,52.9052],[11.4704,52.9401],[11.502,52.9442],[11.4963,52.9694],[11.5098,53.0038],[11.552,53.0057],[11.5619,53.01],[11.5813,53.0429],[11.6257,53.0503],[11.6358,53.0462],[11.6363,53.0371],[11.6223,53.0224],[11.6806,53.0122],[11.6942,52.9839],[11.7629,52.9951],[11.8073,52.9603],[11.8508,52.9551],[11.8319,52.9282],[11.8967,52.9017],[11.9826,52.8831],[12.097,52.8911],[12.1123,52.878],[12.1112,52.8666],[12.175,52.8725],[12.2033,52.8659],[12.2138,52.8546],[12.234,52.8098],[12.2296,52.7987],[12.195,52.7792],[12.2087,52.7519],[12.1901,52.7361],[12.2102,52.7026],[12.2281,52.6902],[12.2257,52.6726],[12.2047,52.6412],[12.162,52.6361],[12.1508,52.58],[12.1233,52.553],[12.1617,52.549],[12.1463,52.5318],[12.1559,52.5159],[12.193,52.519],[12.2118,52.5422],[12.2299,52.5369],[12.256,52.5142],[12.2951,52.5161],[12.2867,52.4842],[12.2477,52.4447],[12.2574,52.4269],[12.2319,52.3865],[12.2352,52.35],[12.2057,52.3017],[12.209,52.279],[12.2481,52.2524],[12.222,52.2324],[12.1991,52.1939],[12.2166,52.1663],[12.2461,52.1476],[12.2563,52.1308],[12.2991,52.1097],[12.3613,52.0577],[12.3651,52.0401],[12.4256,52.0102],[12.4715,52.02],[12.5615,51.9717],[12.6076,51.9654],[12.6464,51.9825],[12.6548,51.9944],[12.6668,51.9944],[12.7948,51.9462],[12.8441,51.9417],[12.8591,51.9351],[12.8769,51.9108],[12.962,51.9037],[12.9915,51.8816],[13.0662,51.8526],[13.1323,51.8576],[13.1608,51.8444],[13.1791,51.8614],[13.2368,51.8555],[13.1579,51.7821],[13.159,51.7411],[13.1816,51.7085],[13.1783,51.6966],[13.1504,51.6729],[13.0823,51.6384],[13.0617,51.6151],[13.0087,51.6367],[12.9778,51.6277],[12.902,51.6554],[12.891,51.6701],[12.862,51.6683],[12.7816,51.627],[12.7153,51.6382],[12.6621,51.6015],[12.6414,51.6065],[12.5451,51.596],[12.4524,51.6038],[12.4435,51.6015],[12.4306,51.5725],[12.3564,51.5678],[12.2977,51.5512],[12.2354,51.5622],[12.2248,51.5445],[12.1954,51.5287],[12.1907,51.4701],[12.1562,51.4461],[12.1846,51.3311],[12.1795,51.3227],[12.146,51.3136],[12.1326,51.289],[12.1417,51.2529],[12.1646,51.2265],[12.168,51.1974],[12.1533,51.17],[12.1841,51.1641],[12.1795,51.1368],[12.2112,51.1116],[12.2183,51.0913],[12.2646,51.0838],[12.2442,51.0361],[12.2667,51.0261],[12.276,51.0129],[12.2171,50.9542],[12.2189,50.9374],[12.2008,50.9279],[12.1536,50.9535],[12.1256,50.9444],[12.0679,50.9561],[11.9983,50.9493],[11.9935,50.9598],[11.9609,50.971],[11.9314,50.9981],[11.8607,51.0226],[11.7395,51.0147],[11.7259,51.0227],[11.6974,51.0642],[11.6937,51.0883],[11.6677,51.1007],[11.5352,51.1003],[11.5047,51.0892],[11.4299,51.0972],[11.4165,51.1222],[11.4276,51.1291],[11.4203,51.1597],[11.3886,51.1899],[11.3445,51.2044],[11.333,51.2163],[11.3464,51.2286],[11.4224,51.2437],[11.4519,51.2715],[11.3672,51.3575],[11.289,51.3889],[10.9991,51.4087],[10.9726,51.4182],[10.9645,51.4278],[10.9715,51.4666],[10.9454,51.4995],[10.9468,51.5226],[10.9263,51.5399],[10.9121,51.5655],[10.9192,51.5761],[10.9519,51.577],[10.9418,51.5985],[10.8035,51.6326],[10.7134,51.6311],[10.6976,51.6374]]]}}]}