{"type":"FeatureCollection","features":[{"type":"Feature","properties":{"id":"scottish-highlands","kind":"footprint"},"geometry":{"type":"MultiPolygon","coordinates":[[[[-5.6019,57.8302],[-5.6023,57.8218],[-5.638,57.832],[-5.6019,57.8302]]],[[[-5.2102,57.9481],[-5.212,57.9376],[-5.2394,57.9466],[-5.2102,57.9481]]],[[[-5.2411,58.2604],[-5.2417,58.2506],[-5.2802,58.2579],[-5.2411,58.2604]]],[[[-5.1666,58.3823],[-5.1718,58.3741],[-5.2097,58.3772],[-5.1666,58.3823]]],[[[-4.663,57.1031],[-4.6133,57.0589],[-4.6161,57.0117],[-4.5663,56.9873],[-4.6017,56.9508],[-4.4986,56.9472],[-4.5628,56.9158],[-4.5733,56.8449],[-4.7706,56.8761],[-4.9972,56.8476],[-5.0342,56.8906],[-5.1021,56.8266],[-5.1914,56.8551],[-5.4743,56.8505],[-5.4739,56.8782],[-5.6395,56.8873],[-5.7262,56.851],[-5.7889,56.8597],[-5.7377,56.8961],[-5.9217,56.8838],[-5.8432,56.9076],[-5.8829,56.9226],[-5.8172,56.9607],[-5.8472,56.9726],[-5.8206,57.0119],[-5.7273,57.0183],[-5.6356,56.9698],[-5.5077,56.9945],[-5.6173,56.9823],[-5.6624,56.9949],[-5.6735,57.0338],[-5.7915,57.0528],[-5.722,57.1182],[-5.592,57.1192],[-5.52,57.0814],[-5.3849,57.1069],[-5.5273,57.1019],[-5.693,57.1691],[-5.6317,57.2003],[-5.6213,57.2201],[-5.6564,57.228],[-5.6368,57.25],[-5.5313,57.2712],[-5.4767,57.2332],[-5.433,57.2122],[-5.423,57.2137],[-5.3893,57.2318],[-5.5161,57.2796],[-5.4076,57.3099],[-5.5926,57.2709],[-5.7337,57.2833],[-5.6686,57.3273],[-5.6859,57.3416],[-5.5345,57.3529],[-5.4574,57.3911],[-5.4354,57.4154],[-5.4422,57.4227],[-5.552,57.3582],[-5.6357,57.3666],[-5.6339,57.3801],[-5.6092,57.3836],[-5.6092,57.3856],[-5.5968,57.3879],[-5.5941,57.391],[-5.6077,57.4211],[-5.7303,57.3548],[-5.822,57.3635],[-5.8061,57.439],[-5.8729,57.4741],[-5.8363,57.579],[-5.7089,57.5563],[-5.6496,57.5089],[-5.6565,57.5422],[-5.6208,57.5208],[-5.5108,57.5371],[-5.6685,57.5456],[-5.7556,57.6236],[-5.8188,57.6393],[-5.7892,57.6974],[-5.682,57.689],[-5.6717,57.7014],[-5.8129,57.7499],[-5.8133,57.8588],[-5.6834,57.8653],[-5.6688,57.8001],[-5.6035,57.7651],[-5.6221,57.7898],[-5.5791,57.7905],[-5.5819,57.8361],[-5.6559,57.8787],[-5.6184,57.9243],[-5.5518,57.9129],[-5.5406,57.8696],[-5.4881,57.8561],[-5.4545,57.8509],[-5.4567,57.8651],[-5.4223,57.9091],[-5.3104,57.8608],[-5.2124,57.8464],[-5.4061,57.9277],[-5.3607,57.939],[-5.1278,57.8746],[-5.0866,57.83],[-5.0725,57.8163],[-5.0678,57.816],[-5.099,57.8693],[-5.2236,57.9249],[-5.1795,57.941],[-5.1739,57.9561],[-5.311,57.979],[-5.4579,58.077],[-5.4274,58.1062],[-5.357,58.0577],[-5.3393,58.0803],[-5.3006,58.0642],[-5.2667,58.1018],[-5.3029,58.1197],[-5.2622,58.1211],[-5.2991,58.1374],[-5.2395,58.1466],[-5.3096,58.155],[-5.2787,58.1668],[-5.4048,58.2358],[-5.376,58.2642],[-5.3105,58.2242],[-5.2181,58.2559],[-5.1588,58.233],[-5.1655,58.2584],[-5.1091,58.2701],[-4.9358,58.2139],[-4.9947,58.2506],[-4.9231,58.2576],[-5.0818,58.2638],[-5.1829,58.3511],[-5.1546,58.3529],[-5.1759,58.362],[-5.1417,58.4123],[-5.0198,58.3765],[-5.0711,58.4022],[-5.0524,58.4114],[-5.0366,58.4081],[-5.0312,58.4105],[-5.0666,58.4148],[-5.0932,58.4068],[-5.1136,58.4133],[-5.0724,58.4154],[-5.1157,58.4279],[-5.0779,58.4511],[-4.9881,58.4258],[-5.1258,58.4891],[-5.014,58.5777],[-5.0069,58.6258],[-4.8249,58.5967],[-4.8205,58.5626],[-4.7932,58.5467],[-4.8312,58.5225],[-4.8128,58.5108],[-4.7783,58.5473],[-4.8057,58.5639],[-4.7657,58.5806],[-4.7769,58.5934],[-4.7872,58.5951],[-4.7918,58.6008],[-4.6541,58.5515],[-4.7524,58.445],[-4.6205,58.5095],[-4.5801,58.5801],[-4.4242,58.5499],[-4.4092,58.5217],[-4.455,58.4962],[-4.4858,58.4441],[-4.4763,58.4398],[-4.4229,58.4744],[-4.45,58.4947],[-4.3432,58.5409],[-4.2362,58.5264],[-4.2116,58.4949],[-4.2408,58.5375],[-4.1261,58.5694],[-4.0735,58.5505],[-4.019,58.6017],[-4.0104,58.5873],[-4.0128,58.5812],[-4.0061,58.5748],[-4.0069,58.571],[-4.0053,58.5642],[-4.0044,58.5635],[-3.9326,58.5735],[-3.9008,58.5377],[-3.9073,58.5643],[-3.8603,58.564],[-3.7808,58.4717],[-3.783,58.3893],[-3.8242,58.3277],[-3.9088,58.3386],[-3.9605,58.2457],[-4.1655,58.2769],[-4.3189,58.2505],[-4.3631,58.2121],[-4.3202,58.1225],[-4.348,58.0408],[-4.325,57.99],[-4.205,57.9091],[-4.2685,57.8915],[-4.2445,57.8736],[-4.2908,57.862],[-4.4094,57.9394],[-4.4665,57.9565],[-4.5326,57.957],[-4.5423,57.9631],[-4.5791,57.9739],[-4.6054,57.974],[-4.5311,57.9554],[-4.4237,57.9423],[-4.3252,57.8641],[-4.4064,57.8206],[-4.522,57.8364],[-4.6476,57.7637],[-4.5942,57.6977],[-4.5021,57.6674],[-4.5205,57.6343],[-4.4682,57.625],[-4.539,57.5581],[-4.4678,57.5313],[-5.2456,57.4184],[-5.1754,57.3851],[-5.2039,57.3259],[-5.1737,57.3129],[-5.2292,57.2535],[-5.1856,57.1935],[-5.0693,57.1648],[-5.0882,57.1434],[-5.0312,57.1493],[-5.0013,57.1409],[-5.1309,57.1405],[-5.1302,57.1034],[-4.663,57.1031]]]]}}]}