{"type":"FeatureCollection","features":[{"type":"Feature","properties":{"id":"south-tirol","kind":"footprint"},"geometry":{"type":"Polygon","coordinates":[[[10.4659,46.5785],[10.4591,46.6236],[10.4382,46.6357],[10.3956,46.6388],[10.3775,46.6533],[10.3692,46.6724],[10.3944,46.7008],[10.3997,46.7355],[10.4287,46.7556],[10.4172,46.7988],[10.4449,46.8232],[10.4538,46.8644],[10.4863,46.8464],[10.5277,46.8432],[10.6471,46.8638],[10.739,46.8295],[10.7487,46.8194],[10.7169,46.7952],[10.7229,46.7864],[10.7548,46.7908],[10.7951,46.7769],[10.8341,46.7802],[10.8704,46.7641],[10.9309,46.774],[10.9969,46.7691],[11.0333,46.8056],[11.0528,46.8149],[11.0543,46.8341],[11.0919,46.9124],[11.1745,46.9639],[11.3138,46.9873],[11.4112,46.9705],[11.4718,47.0071],[11.5244,46.9883],[11.5965,47.0004],[11.6838,46.9919],[11.7349,46.9706],[11.7771,46.9883],[11.8225,46.9933],[11.8995,47.0277],[11.9436,47.0382],[12.015,47.0405],[12.1162,47.0766],[12.1806,47.0852],[12.2042,47.0797],[12.2036,47.0533],[12.1823,47.0336],[12.1217,47.0105],[12.1112,46.993],[12.1417,46.928],[12.1416,46.9188],[12.1269,46.9089],[12.1722,46.8992],[12.1951,46.8801],[12.2666,46.8681],[12.2758,46.8463],[12.2691,46.7886],[12.3427,46.7651],[12.3704,46.7112],[12.405,46.6901],[12.4696,46.6758],[12.3992,46.6397],[12.3887,46.6194],[12.3407,46.6282],[12.2081,46.5949],[12.1744,46.637],[12.1472,46.6411],[12.0897,46.6668],[12.0712,46.6131],[12.022,46.5394],[11.8519,46.5142],[11.8322,46.504],[11.8244,46.5227],[11.8118,46.5303],[11.7784,46.5101],[11.7158,46.5138],[11.6841,46.5077],[11.6412,46.4727],[11.5953,46.3862],[11.5774,46.3681],[11.5378,46.3537],[11.4766,46.3596],[11.4549,46.3348],[11.4085,46.3245],[11.3982,46.3151],[11.3876,46.2811],[11.3707,46.269],[11.3282,46.2935],[11.2871,46.2591],[11.2172,46.2239],[11.1752,46.2359],[11.1538,46.2662],[11.1562,46.284],[11.2018,46.3392],[11.2145,46.4693],[11.2021,46.504],[11.1318,46.4886],[11.0859,46.5236],[11.0553,46.5156],[11.0643,46.458],[11.0511,46.446],[10.9974,46.4792],[10.8399,46.4307],[10.7975,46.4469],[10.7627,46.4843],[10.7452,46.4849],[10.6575,46.4495],[10.6247,46.4545],[10.5693,46.4809],[10.4884,46.4974],[10.4518,46.5467],[10.4659,46.5785]]]}}]}