{"type":"FeatureCollection","features":[{"type":"Feature","properties":{"id":"southern-appalachians","kind":"footprint"},"geometry":{"type":"Polygon","coordinates":[[[-83.62,34.9866],[-84.3219,34.9884],[-84.2902,35.2256],[-84.2237,35.2691],[-84.2118,35.2661],[-84.2001,35.2447],[-84.1884,35.24],[-84.1431,35.2469],[-84.1279,35.2411],[-84.1189,35.2523],[-84.0981,35.2472],[-84.0526,35.27],[-84.0214,35.3014],[-84.0357,35.3129],[-84.0294,35.3332],[-84.0383,35.3478],[-84.0076,35.3717],[-84.0082,35.3904],[-84.023,35.4117],[-84.0147,35.412],[-83.9611,35.4641],[-83.9494,35.4612],[-83.937,35.4715],[-83.9118,35.476],[-83.8801,35.5187],[-83.8256,35.5238],[-83.7717,35.5621],[-83.6763,35.5703],[-83.6405,35.5661],[-83.6089,35.5795],[-83.5856,35.5629],[-83.4983,35.563],[-83.4458,35.6118],[-83.4216,35.6112],[-83.3966,35.6227],[-83.3887,35.6336],[-83.3669,35.6387],[-83.3516,35.6599],[-83.335,35.6655],[-83.3128,35.6548],[-83.2972,35.6578],[-83.2892,35.6745],[-83.2581,35.6919],[-83.2512,35.7199],[-83.2407,35.7268],[-83.1857,35.7299],[-83.1592,35.7649],[-83.1202,35.7662],[-83.074,35.79],[-83.0362,35.7874],[-83.0015,35.7738],[-82.984,35.778],[-82.9641,35.79],[-82.9455,35.8247],[-82.9166,35.8414],[-82.9206,35.8685],[-82.8973,35.8779],[-82.9065,35.8841],[-82.9018,35.8929],[-82.92,35.9284],[-82.9016,35.9274],[-82.8985,35.9451],[-82.8742,35.9527],[-82.8498,35.9478],[-82.8219,35.9218],[-82.805,35.9272],[-82.8059,35.9379],[-82.7749,35.972],[-82.7856,35.9778],[-82.776,36.0001],[-82.7501,36.006],[-82.6372,36.0658],[-82.591,36.0336],[-82.6144,36.0035],[-82.6042,35.9873],[-82.6109,35.9674],[-82.581,35.9656],[-82.5579,35.9539],[-82.5497,35.9643],[-82.5054,35.9777],[-82.4607,36.0078],[-82.4095,36.0834],[-82.3552,36.1156],[-82.3214,36.1196],[-82.2895,36.1357],[-82.2687,36.127],[-82.2604,36.1337],[-82.2475,36.1309],[-82.2139,36.1591],[-82.1768,36.1422],[-82.1479,36.1495],[-82.1271,36.1044],[-82.0801,36.1057],[-82.0613,36.1131],[-82.0541,36.1268],[-82.0331,36.1204],[-81.9181,36.2871],[-81.9005,36.2811],[-81.8935,36.2645],[-81.904,36.2511],[-81.897,36.2427],[-81.9112,36.2293],[-81.9041,36.2091],[-81.8854,36.1895],[-81.8568,36.1937],[-81.8294,36.169],[-81.8115,36.1115],[-81.7755,36.0993],[-81.7611,36.0901],[-81.7537,36.0727],[-81.7357,36.0676],[-81.8072,35.962],[-81.87,35.9763],[-81.8814,35.9929],[-81.8999,35.9999],[-81.9432,35.9601],[-81.9149,35.9164],[-81.9067,35.8834],[-81.9205,35.8471],[-81.9569,35.8197],[-81.9735,35.8212],[-81.9869,35.8069],[-81.8694,35.7196],[-81.8241,35.575],[-81.8221,35.5805],[-81.7988,35.58],[-81.7941,35.5932],[-81.7722,35.5929],[-81.772,35.602],[-81.7534,35.6136],[-81.7371,35.6019],[-81.7173,35.6046],[-81.7057,35.5812],[-81.692,35.58],[-81.7029,35.3573],[-81.7595,35.2226],[-81.7681,35.1804],[-82.2749,35.2001],[-82.3233,35.1848],[-82.3615,35.1908],[-82.3713,35.1814],[-82.3929,35.2154],[-82.4197,35.1986],[-82.4396,35.1659],[-82.4571,35.164],[-82.4516,35.1727],[-82.4601,35.1781],[-82.53,35.1556],[-82.5464,35.1637],[-82.5699,35.1453],[-82.6124,35.1382],[-82.629,35.1262],[-82.641,35.1323],[-82.6624,35.1181],[-82.6733,35.1175],[-82.6814,35.1279],[-82.6936,35.1169],[-82.6865,35.1082],[-82.6977,35.0957],[-82.7005,35.1008],[-82.727,35.0941],[-82.7384,35.0795],[-82.7518,35.0799],[-82.7577,35.068],[-82.7774,35.0641],[-82.7764,35.0813],[-82.7879,35.085],[-83.1086,35.0014],[-83.6202,34.9921],[-83.62,34.9866]]]}}]}