{"type":"FeatureCollection","features":[{"type":"Feature","properties":{"id":"teruel-uplands","kind":"footprint"},"geometry":{"type":"Polygon","coordinates":[[[-1.4488,40.1454],[-1.4391,40.197],[-1.4744,40.1851],[-1.5108,40.2037],[-1.5404,40.1908],[-1.6903,40.3097],[-1.7003,40.3071],[-1.71,40.2807],[-1.7192,40.2771],[-1.7292,40.3032],[-1.7201,40.3185],[-1.7068,40.3136],[-1.6976,40.3213],[-1.7412,40.3496],[-1.7784,40.3921],[-1.8063,40.3983],[-1.8006,40.4142],[-1.7854,40.4132],[-1.7485,40.4629],[-1.6924,40.4868],[-1.7018,40.5382],[-1.6896,40.5665],[-1.6932,40.5777],[-1.678,40.591],[-1.5987,40.5621],[-1.5454,40.5952],[-1.5648,40.6148],[-1.5389,40.6581],[-1.5356,40.687],[-1.5533,40.7059],[-1.562,40.7398],[-1.5398,40.7607],[-1.5423,40.8112],[-1.5567,40.8288],[-1.5704,40.8301],[-1.5887,40.845],[-1.6202,40.8795],[-1.6259,40.8987],[-1.6078,40.9276],[-1.6174,40.9437],[-1.5895,40.9362],[-1.5579,40.9393],[-1.5053,40.9641],[-1.4729,40.9488],[-1.4714,40.958],[-1.4469,40.9766],[-1.4593,41.0068],[-1.4763,41.0149],[-1.4111,41.0351],[-1.4167,41.0438],[-1.4048,41.0506],[-1.41,41.0579],[-1.4052,41.0663],[-1.3557,41.0885],[-1.3601,41.0716],[-1.3541,41.0575],[-1.2874,41.0489],[-1.2709,41.0548],[-1.2532,41.0773],[-1.2713,41.1033],[-1.2546,41.1226],[-1.2099,41.1388],[-1.1739,41.1237],[-1.1215,41.1349],[-1.1131,41.1428],[-1.117,41.1555],[-1.1047,41.1677],[-1.0612,41.1517],[-1.0393,41.1347],[-1.0585,41.1105],[-1.0005,41.1147],[-0.9985,41.0952],[-0.9449,41.0753],[-0.9125,41.093],[-0.9153,41.1052],[-0.8905,41.1256],[-0.8914,41.1452],[-0.8832,41.1488],[-0.8836,41.1301],[-0.8598,41.108],[-0.8285,41.0964],[-0.7885,41.1079],[-0.7805,41.1474],[-0.7614,41.1697],[-0.7121,41.1218],[-0.6965,41.1155],[-0.6852,41.089],[-0.7192,41.0766],[-0.7229,41.0645],[-0.753,41.049],[-0.7441,41.0296],[-0.7505,41.0281],[-0.7442,40.9962],[-0.666,40.9755],[-0.6612,40.9562],[-0.6324,40.9377],[-0.6423,40.9255],[-0.6356,40.9092],[-0.6561,40.8979],[-0.6575,40.8742],[-0.6717,40.8419],[-0.6635,40.8318],[-0.6166,40.829],[-0.6225,40.7987],[-0.6051,40.7922],[-0.6024,40.7799],[-0.5763,40.7715],[-0.5832,40.763],[-0.6016,40.7675],[-0.6225,40.7564],[-0.5872,40.7472],[-0.6164,40.723],[-0.6138,40.7036],[-0.6018,40.7259],[-0.5791,40.714],[-0.5486,40.7128],[-0.5619,40.6893],[-0.513,40.6955],[-0.4775,40.7121],[-0.4903,40.7315],[-0.4795,40.7513],[-0.4961,40.7672],[-0.493,40.7746],[-0.5208,40.8135],[-0.5571,40.8233],[-0.5466,40.8436],[-0.5248,40.8535],[-0.4873,40.8546],[-0.4316,40.8307],[-0.3979,40.8359],[-0.4051,40.8186],[-0.3761,40.825],[-0.3632,40.809],[-0.3339,40.8061],[-0.3228,40.8082],[-0.323,40.8227],[-0.3379,40.8582],[-0.3173,40.8626],[-0.2476,40.8046],[-0.2725,40.7996],[-0.2847,40.7684],[-0.27,40.7395],[-0.2392,40.7181],[-0.2359,40.6911],[-0.2936,40.674],[-0.3069,40.6595],[-0.3288,40.6803],[-0.3561,40.6777],[-0.3815,40.6616],[-0.3707,40.6508],[-0.3796,40.6236],[-0.3704,40.6136],[-0.322,40.6029],[-0.3115,40.6115],[-0.2932,40.6111],[-0.2998,40.5774],[-0.2901,40.544],[-0.3029,40.5275],[-0.2974,40.5313],[-0.3018,40.516],[-0.2976,40.5058],[-0.2881,40.5096],[-0.2747,40.4969],[-0.2797,40.4835],[-0.2728,40.4737],[-0.3326,40.4591],[-0.3426,40.4435],[-0.3787,40.4513],[-0.3473,40.444],[-0.3072,40.4092],[-0.2852,40.3863],[-0.2823,40.3651],[-0.3045,40.3627],[-0.3406,40.34],[-0.3431,40.3254],[-0.3497,40.328],[-0.3529,40.3134],[-0.3685,40.3121],[-0.3662,40.3051],[-0.3902,40.3056],[-0.4001,40.2942],[-0.3828,40.2783],[-0.3836,40.2649],[-0.428,40.2438],[-0.4638,40.2339],[-0.4699,40.2402],[-0.4945,40.2288],[-0.5441,40.2517],[-0.5578,40.2009],[-0.5715,40.182],[-0.5692,40.1592],[-0.5784,40.1381],[-0.6065,40.1283],[-0.6286,40.1021],[-0.6135,40.07],[-0.6272,40.0762],[-0.6829,40.0443],[-0.7475,40.0379],[-0.7536,40.0466],[-0.7622,40.0413],[-0.7672,40.0101],[-0.7778,39.9983],[-0.8379,39.9766],[-0.8357,39.96],[-0.8462,39.9477],[-0.8404,39.925],[-0.8299,39.9068],[-0.7976,39.8811],[-0.8674,39.8468],[-0.9077,39.8657],[-0.9125,39.8724],[-0.9002,39.8919],[-0.9096,39.8986],[-0.9138,39.918],[-0.9026,39.9319],[-0.9187,39.9672],[-0.9318,39.9561],[-0.9913,39.9819],[-1.0252,39.9746],[-1.0715,39.9797],[-1.0921,39.9678],[-1.105,39.975],[-1.1238,39.966],[-1.1217,39.9609],[-1.1423,39.9719],[-1.1651,40.0101],[-1.0842,40.0362],[-1.0721,40.0605],[-1.1497,40.1148],[-1.2072,40.1102],[-1.2449,40.1162],[-1.2506,40.1239],[-1.2442,40.146],[-1.2524,40.1433],[-1.2843,40.1715],[-1.2967,40.1993],[-1.293,40.2069],[-1.2973,40.2109],[-1.3149,40.2014],[-1.3229,40.1849],[-1.3197,40.1464],[-1.357,40.1289],[-1.3636,40.1386],[-1.4488,40.1454]],[[-1.5375,40.5886],[-1.5262,40.5805],[-1.5454,40.5952],[-1.5375,40.5886]],[[-0.7487,40.9956],[-0.7479,40.995],[-0.7442,40.9962],[-0.7487,40.9956]],[[-0.6481,40.7831],[-0.6501,40.7812],[-0.6225,40.7987],[-0.6481,40.7831]],[[-0.6578,40.7713],[-0.655,40.7733],[-0.6501,40.7812],[-0.6578,40.7713]],[[-1.4145,41.0236],[-1.4222,41.0272],[-1.4179,41.025],[-1.4145,41.0236]],[[-0.9514,40.6845],[-0.9504,40.6792],[-0.9506,40.6868],[-0.9514,40.6845]],[[-0.8911,40.5747],[-0.8749,40.5883],[-0.8727,40.5907],[-0.8911,40.5747]],[[-0.9944,40.5598],[-0.9964,40.5575],[-0.9904,40.5612],[-0.9944,40.5598]],[[-0.9724,40.4883],[-0.9696,40.4938],[-0.9705,40.4925],[-0.9724,40.4883]],[[-0.9378,40.4846],[-0.9204,40.4839],[-0.9515,40.4867],[-0.9378,40.4846]],[[-0.9111,40.3655],[-0.9107,40.3772],[-0.9113,40.3805],[-0.9111,40.3655]],[[-0.9418,40.3582],[-0.9495,40.3545],[-0.9327,40.3605],[-0.9418,40.3582]],[[-1.372,41.0022],[-1.3794,40.9964],[-1.3782,40.9972],[-1.372,41.0022]],[[-1.3845,40.924],[-1.3824,40.9281],[-1.3873,40.921],[-1.3845,40.924]],[[-1.4315,40.8415],[-1.434,40.8423],[-1.4224,40.8335],[-1.4315,40.8415]],[[-1.3985,40.7486],[-1.4267,40.7738],[-1.3906,40.7404],[-1.3985,40.7486]],[[-1.2138,40.2891],[-1.2324,40.2847],[-1.2457,40.28],[-1.2138,40.2891]],[[-1.1224,40.2223],[-1.1245,40.2316],[-1.1235,40.2259],[-1.1224,40.2223]],[[-1.1235,40.1602],[-1.1367,40.1618],[-1.1294,40.1606],[-1.1235,40.1602]],[[-1.6197,40.5177],[-1.6336,40.5115],[-1.6299,40.5096],[-1.6197,40.5177]],[[-1.5254,40.5746],[-1.5096,40.5481],[-1.5018,40.5374],[-1.5254,40.5746]],[[-1.5295,40.253],[-1.521,40.25],[-1.5209,40.2506],[-1.5295,40.253]],[[-1.6749,40.3627],[-1.6772,40.3463],[-1.6769,40.348],[-1.6749,40.3627]],[[-1.6075,40.399],[-1.6128,40.4001],[-1.6059,40.398],[-1.6075,40.399]],[[-1.5384,40.3702],[-1.5433,40.362],[-1.5404,40.3647],[-1.5384,40.3702]],[[-1.5204,40.3283],[-1.5189,40.3264],[-1.5197,40.329],[-1.5204,40.3283]],[[-1.4586,40.2463],[-1.4487,40.2587],[-1.4611,40.245],[-1.4586,40.2463]],[[-1.428,40.2013],[-1.4536,40.202],[-1.45,40.2012],[-1.428,40.2013]],[[-1.4632,40.204],[-1.4609,40.2035],[-1.4744,40.2132],[-1.4632,40.204]],[[-1.5402,40.3083],[-1.5351,40.3137],[-1.537,40.3121],[-1.5402,40.3083]],[[-1.5483,40.2173],[-1.5484,40.2201],[-1.5504,40.2236],[-1.5483,40.2173]],[[-1.5718,40.4662],[-1.56,40.4715],[-1.575,40.4653],[-1.5718,40.4662]],[[-1.6725,40.4538],[-1.6727,40.4539],[-1.6809,40.4533],[-1.6725,40.4538]],[[-1.6794,40.4602],[-1.6861,40.4337],[-1.6809,40.4533],[-1.6794,40.4602]],[[-1.2686,40.69],[-1.3166,40.6868],[-1.3202,40.6861],[-1.2686,40.69]],[[-1.2257,40.6993],[-1.2254,40.7025],[-1.2302,40.6901],[-1.2257,40.6993]],[[-1.2954,40.537],[-1.2955,40.5214],[-1.2954,40.5093],[-1.2954,40.537]],[[-1.3099,40.6034],[-1.3079,40.5958],[-1.3081,40.5972],[-1.3099,40.6034]],[[-1.3233,40.7308],[-1.3075,40.7351],[-1.299,40.7386],[-1.3233,40.7308]],[[-1.3401,40.8347],[-1.3424,40.8357],[-1.3501,40.8367],[-1.3401,40.8347]],[[-1.2024,41.0598],[-1.2094,41.0594],[-1.2048,41.0589],[-1.2024,41.0598]],[[-1.0765,40.4947],[-1.0724,40.4924],[-1.0537,40.4852],[-1.0765,40.4947]],[[-1.0759,40.6271],[-1.0447,40.6087],[-1.0319,40.6017],[-1.0759,40.6271]],[[-0.9329,40.8991],[-0.9227,40.8971],[-0.9211,40.905],[-0.9329,40.8991]],[[-0.9611,40.7975],[-0.9635,40.7971],[-0.9551,40.7967],[-0.9611,40.7975]],[[-0.796,40.7688],[-0.8113,40.7699],[-0.7784,40.7666],[-0.796,40.7688]],[[-0.7808,40.4993],[-0.7848,40.4989],[-0.7869,40.498],[-0.7808,40.4993]],[[-1.0093,40.9819],[-1.0221,40.9685],[-1.0103,40.9801],[-0.9995,40.996],[-1.0093,40.9819]],[[-0.9797,40.97],[-0.9712,40.9692],[-0.9982,40.974],[-0.9797,40.97]],[[-1.0466,40.8549],[-1.0565,40.8598],[-1.0485,40.855],[-1.0466,40.8549]],[[-1.0281,40.9249],[-1.0277,40.9249],[-1.0183,40.9283],[-1.0281,40.9249]],[[-1.0384,41.0001],[-1.0904,41.0214],[-1.0807,41.0162],[-1.0384,41.0001]],[[-1.0502,41.03],[-1.0492,41.0251],[-1.0469,41.0202],[-1.0502,41.03]],[[-0.8706,40.2663],[-0.8753,40.2689],[-0.8725,40.2664],[-0.8706,40.2663]],[[-0.8435,40.267],[-0.8594,40.2659],[-0.8558,40.2658],[-0.8435,40.267]],[[-0.7463,40.9343],[-0.7428,40.9333],[-0.7386,40.9332],[-0.7463,40.9343]],[[-0.7441,40.8335],[-0.7337,40.8266],[-0.7246,40.8221],[-0.7441,40.8335]],[[-0.8462,40.8951],[-0.8566,40.8961],[-0.8505,40.8949],[-0.8462,40.8951]],[[-0.8019,40.899],[-0.8059,40.9005],[-0.797,40.8969],[-0.8019,40.899]],[[-0.8564,40.823],[-0.848,40.8285],[-0.8437,40.8319],[-0.8564,40.823]],[[-0.708,40.4144],[-0.6966,40.4129],[-0.7038,40.4148],[-0.708,40.4144]],[[-0.6369,40.4079],[-0.6351,40.4183],[-0.6362,40.416],[-0.6369,40.4079]],[[-0.6133,40.4276],[-0.6299,40.421],[-0.6351,40.4183],[-0.6133,40.4276]],[[-0.6293,40.3429],[-0.6188,40.3631],[-0.6266,40.3498],[-0.6293,40.3429]],[[-0.639,40.3694],[-0.6389,40.3736],[-0.6405,40.377],[-0.639,40.3694]],[[-0.4388,40.6416],[-0.446,40.634],[-0.4627,40.6123],[-0.4388,40.6416]],[[-0.6386,40.7588],[-0.6288,40.7569],[-0.6281,40.7572],[-0.6386,40.7588]],[[-0.6763,40.814],[-0.6708,40.8139],[-0.6726,40.8145],[-0.6763,40.814]],[[-0.6705,40.7727],[-0.6683,40.7728],[-0.681,40.7745],[-0.6705,40.7727]]]}}]}