{"type":"FeatureCollection","features":[{"type":"Feature","properties":{"id":"valle-maira","kind":"footprint"},"geometry":{"type":"Polygon","coordinates":[[[7.0461,44.3748],[7.023,44.3819],[7.0018,44.4016],[6.9619,44.4104],[6.9364,44.4399],[6.9119,44.4512],[6.9062,44.4677],[6.8762,44.4818],[6.8615,44.5005],[6.8561,44.5332],[6.8699,44.5371],[6.88,44.5553],[6.9166,44.5615],[6.9374,44.5475],[6.9528,44.5516],[6.9897,44.5343],[7.0219,44.5494],[7.0277,44.5605],[7.0725,44.5685],[7.1558,44.5374],[7.2493,44.5428],[7.3065,44.5146],[7.3679,44.5095],[7.3823,44.4984],[7.4211,44.5021],[7.4453,44.4768],[7.4426,44.46],[7.4094,44.4423],[7.3454,44.4433],[7.3074,44.4245],[7.2864,44.4304],[7.2746,44.4452],[7.2483,44.4336],[7.1971,44.4371],[7.1728,44.4172],[7.1376,44.4185],[7.1204,44.3861],[7.0872,44.3911],[7.0461,44.3748]]]}}]}