{"type":"FeatureCollection","features":[{"type":"Feature","properties":{"id":"vermont","kind":"footprint"},"geometry":{"type":"Polygon","coordinates":[[[-72.4377,43.2028],[-72.4503,43.1925],[-72.4434,43.1797],[-72.4526,43.1721],[-72.4571,43.1485],[-72.433,43.1197],[-72.4431,43.1008],[-72.4353,43.0835],[-72.4674,43.0526],[-72.4624,43.0256],[-72.4438,43.0062],[-72.4629,42.9969],[-72.4616,42.9829],[-72.4738,42.972],[-72.5322,42.9549],[-72.5244,42.9156],[-72.5328,42.8961],[-72.5528,42.885],[-72.5572,42.853],[-72.5396,42.8048],[-72.5089,42.7799],[-72.5161,42.7659],[-72.4911,42.7725],[-72.4585,42.7269],[-73.2764,42.746],[-73.2909,42.8019],[-73.2837,42.8139],[-73.2854,42.8341],[-73.2787,42.8334],[-73.2477,43.5232],[-73.2416,43.535],[-73.2586,43.5649],[-73.2946,43.579],[-73.2922,43.6026],[-73.3062,43.628],[-73.3719,43.6245],[-73.3725,43.6048],[-73.387,43.5895],[-73.3834,43.5768],[-73.3958,43.5681],[-73.4312,43.5883],[-73.4177,43.6217],[-73.4265,43.6426],[-73.4155,43.6525],[-73.4047,43.6902],[-73.3706,43.7253],[-73.3697,43.7443],[-73.3506,43.7719],[-73.3925,43.8208],[-73.3722,43.8453],[-73.382,43.855],[-73.3741,43.8756],[-73.4086,43.9329],[-73.4077,44.0213],[-73.4377,44.045],[-73.4113,44.1127],[-73.4158,44.1328],[-73.4024,44.1459],[-73.3906,44.1909],[-73.362,44.2085],[-73.3432,44.238],[-73.3236,44.2439],[-73.3129,44.2653],[-73.3349,44.3644],[-73.315,44.3885],[-73.2936,44.4406],[-73.3067,44.5003],[-73.3388,44.548],[-73.3744,44.5755],[-73.3818,44.5893],[-73.3768,44.5996],[-73.3902,44.6184],[-73.3613,44.6945],[-73.3656,44.7418],[-73.3332,44.7888],[-73.3354,44.8046],[-73.3814,44.845],[-73.3581,44.9013],[-73.339,44.9177],[-73.3382,44.9648],[-73.3546,44.9874],[-73.3431,45.0108],[-72.8456,45.0167],[-72.3101,45.0038],[-71.4646,45.0136],[-71.4806,45.0023],[-71.5081,45.0079],[-71.5362,44.9946],[-71.5409,44.9838],[-71.5148,44.9587],[-71.5162,44.9399],[-71.523,44.9393],[-71.4934,44.9116],[-71.4949,44.9043],[-71.5497,44.8615],[-71.5557,44.8491],[-71.5511,44.837],[-71.5769,44.8152],[-71.5687,44.8075],[-71.5713,44.7933],[-71.5925,44.7827],[-71.6167,44.7563],[-71.6319,44.7525],[-71.6262,44.729],[-71.617,44.7283],[-71.5941,44.6969],[-71.5961,44.6776],[-71.5815,44.6732],[-71.5874,44.6597],[-71.5745,44.6548],[-71.5788,44.651],[-71.5628,44.6524],[-71.5579,44.6412],[-71.5633,44.6366],[-71.5472,44.6304],[-71.5573,44.6284],[-71.546,44.6231],[-71.5542,44.6254],[-71.5539,44.6056],[-71.5622,44.6016],[-71.5503,44.6009],[-71.5554,44.5938],[-71.5461,44.5974],[-71.5354,44.5871],[-71.5465,44.5778],[-71.5544,44.5813],[-71.5477,44.5714],[-71.559,44.5644],[-71.5961,44.5609],[-71.5971,44.5538],[-71.572,44.5382],[-71.5829,44.5234],[-71.5943,44.5217],[-71.5768,44.5026],[-71.5878,44.5067],[-71.5993,44.4863],[-71.6178,44.4858],[-71.627,44.4743],[-71.6349,44.4774],[-71.6255,44.4835],[-71.6328,44.4839],[-71.6474,44.4721],[-71.639,44.4644],[-71.6526,44.4605],[-71.6597,44.4415],[-71.7022,44.4138],[-71.7366,44.4094],[-71.7423,44.4014],[-71.762,44.407],[-71.7939,44.3993],[-71.8035,44.3919],[-71.8003,44.3843],[-71.8144,44.3819],[-71.8144,44.3545],[-71.8725,44.3366],[-71.9094,44.3484],[-71.9354,44.3358],[-71.9811,44.3375],[-72.0039,44.3241],[-72.0328,44.3204],[-72.0327,44.3025],[-72.0654,44.2772],[-72.0671,44.2682],[-72.0586,44.2691],[-72.0598,44.2569],[-72.0479,44.2385],[-72.0662,44.1898],[-72.0389,44.1564],[-72.0419,44.1376],[-72.0334,44.1311],[-72.0551,44.1104],[-72.0483,44.0969],[-72.04,44.1034],[-72.0309,44.0997],[-72.0337,44.0901],[-72.0451,44.0879],[-72.0318,44.0785],[-72.0525,44.0767],[-72.0489,44.069],[-72.0676,44.058],[-72.0625,44.0493],[-72.0783,44.0434],[-72.0748,44.033],[-72.0829,44.0216],[-72.0953,44.0219],[-72.0901,44.0099],[-72.1025,44.0149],[-72.1044,44.0022],[-72.117,43.9945],[-72.1147,43.9683],[-72.0914,43.9655],[-72.1186,43.946],[-72.1204,43.9196],[-72.1727,43.8843],[-72.1679,43.8691],[-72.1828,43.8655],[-72.1879,43.8561],[-72.1833,43.8082],[-72.2055,43.7846],[-72.2051,43.7711],[-72.2342,43.746],[-72.2718,43.7334],[-72.2996,43.7063],[-72.3141,43.6428],[-72.3291,43.6356],[-72.3344,43.6193],[-72.3285,43.6008],[-72.3801,43.5736],[-72.3804,43.5409],[-72.3986,43.5134],[-72.3809,43.4934],[-72.3817,43.4801],[-72.3925,43.4674],[-72.4038,43.3919],[-72.416,43.3765],[-72.4134,43.3627],[-72.3901,43.3569],[-72.4104,43.3317],[-72.3955,43.313],[-72.4155,43.2714],[-72.4387,43.2529],[-72.4377,43.2028]]]}}]}