{"type":"FeatureCollection","features":[{"type":"Feature","properties":{"id":"virginia-piedmont","kind":"footprint"},"geometry":{"type":"Polygon","coordinates":[[[-78.181,37.745],[-78.2125,37.7233],[-78.2374,37.6911],[-78.2571,37.6915],[-78.29,37.7083],[-78.4479,37.7516],[-78.4677,37.7631],[-78.4915,37.797],[-78.254,38.0628],[-78.2094,38.1311],[-78.369,38.1841],[-78.2885,38.2723],[-78.2673,38.2634],[-78.2726,38.2516],[-78.2528,38.2345],[-78.2209,38.2301],[-78.2174,38.2425],[-78.1777,38.2543],[-78.183,38.2677],[-78.1523,38.2658],[-78.1586,38.2741],[-78.1486,38.284],[-78.1461,38.2762],[-78.1237,38.2788],[-78.096,38.3018],[-78.0956,38.3111],[-78.0774,38.3163],[-78.0686,38.3084],[-78.0537,38.3177],[-78.0353,38.3126],[-78.0307,38.3279],[-77.9947,38.349],[-77.9757,38.3471],[-77.9727,38.3591],[-77.9584,38.3537],[-77.9215,38.3648],[-77.9085,38.3822],[-77.8921,38.3889],[-77.8835,38.3787],[-77.8273,38.3822],[-77.7811,38.364],[-77.7748,38.369],[-77.7877,38.3771],[-77.7701,38.393],[-77.7455,38.3837],[-77.7508,38.3774],[-77.7028,38.3608],[-77.7268,38.3236],[-77.9536,38.1185],[-77.9167,38.1183],[-77.9024,38.1081],[-77.8884,38.1131],[-77.8462,38.0983],[-77.8377,38.106],[-77.8109,38.0795],[-77.7866,38.0763],[-77.7845,38.0633],[-77.7685,38.0517],[-77.7452,38.0511],[-77.7482,38.0421],[-77.7429,38.0407],[-77.7409,38.0377],[-77.7488,38.0367],[-77.7469,38.0236],[-77.7323,38.0316],[-77.7306,38.0208],[-77.6873,38.008],[-77.7968,37.7306],[-77.8183,37.7462],[-77.8592,37.7541],[-77.858,37.7595],[-77.8818,37.7572],[-77.9118,37.7809],[-77.8972,37.8029],[-77.9072,37.8219],[-77.9403,37.838],[-77.9469,37.8526],[-77.9908,37.8575],[-77.9876,37.8646],[-77.9977,37.8726],[-78.0556,37.9048],[-78.0633,37.9051],[-78.1595,37.7487],[-78.181,37.745]]]}}]}