{"type":"FeatureCollection","features":[{"type":"Feature","properties":{"a":689,"b":799},"geometry":{"type":"LineString","coordinates":[[7.802,44.05],[7.649,44.046],[7.675,44.086],[7.631,44.152],[7.578,44.149],[7.5,44.108],[7.5,44.046],[7.446,44.038],[7.295,44.055],[7.267,44.118],[7.173,44.114],[7.135,44.182],[7.063,44.175],[6.929,44.273],[6.883,44.268],[6.93,44.212],[7.05,44.118],[7.077,44.078],[7.026,44.066],[6.992,44.093],[6.928,44.054],[6.928,44.121],[6.881,44.149],[6.8,44.153],[6.771,44.2],[6.734,44.169],[6.777,44.072],[6.678,44.047],[6.631,44.108],[6.688,44.185],[6.695,44.239],[6.618,44.248],[6.632,44.198],[6.582,44.133],[6.429,44.123],[6.507,44.178],[6.52,44.234],[6.439,44.315],[6.404,44.411],[6.432,44.429],[6.38,44.48],[6.461,44.467],[6.5,44.498],[6.576,44.635],[6.63,44.67],[6.607,44.693],[6.492,44.597],[6.363,44.558],[6.134,44.61],[6.0,44.594],[6.0,44.64],[5.951,44.603],[5.889,44.63],[5.898,44.671],[5.97,44.68],[5.925,44.754],[5.858,44.756],[5.836,44.652],[5.87,44.588],[5.805,44.554],[5.717,44.626],[5.579,44.609],[5.478,44.631],[5.517,44.687],[5.418,44.756],[5.412,44.821],[5.339,44.81],[5.301,44.866],[5.26,44.866],[5.21,44.81],[5.118,44.773],[5.045,44.78],[5.077,44.887],[5.155,44.921],[5.202,44.998]]}},{"type":"Feature","properties":{"a":689,"b":686},"geometry":{"type":"LineString","coordinates":[[5.202,44.998],[5.343,45.0],[5.405,45.053],[5.379,45.134],[5.496,45.201],[5.558,45.282],[5.611,45.281],[5.661,45.245],[5.684,45.188],[5.696,45.074],[5.72,45.064],[5.754,45.149],[5.874,45.209],[5.971,45.306],[6.078,45.473],[6.183,45.535],[6.26,45.541],[6.292,45.507],[6.271,45.442],[6.311,45.448],[6.33,45.497],[6.311,45.591],[6.362,45.638],[6.41,45.633],[6.431,45.546],[6.472,45.498],[6.423,45.682],[6.354,45.673],[6.241,45.599],[6.147,45.576],[6.064,45.523],[6.024,45.586],[5.973,45.609],[5.95,45.669],[6.022,45.731],[6.091,45.717],[6.153,45.666],[6.137,45.722],[6.08,45.777],[6.084,45.851],[6.128,45.878],[6.236,45.784],[6.37,45.756],[6.389,45.774],[6.292,45.786],[6.245,45.813],[6.236,45.883],[6.2,45.961],[6.25,46.032],[6.19,46.025],[6.026,46.065],[6.117,46.093],[6.222,46.153],[6.246,46.083],[6.377,46.04],[6.532,46.04],[6.598,46.055],[6.449,46.152],[6.321,46.176],[6.305,46.221],[6.598,46.383],[6.746,46.401],[6.838,46.388],[6.925,46.268],[6.965,46.289],[6.856,46.471],[6.925,46.56],[7.01,46.632],[7.096,46.661],[7.177,46.663],[7.226,46.703],[7.309,46.688],[7.367,46.705],[7.384,46.751],[7.457,46.763],[7.513,46.726],[7.59,46.712],[7.706,46.726],[7.736,46.778],[7.886,46.803],[7.977,46.903],[8.028,46.879],[8.071,46.944],[8.166,46.994],[8.313,46.997],[8.338,47.029],[8.435,47.07],[8.409,47.037],[8.464,47.035],[8.538,47.078],[8.812,47.151],[9.014,47.123],[9.065,47.146],[9.068,47.232],[9.247,47.173],[9.368,47.167],[9.362,47.198],[9.282,47.183],[9.232,47.217],[9.279,47.275],[9.409,47.309],[9.424,47.329],[9.538,47.356],[9.565,47.412],[9.618,47.394],[9.496,47.258],[9.476,47.211],[9.486,47.109],[9.469,47.025],[9.524,47.045],[9.537,47.227],[9.62,47.219],[9.628,47.276],[9.718,47.393],[9.763,47.427],[9.836,47.435],[9.896,47.366],[9.967,47.41],[9.973,47.498],[10.209,47.498],[10.269,47.533],[10.413,47.524],[10.498,47.543],[10.534,47.574],[10.638,47.542],[10.685,47.498],[10.736,47.498],[10.706,47.538],[10.766,47.575],[10.852,47.565],[10.997,47.577],[11.124,47.559],[11.406,47.657],[11.431,47.703],[11.5,47.707],[11.5,47.803],[11.42,47.901],[11.426,47.952],[11.473,47.939],[11.461,47.904],[11.534,47.839],[11.569,47.711],[11.691,47.742],[11.81,47.753],[12.001,47.749],[12.083,47.706],[12.14,47.713],[12.18,47.78],[12.337,47.776],[12.443,47.736],[12.53,47.8],[12.712,47.761],[12.798,47.756],[12.931,47.793],[13.009,47.719],[13.085,47.734],[13.099,47.808],[13.165,47.804],[13.311,47.826],[13.379,47.789],[13.533,47.802],[13.54,47.834],[13.625,47.851],[13.757,47.842],[13.865,47.886],[14.007,47.885],[14.086,47.857],[14.134,47.795],[14.239,47.892],[14.36,47.913],[14.481,47.833],[14.559,47.831],[14.621,47.799],[14.754,47.831],[14.829,47.88],[14.847,47.922],[14.818,47.96],[15.123,47.998],[15.121,47.948],[15.16,47.956],[15.23,48.057],[15.404,48.05],[15.317,47.998],[15.413,47.998],[15.503,48.071],[15.546,48.033],[15.493,47.977],[15.537,47.959],[15.609,48.006],[15.788,48.007],[15.863,48.097]]}},{"type":"Feature","properties":{"a":689,"b":795},"geometry":{"type":"LineString","coordinates":[[7.5,44.998],[7.443,44.998],[7.401,44.963],[7.391,44.89],[7.326,44.767],[7.338,44.732],[7.454,44.637],[7.47,44.522],[7.441,44.475],[7.458,44.403],[7.442,44.332],[7.464,44.308],[7.62,44.308],[7.829,44.421],[7.971,44.417],[8.186,44.452],[8.253,44.429],[8.275,44.373],[8.222,44.284],[8.116,44.254],[8.113,44.304],[8.062,44.29],[8.045,44.233],[7.952,44.153],[7.859,44.166],[7.747,44.148],[7.725,44.105],[7.802,44.05]]}},{"type":"Feature","properties":{"a":689,"b":660},"geometry":{"type":"LineString","coordinates":[[14.104,46.374],[13.904,46.422],[13.686,46.45],[13.507,46.431],[13.24,46.368]]}},{"type":"Feature","properties":{"a":689,"b":675},"geometry":{"type":"LineString","coordinates":[[13.24,46.368],[12.977,46.403],[12.863,46.393],[12.835,46.355],[12.939,46.28],[12.835,46.204],[12.722,46.204],[12.504,46.147],[12.457,46.024],[12.401,45.934],[12.341,45.922],[12.216,45.836],[12.361,45.774],[12.327,45.756],[12.191,45.812],[12.042,45.769],[11.915,45.781],[11.726,45.762],[11.699,45.833],[11.664,45.836],[11.665,45.742],[11.576,45.71],[11.428,45.73],[11.372,45.693],[11.455,45.607],[11.466,45.564],[11.363,45.512],[11.317,45.455],[11.219,45.415],[11.022,45.456],[10.836,45.466],[10.843,45.44],[10.79,45.382],[10.626,45.36],[10.493,45.418],[10.421,45.523],[10.382,45.533],[10.292,45.51],[10.24,45.518],[10.14,45.581],[9.979,45.583],[9.88,45.616],[9.751,45.623],[9.715,45.67],[9.696,45.632],[9.584,45.605],[9.536,45.613],[9.473,45.689],[9.446,45.684],[9.477,45.616],[9.366,45.617],[9.277,45.642],[9.211,45.616],[9.104,45.618],[9.016,45.59],[8.878,45.614],[8.841,45.569],[8.74,45.571],[8.659,45.722],[8.612,45.727],[8.569,45.781],[8.631,45.823],[8.605,45.889],[8.738,45.991],[8.736,46.095],[8.842,46.14],[8.836,46.174],[8.751,46.151],[8.71,46.094],[8.721,46.044],[8.644,45.957],[8.569,45.908],[8.513,45.93],[8.521,45.885],[8.567,45.864],[8.54,45.788],[8.609,45.717],[8.67,45.585],[8.587,45.586],[8.419,45.563],[8.391,45.602],[8.352,45.591],[8.359,45.545],[8.31,45.517],[8.235,45.525],[8.153,45.508],[8.07,45.523],[8.028,45.473],[8.073,45.42],[8.0,45.419],[8.0,45.381],[7.843,45.402],[7.78,45.391],[7.706,45.339],[7.675,45.196],[7.565,45.098],[7.559,45.043],[7.5,44.998]]}},{"type":"Feature","properties":{"a":689,"b":674},"geometry":{"type":"LineString","coordinates":[[15.863,48.097],[15.919,48.105],[16.027,48.158],[16.107,48.091],[16.19,48.08],[16.193,47.984],[16.136,47.88],[16.134,47.843],[16.0,47.817],[16.0,47.72],[15.85,47.69],[15.903,47.655],[15.825,47.631],[15.93,47.546],[16.075,47.519],[16.087,47.491],[16.242,47.462],[16.263,47.417],[16.204,47.386],[16.067,47.423],[16.048,47.376],[15.977,47.397],[15.918,47.264],[15.875,47.286],[15.86,47.243],[15.78,47.192],[15.756,47.246],[15.706,47.274],[15.566,47.257],[15.5,47.23],[15.5,47.131],[15.469,47.113],[15.345,47.151],[15.111,47.077],[15.141,47.024],[15.227,46.967],[15.229,46.882],[15.183,46.815],[15.188,46.72],[15.297,46.646],[15.428,46.652],[15.506,46.619],[15.461,46.593],[15.588,46.469],[15.474,46.365],[15.408,46.242],[15.304,46.213],[15.2,46.213],[15.086,46.232],[14.982,46.232],[14.888,46.204],[14.765,46.204],[14.273,46.308],[14.104,46.374]]}},{"type":"Feature","properties":{"a":664,"b":648},"geometry":{"type":"LineString","coordinates":[[-0.264,43.246],[-0.348,43.347],[-0.398,43.484],[-0.453,43.702],[-0.511,44.267],[-0.534,44.406],[-0.496,44.777],[-0.492,44.921],[-0.503,45.069],[-0.601,45.33],[-0.729,45.58],[-0.838,45.728],[-0.901,45.884],[-1.064,46.164],[-1.131,46.247]]}},{"type":"Feature","properties":{"a":664,"b":686},"geometry":{"type":"MultiLineString","coordinates":[[[5.064,50.249],[4.95,50.241],[4.66,50.178],[4.531,50.168],[4.181,50.1],[4.04,50.061],[4.058,50.018],[4.147,49.958],[4.105,49.876],[4.188,49.837],[4.28,49.822],[4.273,49.73],[4.196,49.698],[4.333,49.673],[4.432,49.611],[4.482,49.538],[4.374,49.519],[4.407,49.482],[4.58,49.466],[4.668,49.433],[4.819,49.179],[4.852,49.072],[4.912,48.979],[4.818,48.838],[4.705,48.766],[4.867,48.809],[5.0,48.88],[5.0,48.807],[5.101,48.798],[5.014,48.749],[4.914,48.766],[4.723,48.749],[4.639,48.726],[4.62,48.693],[4.679,48.648],[4.827,48.642],[4.826,48.613],[4.899,48.567],[4.915,48.526],[4.852,48.559],[4.798,48.523],[4.71,48.567],[4.701,48.616],[4.618,48.65],[4.54,48.579],[4.537,48.498],[4.72,48.498],[4.702,48.455],[4.561,48.447],[4.472,48.418],[4.518,48.371],[4.484,48.351],[4.374,48.411],[4.198,48.285],[4.233,48.261],[4.155,48.263],[4.15,48.238],[4.35,48.142],[4.339,48.115],[4.269,48.14],[4.09,48.172],[4.054,48.234],[4.014,48.137],[3.834,48.075],[3.779,48.008],[3.836,48.009],[3.86,47.972],[3.961,47.934],[3.981,47.899],[4.103,47.847],[4.233,47.746],[4.332,47.633],[4.396,47.582],[4.318,47.605],[4.276,47.585],[4.199,47.722],[4.095,47.764],[4.039,47.842],[3.979,47.864],[3.911,47.924],[3.816,47.963],[3.726,47.968],[3.583,47.946],[3.605,47.926],[3.748,47.912],[3.797,47.855],[3.773,47.842],[3.704,47.891],[3.596,47.904],[3.636,47.749],[3.747,47.666],[3.688,47.646],[3.571,47.758],[3.551,47.839],[3.475,47.941],[3.245,47.977],[3.272,48.024],[3.256,48.118],[3.199,48.261],[3.153,48.308],[3.001,48.343],[2.974,48.308],[3.024,48.248],[2.949,48.267],[2.908,48.246],[3.008,48.211],[3.0,48.188],[2.886,48.222],[2.85,48.183],[2.929,48.155],[2.927,48.128],[2.826,48.138],[2.808,48.109],[2.893,48.072],[3.061,48.065],[2.999,48.03],[2.832,48.047],[2.816,47.968],[2.866,47.941],[2.848,47.84],[2.9,47.72],[2.959,47.644],[2.914,47.569],[2.871,47.542],[2.866,47.487],[2.893,47.421],[2.853,47.353],[2.757,47.396],[2.696,47.354],[2.63,47.36],[2.487,47.344],[2.421,47.317],[2.337,47.225],[2.221,47.194],[2.079,47.198],[2.024,47.156],[1.91,47.131],[1.838,47.086],[1.718,46.971],[1.551,46.915],[1.436,46.847],[1.409,46.807],[1.458,46.743],[1.567,46.724],[1.526,46.689],[1.606,46.635],[1.503,46.61],[1.543,46.572],[1.451,46.515],[1.305,46.486],[1.086,46.406],[1.078,46.363],[1.02,46.35],[0.878,46.363],[0.857,46.327],[0.913,46.292],[0.893,46.262],[0.731,46.273],[0.573,46.252],[0.496,46.185],[0.426,46.22],[0.323,46.122],[0.304,46.026],[0.452,46.002],[0.461,45.977],[0.302,45.965],[0.294,45.874],[0.43,45.851],[0.432,45.887],[0.357,45.889],[0.361,45.924],[0.436,45.934],[0.5,45.914],[0.5,45.808],[0.453,45.79],[0.5,45.731],[0.5,45.633],[0.662,45.544],[0.47,45.534],[0.42,45.589],[0.32,45.632],[0.253,45.586],[0.256,45.537],[0.331,45.509],[0.534,45.498],[0.505,45.451],[0.603,45.405],[0.654,45.412],[0.717,45.487],[0.751,45.491],[0.771,45.43],[0.871,45.429],[0.749,45.344],[0.723,45.243],[0.781,45.242],[0.871,45.374],[0.934,45.399],[1.045,45.371],[1.119,45.299],[1.103,45.227],[1.14,45.175],[1.282,45.149],[1.355,45.16],[1.454,45.117],[1.654,45.05],[1.708,44.995],[1.871,44.941],[1.889,44.873],[1.819,44.858],[1.716,44.874],[1.714,44.818],[1.841,44.729],[1.928,44.723],[2.065,44.633],[2.129,44.621],[2.122,44.535],[2.142,44.47],[2.121,44.4],[2.035,44.317],[1.978,44.215],[1.844,44.084],[1.744,44.055],[1.777,44.018],[1.855,44.022],[1.989,44.079],[2.042,44.083],[2.151,44.044],[2.164,43.987],[2.096,43.934],[2.208,43.953],[2.213,43.928],[2.123,43.903],[2.176,43.869],[2.148,43.748],[2.233,43.707],[2.258,43.636],[2.335,43.577],[2.369,43.526],[2.306,43.503],[2.037,43.63],[1.861,43.674],[1.732,43.748],[1.623,43.773],[1.453,43.876],[1.368,43.939],[1.349,43.989],[1.233,44.093],[1.122,44.08],[1.135,44.036],[1.034,44.017],[0.998,44.046],[0.768,44.119],[0.71,44.11],[0.606,44.168],[0.503,44.204],[0.389,44.22],[0.357,44.172],[0.422,44.112],[0.433,44.033],[0.395,43.942],[0.443,43.544],[0.413,43.392]],[[9.774,52.138],[9.788,52.064],[9.918,51.921],[9.959,51.845],[9.945,51.794],[9.969,51.664],[9.932,51.584],[9.954,51.478],[9.903,51.489],[9.885,51.569],[9.916,51.684],[9.879,51.776],[9.889,51.884],[9.746,52.03],[9.718,52.132],[9.775,52.251],[9.711,52.353],[9.646,52.385],[9.491,52.416],[9.242,52.404],[8.953,52.348],[8.921,52.265],[8.878,52.221],[9.184,52.197],[9.363,52.12],[9.448,52.015],[9.38,52.0],[9.256,52.126],[9.184,52.155],[9.077,52.172],[8.894,52.161],[8.806,52.185],[8.828,52.276],[8.624,52.322],[8.323,52.334],[8.055,52.397],[7.949,52.409],[7.94,52.355],[7.894,52.322],[7.751,52.346],[7.696,52.322],[7.752,52.276],[7.703,52.24],[8.003,52.137],[8.161,52.124],[8.552,51.975],[8.764,51.89],[8.804,51.836],[8.802,51.771],[8.696,51.7],[8.421,51.621],[8.261,51.586],[8.071,51.562],[7.757,51.532],[7.633,51.487],[7.422,51.44],[7.264,51.448],[7.071,51.432],[7.006,51.411],[6.827,51.392],[6.818,51.335],[6.881,51.201],[6.943,51.114],[7.06,51.003],[7.15,50.852],[7.255,50.774],[7.161,50.752],[7.085,50.699],[7.018,50.716],[6.944,50.763],[6.826,50.812],[6.758,50.779],[6.849,50.722],[6.962,50.7],[6.869,50.631],[6.799,50.64],[6.633,50.711],[6.504,50.788],[6.405,50.812],[6.221,50.783],[5.994,50.798],[5.943,50.782],[5.966,50.73],[6.012,50.724],[6.14,50.744],[6.164,50.73],[6.065,50.649],[5.87,50.564],[5.74,50.439],[5.685,50.41]]]}},{"type":"Feature","properties":{"a":664,"b":654},"geometry":{"type":"LineString","coordinates":[[12.553,52.832],[12.293,52.779],[12.107,52.61],[11.946,52.504],[11.768,52.407],[11.46,52.318],[11.404,52.294],[11.274,52.326],[11.224,52.307],[11.075,52.345],[10.996,52.345],[10.912,52.376],[10.735,52.356],[10.603,52.375],[10.465,52.301],[10.314,52.313],[10.239,52.336],[10.093,52.328],[9.87,52.286],[9.834,52.263],[9.774,52.138]]}},{"type":"Feature","properties":{"a":664,"b":647},"geometry":{"type":"LineString","coordinates":[[8.5,56.482],[8.633,56.442],[8.752,56.453],[8.769,56.488],[8.89,56.493],[9.219,56.471],[9.312,56.456],[9.349,56.425],[9.463,56.166],[9.426,56.088],[9.253,55.954],[9.188,55.842],[9.282,55.737],[9.248,55.724],[9.073,55.736],[8.989,55.712],[8.974,55.666],[9.067,55.623],[9.043,55.591],[9.086,55.566],[9.094,55.507],[9.169,55.315],[9.318,55.101],[9.29,55.029],[9.331,55.009],[9.352,54.944],[9.335,54.818],[9.359,54.769],[9.426,54.723],[9.517,54.608],[9.498,54.514],[9.534,54.476],[9.63,54.452],[9.692,54.404],[9.731,54.341],[9.823,54.28],[9.878,54.212],[10.1,54.089],[10.218,54.059],[10.352,54.125],[10.427,54.095],[10.342,53.996],[10.333,53.886],[10.361,53.718],[10.453,53.677],[10.495,53.64],[10.468,53.562],[10.527,53.539],[10.649,53.588],[10.653,53.64],[10.7,53.664],[10.787,53.665],[10.821,53.596],[11.02,53.584],[11.088,53.617],[11.169,53.58],[11.234,53.631],[11.222,53.675],[11.165,53.715],[11.239,53.74],[11.285,53.696],[11.401,53.645],[11.393,53.61],[11.443,53.6],[11.49,53.647],[11.599,53.684],[11.716,53.697],[11.849,53.628],[11.796,53.536],[11.813,53.488],[11.929,53.445],[12.027,53.448],[12.127,53.485],[12.243,53.46],[12.24,53.498],[12.312,53.498],[12.324,53.463],[12.388,53.451],[12.323,53.416],[12.336,53.352],[12.45,53.228],[12.541,53.157],[12.56,53.098],[12.5,53.015],[12.5,52.933],[12.439,52.89],[12.401,52.83],[12.553,52.832]]}},{"type":"Feature","properties":{"a":646,"b":660},"geometry":{"type":"MultiLineString","coordinates":[[[19.558,43.873],[19.573,43.915],[19.52,43.953]],[[20.262,42.769],[20.334,42.82],[20.478,42.836],[20.518,42.874],[20.598,42.851],[20.598,42.884],[20.466,42.928],[20.337,42.902],[20.281,42.966],[20.166,42.992],[20.102,43.105],[20.098,43.157],[20.028,43.23],[19.936,43.283],[19.894,43.389],[19.811,43.447],[19.798,43.493],[19.737,43.52]]]}},{"type":"Feature","properties":{"a":646,"b":661},"geometry":{"type":"MultiLineString","coordinates":[[[26.811,44.174],[26.923,44.218],[26.839,44.306],[26.909,44.285],[26.941,44.224],[27.171,44.254]],[[27.648,44.124],[27.71,44.038],[27.73,43.935],[27.809,43.79],[27.836,43.68],[27.788,43.616],[27.68,43.669],[27.617,43.642],[27.7,43.548],[27.77,43.515],[27.826,43.461],[27.883,43.444],[28.041,43.449],[28.063,43.418],[28.228,43.464],[28.33,43.447],[28.351,43.424]]]}},{"type":"Feature","properties":{"a":646,"b":674},"geometry":{"type":"MultiLineString","coordinates":[[[19.307,44.511],[19.368,44.486],[19.512,44.387],[19.603,44.4],[19.504,44.511],[19.38,44.574],[19.371,44.619],[19.617,44.688],[19.739,44.656],[19.884,44.669],[19.928,44.626],[20.0,44.626],[20.0,44.578],[20.123,44.611],[20.158,44.558],[20.121,44.505],[20.063,44.487],[19.861,44.481],[19.89,44.459],[20.0,44.456],[20.0,44.379],[20.121,44.414],[20.115,44.373],[19.936,44.28],[19.929,44.234],[19.998,44.257],[20.072,44.256],[20.124,44.3],[20.232,44.263],[20.211,44.191],[20.247,44.19],[20.315,44.255],[20.246,44.333],[20.28,44.374],[20.333,44.379],[20.317,44.434],[20.369,44.48],[20.297,44.507],[20.259,44.583],[20.273,44.643],[20.316,44.671],[20.348,44.735],[20.43,44.78],[20.574,44.811],[20.6,44.797],[20.666,44.84],[20.719,44.732],[20.811,44.697],[20.917,44.708],[21.084,44.776],[21.212,44.815],[21.237,44.924],[21.301,44.991],[21.365,45.019],[21.39,45.0],[21.29,44.933],[21.32,44.874],[21.533,44.92],[21.525,44.883],[21.442,44.878],[21.354,44.835],[21.32,44.767],[21.436,44.736],[21.556,44.723],[21.591,44.653],[21.965,44.615],[22.075,44.45],[22.185,44.464],[22.243,44.496],[22.363,44.656],[22.865,44.873],[23.037,44.918],[23.115,44.971],[23.128,45.011],[23.292,45.083],[23.339,45.123],[23.378,45.202]],[[19.5,43.996],[19.5,44.043],[19.465,44.071]]]}},{"type":"Feature","properties":{"a":646,"b":692},"geometry":{"type":"LineString","coordinates":[[23.378,45.202],[23.5,45.176],[23.671,45.186],[23.796,45.134],[24.0,45.142],[24.177,45.136],[24.29,45.183]]}},{"type":"Feature","properties":{"a":646,"b":654},"geometry":{"type":"LineString","coordinates":[[24.29,45.183],[24.345,45.162],[24.371,45.106],[24.289,45.001],[24.326,44.939],[24.4,44.948],[24.551,44.998],[24.584,44.928],[24.567,44.802],[24.588,44.73],[24.654,44.693],[24.768,44.718],[24.879,44.853],[24.967,44.805],[25.321,44.67],[25.438,44.611],[25.586,44.513],[26.055,44.256],[26.236,44.175],[26.309,44.172],[26.507,44.219],[26.581,44.174],[26.811,44.174]]}},{"type":"Feature","properties":{"a":647,"b":654},"geometry":{"type":"MultiLineString","coordinates":[[[14.615,53.536],[14.588,53.473],[14.466,53.332],[14.317,53.176],[14.329,53.118],[14.273,53.107],[14.107,53.165],[14.086,53.142],[14.249,53.078],[14.239,53.028],[14.125,52.998],[14.08,52.958],[14.106,52.887],[13.932,52.862],[13.976,52.823],[14.111,52.771],[14.13,52.715],[13.674,52.686],[13.494,52.636],[13.387,52.563],[13.338,52.56],[13.249,52.607],[13.131,52.577],[13.073,52.642],[13.163,52.668],[13.174,52.715],[13.066,52.746],[13.093,52.768],[13.164,52.758],[13.228,52.711],[13.242,52.811],[13.357,52.863],[13.48,52.98],[13.426,53.019],[13.31,53.013],[13.29,52.91],[13.225,52.859],[13.072,52.818],[13.013,52.832],[12.964,52.884],[12.909,52.891],[12.872,52.854],[12.733,52.838],[12.553,52.832]],[[17.628,53.172],[17.423,53.13],[16.866,53.085],[16.783,53.108],[16.666,53.094],[16.591,53.112],[16.532,53.088],[16.542,53.049],[16.5,52.966],[16.404,52.937],[16.1,52.909],[16.043,52.96],[16.004,52.939],[15.984,52.873],[15.834,52.869],[15.863,52.949],[15.958,52.991],[16.047,52.984],[16.078,53.015],[16.041,53.093],[16.107,53.125],[16.088,53.242],[16.171,53.277],[16.246,53.25],[16.322,53.321],[16.26,53.409],[16.121,53.357],[16.09,53.374],[16.131,53.43],[16.045,53.439],[15.978,53.374],[15.983,53.234],[15.86,53.087],[15.789,53.124],[15.839,53.212],[15.818,53.269],[15.701,53.347],[15.664,53.498],[15.775,53.498],[15.797,53.457],[15.906,53.465],[15.955,53.491],[15.896,53.523],[15.845,53.52],[15.787,53.569],[15.821,53.603],[15.957,53.552],[16.079,53.525],[16.202,53.555],[16.054,53.58],[15.967,53.658],[15.566,53.661],[15.622,53.571],[15.541,53.494],[15.579,53.379],[15.548,53.342],[15.451,53.328],[15.429,53.282],[15.463,53.253],[15.554,53.303],[15.576,53.271],[15.572,53.178],[15.589,53.134],[15.682,53.037],[15.621,52.988],[15.663,52.961],[15.605,52.947],[15.401,52.967],[15.428,52.913],[15.517,52.87],[15.528,52.83],[15.428,52.745],[15.196,52.721],[15.098,52.69],[15.038,52.72],[14.902,52.737],[14.876,52.679],[15.0,52.655],[14.783,52.653],[14.671,52.584],[14.625,52.582],[14.53,52.626],[14.456,52.691],[14.325,52.765],[14.243,52.795],[14.196,52.835],[14.249,52.862],[14.185,52.88],[14.189,52.924],[14.133,52.95],[14.221,52.998],[14.313,53.01],[14.377,53.15],[14.442,53.179],[14.595,53.364],[14.754,53.451],[14.771,53.507],[14.738,53.512],[14.737,53.594],[14.611,53.644]]]}},{"type":"Feature","properties":{"a":647,"b":679},"geometry":{"type":"LineString","coordinates":[[12.922,56.507],[12.925,56.413],[13.123,56.281],[13.26,56.233],[13.461,56.197],[13.494,56.176],[13.749,56.14],[13.89,56.027],[13.939,56.0],[14.003,56.011],[14.178,56.102],[14.307,56.121],[14.516,56.201],[14.673,56.166]]}},{"type":"Feature","properties":{"a":691,"b":651},"geometry":{"type":"LineString","coordinates":[[-4.1,57.563],[-4.136,57.545],[-4.232,57.459],[-4.215,57.391],[-4.048,57.396],[-3.849,57.451],[-3.627,57.475],[-3.514,57.471],[-3.236,57.44],[-3.124,57.439],[-2.955,57.452],[-2.842,57.447],[-2.744,57.419],[-2.558,57.306],[-2.383,57.232],[-2.33,57.18],[-2.399,57.101],[-2.515,56.997],[-2.699,56.887],[-2.882,56.818],[-3.275,56.705],[-3.798,56.537],[-4.349,56.395],[-4.651,56.348],[-4.76,56.346],[-4.864,56.367],[-4.984,56.427],[-5.23,56.427]]}},{"type":"Feature","properties":{"a":691,"b":672},"geometry":{"type":"MultiLineString","coordinates":[[[-5.411,56.626],[-5.446,56.749],[-5.446,56.807],[-5.382,56.856],[-5.166,57.084],[-5.221,57.095],[-5.28,57.145],[-5.266,57.2],[-5.197,57.25],[-5.252,57.26],[-5.309,57.31],[-5.328,57.429],[-5.42,57.467],[-5.575,57.412],[-5.597,57.468],[-5.572,57.517]],[[-5.548,57.545],[-5.398,57.748],[-5.301,57.775],[-5.132,57.791],[-5.026,57.812],[-4.924,57.882],[-4.924,57.912],[-5.053,57.971],[-5.114,58.022],[-5.11,58.051],[-4.972,58.223]],[[-4.935,58.212],[-4.75,58.196],[-4.77,58.147],[-4.701,58.031],[-4.569,58.004],[-4.42,57.935],[-4.34,57.935],[-4.244,57.99],[-4.073,57.997],[-4.004,58.021],[-3.939,58.103],[-3.819,58.126],[-3.794,58.168],[-3.638,58.232],[-3.525,58.234],[-3.461,58.216],[-3.5,58.161]]]}},{"type":"Feature","properties":{"a":648,"b":805},"geometry":{"type":"LineString","coordinates":[[-7.888,40.415],[-8.158,40.364],[-8.255,40.317],[-8.353,40.241],[-8.369,40.328],[-8.412,40.411],[-8.454,40.438],[-8.442,40.585],[-8.473,40.641],[-8.591,40.718]]}},{"type":"Feature","properties":{"a":648,"b":793},"geometry":{"type":"MultiLineString","coordinates":[[[-7.723,41.198],[-8.035,41.135],[-8.238,41.13],[-8.316,41.115],[-8.364,41.067],[-8.294,41.002],[-8.213,40.994],[-7.859,41.057],[-7.697,41.053],[-7.635,41.036]],[[-1.336,42.894],[-1.401,42.778],[-1.462,42.772],[-1.373,42.638],[-1.401,42.601],[-1.452,42.601],[-1.553,42.665],[-1.72,42.64],[-1.802,42.643],[-1.926,42.688],[-1.992,42.674],[-2.032,42.703],[-2.106,42.662],[-2.039,42.644],[-2.036,42.614],[-2.131,42.636],[-2.234,42.638],[-2.324,42.619],[-2.404,42.577],[-2.683,42.563],[-2.878,42.612],[-3.097,42.598]]]}},{"type":"Feature","properties":{"a":648,"b":800},"geometry":{"type":"MultiLineString","coordinates":[[[-7.635,41.036],[-7.66,40.979],[-7.619,40.895],[-7.53,40.796],[-7.517,40.737],[-7.55,40.62],[-7.598,40.575],[-7.732,40.508],[-7.888,40.415]],[[-3.097,42.598],[-3.215,42.647],[-3.335,42.674],[-3.613,42.804],[-3.727,42.771],[-3.843,42.789],[-3.956,42.752],[-4.121,42.766],[-4.313,42.878],[-4.395,42.864],[-4.538,42.804],[-4.744,42.828],[-4.951,42.809],[-5.033,42.811],[-5.238,42.843],[-5.319,42.834],[-5.519,42.789],[-5.727,42.791],[-5.888,42.823],[-5.965,42.81],[-6.094,42.736],[-6.301,42.712],[-6.38,42.725],[-6.518,42.794],[-6.643,42.792],[-6.787,42.733],[-6.91,42.615],[-6.999,42.48],[-7.117,42.474],[-7.186,42.503],[-7.235,42.552],[-7.28,42.636],[-7.384,42.682],[-7.465,42.671],[-7.628,42.536],[-7.785,42.448],[-7.656,42.335],[-7.528,42.329],[-7.409,42.36],[-7.331,42.353],[-7.243,42.292],[-7.313,42.213],[-7.259,42.1],[-7.275,42.043],[-7.348,42.018],[-7.585,42.067],[-7.748,42.079],[-7.894,42.025],[-7.943,41.977],[-7.907,41.894],[-7.793,41.893],[-7.631,41.874],[-7.579,41.829],[-7.568,41.772],[-7.512,41.728],[-7.521,41.668],[-7.666,41.528],[-7.638,41.45],[-7.66,41.396],[-7.76,41.301],[-7.723,41.198]]]}},{"type":"Feature","properties":{"a":692,"b":661},"geometry":{"type":"LineString","coordinates":[[26.593,45.457],[26.537,45.442],[26.508,45.396]]}},{"type":"Feature","properties":{"a":692,"b":674},"geometry":{"type":"MultiLineString","coordinates":[[[23.378,45.202],[23.297,45.186],[23.185,45.142],[23.113,45.157],[22.982,45.144],[22.903,45.151],[22.813,45.214],[22.618,45.152],[22.51,45.148],[22.413,45.191],[22.476,45.247],[22.433,45.336],[22.429,45.388],[22.49,45.467],[22.537,45.484],[22.48,45.529],[22.553,45.6],[22.406,45.607],[22.37,45.559],[22.3,45.58],[22.307,45.642],[22.386,45.718],[22.367,45.753],[22.447,45.79],[22.524,45.791],[22.6,45.764],[22.662,45.791],[22.673,45.836],[22.747,45.87],[22.796,45.849],[22.851,45.73],[22.817,45.684],[22.731,45.641],[22.855,45.617],[22.797,45.564],[22.828,45.517],[22.889,45.504],[23.149,45.511],[23.163,45.555],[23.094,45.606],[23.267,45.72],[23.52,45.862],[23.658,45.873],[23.815,45.84],[24.05,45.759],[24.242,45.77],[24.373,45.85],[24.443,45.925],[24.452,45.97],[24.608,46.04],[24.821,46.088],[24.986,46.079],[25.162,46.036],[25.228,46.039],[25.272,46.078],[25.29,46.179],[25.371,46.217],[25.417,46.263],[25.469,46.223],[25.309,46.046],[25.292,45.943],[25.15,45.852],[25.067,45.832],[24.741,45.8],[24.5,45.762],[24.5,45.736],[24.428,45.742],[24.391,45.715],[24.449,45.696],[24.619,45.723],[24.739,45.731],[24.91,45.759],[25.019,45.765],[25.133,45.738],[25.159,45.674],[25.365,45.537],[25.45,45.567],[25.579,45.652],[25.687,45.643],[25.758,45.62],[25.81,45.631],[25.923,45.711],[25.996,45.728],[26.122,45.709],[26.192,45.728],[26.289,45.907],[26.337,45.957],[26.366,46.029],[26.289,46.062],[26.19,46.023],[26.192,46.088],[26.15,46.099],[26.119,45.967],[26.08,45.914],[26.0,45.866],[25.847,45.833],[25.913,45.953],[25.892,45.998],[25.848,45.998],[25.791,45.855],[25.749,45.865],[25.817,45.998],[25.768,45.998],[25.716,45.932],[25.672,45.936],[25.698,46.031],[25.73,46.068],[25.668,46.14],[25.575,46.144],[25.518,46.188],[25.53,46.26],[25.478,46.293],[25.414,46.418],[25.371,46.435],[25.265,46.295],[25.213,46.345],[25.29,46.394],[25.186,46.422],[25.163,46.463],[25.056,46.498],[25.036,46.555],[24.959,46.608],[24.988,46.698],[24.976,46.77],[24.912,46.84],[24.927,46.911],[24.891,46.985],[24.785,47.01],[24.73,47.072],[24.741,47.115],[24.859,47.205],[24.84,47.251],[24.785,47.244],[24.748,47.282],[24.828,47.334],[24.826,47.363],[24.746,47.412],[24.667,47.374],[24.604,47.295],[24.484,47.283],[24.346,47.308],[24.29,47.275],[24.162,47.294],[24.075,47.258],[23.973,47.266],[23.87,47.344],[23.741,47.393],[23.834,47.421],[23.855,47.446],[23.762,47.48],[23.622,47.458],[23.591,47.482],[23.754,47.512],[23.793,47.536],[23.793,47.639],[23.735,47.648],[23.721,47.691],[23.651,47.724],[23.482,47.725],[23.434,47.774],[23.438,47.808],[23.5,47.815],[23.5,47.952],[23.436,47.975],[23.268,48.002],[23.233,48.032],[23.246,48.076],[23.305,48.09],[23.423,48.035],[23.476,48.035],[23.607,48.102],[23.606,48.167],[23.561,48.246],[23.432,48.283],[23.397,48.338],[23.293,48.361],[23.25,48.414],[23.173,48.458],[23.025,48.501],[22.963,48.573],[22.831,48.633],[22.592,48.668],[22.46,48.758],[22.306,48.745],[22.266,48.808],[22.307,48.861],[22.464,48.945],[22.405,48.991],[22.272,49.003],[22.135,48.984],[22.064,49.011],[21.977,48.977],[21.976,49.077],[21.917,49.181],[21.911,49.226],[21.845,49.257],[21.794,49.227],[21.724,49.058],[21.677,49.074],[21.663,49.176],[21.614,49.304],[21.517,49.298],[21.594,49.229],[21.561,49.168],[21.497,49.192],[21.468,49.286],[21.362,49.325],[21.332,49.29],[21.392,49.201],[21.35,49.155],[21.319,49.175],[21.275,49.275],[21.225,49.245],[21.216,49.121],[21.12,49.103],[21.042,49.176],[20.914,49.213],[20.829,49.194],[20.873,49.143],[20.941,49.137],[20.956,49.066],[20.876,49.036],[20.869,48.978],[20.819,48.963],[20.816,48.924],[21.002,48.892],[20.969,48.855],[21.006,48.821],[21.136,48.876],[21.157,48.839],[21.059,48.747],[20.969,48.712],[20.845,48.694],[20.862,48.654],[20.825,48.607],[20.732,48.607],[20.599,48.653],[20.461,48.731],[20.319,48.699],[20.293,48.714],[20.092,48.622],[19.998,48.592],[19.791,48.595]],[[22.5,46.855],[22.5,46.91],[22.541,46.918],[22.6,46.884],[22.69,46.906],[22.744,46.985],[22.719,47.014],[22.622,47.034],[22.626,47.079],[22.858,47.024],[22.971,47.046],[22.952,46.97],[22.98,46.868],[23.059,46.797],[23.308,46.734],[23.376,46.676],[23.466,46.493],[23.573,46.363],[23.571,46.299],[23.48,46.181],[23.459,46.095],[23.339,46.108],[22.901,46.234],[22.824,46.264],[22.79,46.311],[22.673,46.342],[22.63,46.449],[22.647,46.499],[22.642,46.599],[22.583,46.666],[22.563,46.776],[22.5,46.855]]]}},{"type":"Feature","properties":{"a":692,"b":654},"geometry":{"type":"MultiLineString","coordinates":[[[20.989,49.974],[21.222,49.921],[21.353,49.967],[21.492,50.089],[21.552,50.195],[21.728,50.143],[21.778,50.11],[22.025,50.099],[21.889,49.954],[21.818,49.951],[21.76,49.898],[21.623,49.853],[21.618,49.803],[21.663,49.742],[21.722,49.707],[21.742,49.743],[21.66,49.815],[21.681,49.833],[21.827,49.863],[21.943,49.935],[22.058,50.038],[22.213,50.068],[22.247,50.035],[22.495,49.981],[22.628,49.896],[22.686,49.815],[22.567,49.811],[22.307,49.828],[22.21,49.807],[22.181,49.767],[22.192,49.697],[22.226,49.65],[22.16,49.594],[22.235,49.502],[22.334,49.439],[22.385,49.456],[22.36,49.508],[22.281,49.541],[22.273,49.577],[22.317,49.636],[22.273,49.688],[22.278,49.757],[22.313,49.778],[22.391,49.761],[22.592,49.746],[22.861,49.776],[22.944,49.805],[23.018,49.887],[23.098,49.874],[23.173,49.817],[23.419,49.743],[23.52,49.765],[23.51,49.844],[23.61,49.858],[23.701,49.738],[23.692,49.643],[23.839,49.61],[23.83,49.559],[23.926,49.514],[24.068,49.477],[24.064,49.441],[24.279,49.324],[24.445,49.207],[24.61,49.129],[24.774,49.073],[24.858,49.033],[24.903,48.977],[24.962,48.979],[25.044,48.942],[25.022,48.89],[25.061,48.862],[25.132,48.921],[25.128,48.861],[25.188,48.874],[25.23,48.852],[25.181,48.829],[25.186,48.792],[25.346,48.863],[25.545,48.746],[25.561,48.66],[25.667,48.623],[25.722,48.524],[25.78,48.475],[25.985,48.368],[26.255,48.237],[26.339,48.217],[26.17,48.113],[25.997,48.038],[25.862,48.027],[25.806,47.982],[25.791,47.931],[25.82,47.891],[25.931,47.827],[26.0,47.764],[26.0,47.555],[25.911,47.572],[25.907,47.531],[26.118,47.444],[26.281,47.301],[26.288,47.213],[26.352,47.102],[26.327,47.008],[26.255,46.95],[26.264,46.918],[26.386,46.867],[26.5,46.719],[26.5,46.628],[26.542,46.573],[26.535,46.521],[26.487,46.481],[26.379,46.469],[26.347,46.432],[26.39,46.389],[26.399,46.339],[26.455,46.341],[26.507,46.294],[26.599,46.253],[26.618,46.19],[26.674,46.111],[26.758,46.057],[26.744,45.993],[26.692,45.954],[26.617,45.943],[26.599,45.992],[26.543,46.015],[26.5,45.996],[26.5,45.953],[26.56,45.909],[26.575,45.856],[26.639,45.85],[26.62,45.808],[26.705,45.806],[26.829,45.854],[26.87,45.844],[26.858,45.802],[26.778,45.752],[26.824,45.685],[26.806,45.634],[26.753,45.588],[26.605,45.506],[26.593,45.457]],[[26.508,45.396],[26.464,45.375],[26.457,45.331],[26.378,45.322],[26.378,45.373],[26.323,45.385],[26.151,45.338],[26.009,45.34],[25.955,45.286],[25.914,45.196],[25.818,45.193],[25.739,45.222],[25.659,45.153],[25.578,45.133],[25.388,45.12],[25.26,45.13],[25.207,45.168],[25.13,45.143],[25.102,45.16],[25.066,45.26],[24.971,45.258],[24.772,45.22],[24.632,45.223],[24.559,45.238],[24.503,45.195],[24.463,45.198],[24.452,45.272],[24.386,45.263],[24.332,45.285],[24.33,45.352],[24.287,45.401],[24.246,45.382],[24.249,45.261],[24.298,45.214],[24.29,45.183]]]}},{"type":"Feature","properties":{"a":651,"b":663},"geometry":{"type":"MultiLineString","coordinates":[[[-3.108,51.212],[-3.059,51.156],[-2.962,51.133],[-2.882,51.052],[-2.791,51.06],[-2.802,51.017],[-2.646,50.97],[-2.614,50.929],[-2.596,50.832],[-2.553,50.799],[-2.652,50.667]],[[1.248,52.393],[1.117,52.383],[1.056,52.358],[0.876,52.244],[0.831,52.159],[0.884,52.063],[0.84,51.95],[0.794,51.939],[0.622,51.971],[0.539,51.926],[0.383,51.881],[0.298,51.818],[0.146,51.777],[0.067,51.798],[-0.0,51.767],[-0.0,51.992],[0.124,52.068],[0.281,52.128],[0.347,52.182],[0.376,52.245],[0.358,52.287],[0.263,52.306],[0.261,52.365],[0.296,52.421],[0.278,52.445],[0.204,52.419],[0.129,52.418],[0.035,52.47],[0.079,52.516],[0.032,52.529],[-0.049,52.482],[-0.182,52.466],[-0.233,52.487],[-0.301,52.468],[-0.417,52.4],[-0.478,52.335],[-0.491,52.284],[-0.599,52.288],[-0.689,52.237],[-0.76,52.222],[-0.937,52.139],[-1.0,52.123],[-1.0,52.31],[-1.132,52.191],[-1.314,52.162],[-1.501,52.153],[-1.877,52.154],[-1.964,52.162],[-2.197,52.155],[-2.197,52.179],[-2.296,52.351],[-2.402,52.368],[-2.443,52.329],[-2.337,52.306],[-2.262,52.189],[-2.266,52.149],[-2.458,52.119],[-2.668,52.052],[-2.954,51.935],[-3.006,51.832],[-3.003,51.649],[-3.014,51.555]]]}},{"type":"Feature","properties":{"a":651,"b":672},"geometry":{"type":"MultiLineString","coordinates":[[[-10.188,52.232],[-10.238,52.217],[-10.196,52.184],[-10.153,52.232],[-10.067,52.243],[-9.948,52.222],[-9.828,52.223],[-9.732,52.252],[-9.651,52.224],[-9.672,52.186],[-9.771,52.153],[-9.799,52.118],[-9.488,52.073],[-9.266,52.053],[-9.184,52.06],[-9.022,52.128],[-8.901,52.166],[-8.763,52.132],[-8.771,52.176],[-8.823,52.196],[-8.745,52.22],[-8.744,52.26],[-8.803,52.286],[-8.831,52.334],[-8.77,52.354],[-8.671,52.343],[-8.618,52.392],[-8.657,52.438],[-8.877,52.415],[-8.93,52.45],[-9.079,52.474],[-9.096,52.609]],[[-9.709,53.599],[-9.613,53.635],[-9.057,53.783],[-8.934,53.788],[-8.857,53.759],[-8.708,53.789],[-8.622,53.758],[-8.589,53.674],[-8.647,53.624],[-8.73,53.587],[-8.88,53.569],[-8.897,53.518],[-8.668,53.447],[-8.644,53.421],[-8.645,53.336],[-8.598,53.342],[-8.519,53.424],[-8.433,53.441],[-8.34,53.414],[-8.218,53.359],[-8.17,53.41],[-8.183,53.467],[-8.363,53.65],[-8.382,53.707],[-8.292,53.861],[-8.355,53.888],[-8.461,53.904],[-8.475,53.99],[-8.561,54.017],[-8.649,54.022],[-8.596,54.107],[-8.492,54.178],[-8.341,54.239],[-8.209,54.23],[-8.111,54.183],[-7.922,54.055],[-7.771,54.065],[-7.72,54.107],[-7.724,54.197],[-7.762,54.338],[-7.677,54.451],[-7.489,54.564],[-7.362,54.574],[-7.233,54.615],[-7.173,54.664],[-6.995,54.728],[-6.859,54.813],[-6.807,54.928],[-6.825,55.016],[-6.923,55.17]]]}},{"type":"Feature","properties":{"a":654,"b":686},"geometry":{"type":"MultiLineString","coordinates":[[[17.5,50.37],[17.351,50.428],[17.11,50.427],[16.906,50.467],[16.834,50.502],[16.871,50.518],[17.005,50.487],[17.033,50.522],[17.096,50.53],[17.136,50.566],[17.08,50.612],[17.014,50.596],[16.928,50.655],[16.924,50.709],[16.812,50.701],[16.738,50.787],[16.797,50.82],[16.768,50.873],[16.657,50.875],[16.592,50.811],[16.509,50.831],[16.374,50.913],[16.359,51.014],[16.31,51.034],[16.224,50.998],[16.0,50.998],[16.0,51.044],[15.937,51.096],[15.811,51.151],[15.8,51.205],[15.751,51.223],[15.669,51.189],[15.563,51.189],[15.541,51.165],[15.419,51.205],[15.357,51.16],[15.394,51.273],[15.149,51.236],[15.014,51.267],[14.917,51.261],[14.815,51.305],[14.748,51.267],[14.682,51.281],[14.51,51.219],[14.399,51.247],[14.342,51.282],[14.242,51.267],[14.166,51.292],[14.082,51.288],[13.966,51.186],[13.84,51.147],[13.72,51.175],[13.646,51.213],[13.458,51.259],[13.415,51.211],[13.588,51.106],[13.556,51.056],[13.401,51.049],[13.331,51.02],[13.261,51.026],[13.131,51.078],[13.003,51.145],[12.914,51.168],[12.807,51.173],[12.755,51.12],[12.806,51.0],[12.759,50.919],[12.528,50.815],[12.413,50.816],[12.304,50.859],[12.196,50.855],[12.087,50.79],[12.01,50.835],[11.976,50.928],[11.938,50.946],[11.849,50.927],[11.788,50.882],[11.745,50.897],[11.809,50.97],[11.729,51.005],[11.692,51.066],[11.567,50.968],[11.503,50.9],[11.426,50.898],[11.401,50.947],[11.337,50.955],[11.246,50.92],[11.127,50.908],[11.127,50.864],[11.167,50.851],[11.27,50.87],[11.351,50.859],[11.384,50.809],[11.348,50.791],[11.221,50.783],[11.163,50.826],[11.017,50.797],[10.915,50.856],[10.853,50.852],[10.844,50.794],[10.795,50.775],[10.556,50.935],[10.514,50.976],[10.547,51.069],[10.442,51.166],[10.503,51.227],[10.641,51.254],[10.739,51.297],[10.957,51.293],[11.021,51.322],[11.132,51.288],[11.145,51.351],[11.211,51.383],[11.295,51.379],[11.306,51.426],[11.225,51.443],[11.049,51.419],[10.882,51.439],[10.869,51.492],[10.972,51.474],[11.264,51.471],[11.377,51.43],[11.428,51.326],[11.529,51.277],[11.573,51.307],[11.555,51.401],[11.504,51.442],[11.533,51.472],[11.607,51.464],[11.5,51.52],[11.5,51.596],[11.542,51.668],[11.403,51.726],[11.176,51.753],[11.012,51.827],[10.671,51.948],[10.623,51.998],[10.535,51.998],[10.561,51.962],[10.491,51.941],[10.447,51.976],[10.422,52.039],[10.332,52.104],[10.271,52.127],[10.185,52.117],[10.063,52.126],[10.031,52.077],[9.94,52.08],[9.869,52.12],[9.774,52.138]],[[15.604,48.362],[15.563,48.277],[15.433,48.235],[15.364,48.257],[15.331,48.227],[15.066,48.185],[15.173,48.281],[15.187,48.361],[15.227,48.413],[15.334,48.416],[15.445,48.454],[15.382,48.49],[15.504,48.544],[15.515,48.6],[15.402,48.689],[15.409,48.718],[15.542,48.737],[15.593,48.772],[15.558,48.8],[15.422,48.815],[15.369,48.874],[15.434,48.904],[15.459,48.944],[15.524,48.91],[15.557,48.932],[15.534,48.989],[15.564,48.997],[15.641,48.938],[15.685,48.94],[15.684,48.982],[15.783,49.022],[15.818,49.108],[15.938,49.144],[15.947,49.167],[15.811,49.185],[15.818,49.24],[15.871,49.212],[15.987,49.2],[16.048,49.178],[16.098,49.207],[16.249,49.225],[16.31,49.174],[16.436,49.213],[16.422,49.318],[16.351,49.38],[16.322,49.47],[16.365,49.482],[16.393,49.394],[16.508,49.422],[16.52,49.484],[16.561,49.511],[16.513,49.613],[16.565,49.619],[16.638,49.532],[16.671,49.602],[16.733,49.654],[16.723,49.712],[16.675,49.725],[16.642,49.691],[16.562,49.88],[16.648,49.914],[16.71,49.858],[16.831,49.866],[16.871,49.996],[16.97,50.001],[17.065,50.023],[17.046,49.932],[16.985,49.912]],[[16.945,49.818],[17.011,49.845],[17.075,49.823],[17.091,49.881],[17.159,49.875],[17.27,49.81]],[[12.882,50.3],[12.981,50.313],[13.042,50.348],[13.285,50.421],[13.599,50.584],[13.657,50.591],[13.75,50.654],[13.904,50.677],[13.958,50.706],[14.008,50.69],[13.996,50.616],[13.862,50.528],[13.859,50.491],[13.928,50.5],[14.049,50.595],[14.15,50.564],[14.232,50.57],[14.309,50.536],[14.448,50.541],[14.591,50.574],[14.647,50.56],[14.789,50.469],[14.852,50.457],[14.918,50.486],[14.986,50.58],[15.103,50.619],[15.144,50.575],[15.044,50.528],[15.044,50.497],[15.148,50.476],[15.164,50.44],[15.109,50.385],[15.274,50.406],[15.322,50.466],[15.265,50.519],[15.383,50.489],[15.465,50.44],[15.615,50.432],[15.745,50.376],[16.034,50.436],[16.171,50.402],[16.162,50.335],[16.264,50.266],[16.343,50.19],[16.406,50.154],[16.309,50.154],[16.331,50.089],[16.295,50.073],[16.111,50.113],[16.007,50.156],[15.913,50.14],[15.82,50.145],[15.831,50.06],[15.93,50.031],[15.949,50.001],[15.795,50.024],[15.724,50.012],[15.554,50.027],[15.381,50.016],[15.431,49.966],[15.577,49.931],[15.576,49.86],[15.658,49.803],[15.782,49.754],[15.791,49.716],[15.468,49.792],[15.312,49.814],[15.159,49.909],[15.106,49.923],[14.937,49.904],[14.872,49.869],[14.738,49.857],[14.697,49.8],[14.718,49.755],[14.628,49.757],[14.546,49.737],[14.521,49.809],[14.491,49.822],[14.38,49.811],[14.349,49.898],[14.284,49.904],[14.161,49.857],[14.083,49.811],[13.886,49.801],[13.832,49.765],[13.813,49.817],[13.879,49.89],[13.958,49.914],[13.981,49.965],[13.92,49.994],[13.806,49.984],[13.727,49.91],[13.644,49.921],[13.596,49.853],[13.561,49.845],[13.527,49.913],[13.615,49.959],[13.726,49.972],[13.841,50.031],[13.909,50.048],[14.04,50.039],[14.114,50.078],[14.109,50.108],[13.971,50.144],[13.929,50.12],[13.836,50.154],[13.764,50.152],[13.701,50.202],[13.592,50.218],[13.603,50.183],[13.548,50.172],[13.483,50.198],[13.448,50.16],[13.405,50.165],[13.424,50.213],[13.315,50.176],[13.304,50.132],[13.254,50.101],[13.161,50.131],[13.253,50.168],[13.251,50.256],[13.159,50.266],[13.212,50.301],[13.335,50.293],[13.335,50.333],[13.212,50.354],[13.083,50.332],[12.99,50.236],[12.931,50.252],[12.882,50.3]]]}},{"type":"Feature","properties":{"a":654,"b":661},"geometry":{"type":"MultiLineString","coordinates":[[[26.508,45.396],[26.572,45.336],[26.492,45.316],[26.427,45.277],[26.437,45.245],[26.554,45.287],[26.618,45.287],[26.691,45.234],[26.641,45.163],[26.488,45.082],[26.384,45.056],[26.334,44.968],[26.433,44.872],[26.469,44.793],[26.407,44.744],[26.272,44.734],[26.262,44.58],[26.286,44.531],[26.365,44.471],[26.538,44.382],[26.721,44.257],[26.811,44.174]],[[26.837,45.141],[26.874,45.152],[26.996,45.132],[26.809,45.206],[26.754,45.244],[26.799,45.275],[26.814,45.353],[26.615,45.423],[26.593,45.457]],[[29.19,47.209],[29.106,47.183],[29.02,47.198],[28.942,47.177],[28.912,47.06],[28.926,47.033],[28.902,46.857],[28.779,46.772],[28.644,46.765],[28.468,46.787],[28.389,46.758],[28.322,46.617],[28.215,46.567],[28.162,46.613],[28.103,46.817],[28.001,46.917],[27.935,46.955],[27.802,46.972],[27.647,46.909],[27.56,46.903],[27.52,46.852],[27.541,46.678],[27.692,46.564],[27.686,46.508],[27.482,46.35],[27.434,46.301],[27.313,46.046],[27.324,45.894],[27.427,45.763],[27.548,45.677],[27.625,45.649],[27.716,45.584],[27.901,45.506],[27.985,45.514],[28.041,45.595],[28.038,45.714],[28.065,45.891],[28.119,45.934],[28.2,45.906],[28.223,45.728],[28.272,45.614],[28.394,45.693]],[[29.187,49.821],[28.909,49.81],[28.754,49.814],[28.605,49.862],[28.628,49.805],[28.583,49.758],[28.527,49.769],[28.484,49.85],[28.397,49.776],[28.301,49.754],[28.21,49.787],[28.128,49.788],[27.998,49.82],[27.835,49.774],[27.737,49.799],[27.665,49.761],[27.542,49.736],[27.413,49.649],[27.3,49.659],[27.324,49.739],[27.465,49.804],[27.523,49.813],[27.634,49.879],[27.474,49.882],[27.4,49.93],[27.337,49.903],[27.221,49.906],[27.156,49.929],[27.025,49.932],[26.947,49.953],[26.901,49.93],[26.901,49.864],[27.0,49.898],[27.004,49.761],[27.071,49.674],[27.056,49.59],[27.175,49.585],[27.348,49.537],[27.465,49.535],[27.622,49.569],[27.703,49.569],[27.777,49.497],[27.912,49.484],[27.966,49.463],[28.146,49.43],[28.184,49.458],[28.127,49.564],[28.155,49.578],[28.269,49.567],[28.328,49.521],[28.398,49.513],[28.483,49.473],[28.541,49.475],[28.616,49.531],[28.668,49.51],[28.616,49.436],[28.517,49.398],[28.56,49.352],[28.769,49.328],[28.907,49.266],[28.892,49.17],[28.952,49.138],[29.051,49.157],[29.141,49.205],[29.149,49.255],[29.113,49.284],[28.969,49.317],[28.933,49.345],[28.984,49.398],[29.13,49.409],[29.313,49.366],[29.622,49.183],[29.624,49.146],[29.677,49.118],[29.856,49.109]],[[30.203,48.606],[30.183,48.545],[30.131,48.518],[30.1,48.539],[30.086,48.62],[29.994,48.608],[29.974,48.559],[29.989,48.486],[29.942,48.432],[29.852,48.435],[29.703,48.528],[29.647,48.533],[29.568,48.502],[29.563,48.459],[29.699,48.44],[29.721,48.384],[29.64,48.343],[29.702,48.301],[29.692,48.266],[29.781,48.252],[29.788,48.222],[29.612,48.211],[29.602,48.149],[29.66,48.126],[30.0,48.112],[29.997,48.045],[29.875,47.886],[29.763,47.853],[29.814,47.826],[29.945,47.853],[30.03,47.839],[29.997,47.791],[29.918,47.793],[29.885,47.765],[29.923,47.739]],[[26.438,48.011],[26.463,47.894],[26.54,47.822],[26.725,47.733],[26.787,47.69],[26.872,47.584],[26.902,47.467],[26.901,47.378],[26.876,47.201],[26.916,47.147],[27.01,47.12],[27.281,47.131],[27.46,47.148],[27.579,47.191],[27.627,47.243],[27.472,47.488],[27.311,47.668],[27.276,47.723],[27.185,47.922],[27.11,48.031],[27.02,48.134],[26.959,48.18],[26.833,48.213],[26.699,48.193],[26.533,48.14],[26.467,48.098],[26.438,48.011]],[[27.445,48.028],[27.492,47.914],[27.581,47.809],[27.702,47.72],[27.813,47.669],[28.274,47.583],[28.373,47.642],[28.381,47.702],[28.354,47.79],[28.255,47.89],[28.119,47.97],[27.873,48.049],[27.657,48.105],[27.568,48.109],[27.484,48.081],[27.445,48.028]]]}},{"type":"Feature","properties":{"a":654,"b":674},"geometry":{"type":"MultiLineString","coordinates":[[[16.996,49.316],[16.896,49.274],[16.759,49.33],[16.796,49.371],[16.914,49.391],[16.936,49.436],[16.887,49.504],[16.834,49.505],[16.822,49.471],[16.75,49.448],[16.646,49.475],[16.683,49.368],[16.656,49.306],[16.679,49.264],[16.655,49.188],[16.56,49.159],[16.576,49.113],[16.461,49.046],[16.487,49.002],[16.38,48.998],[16.319,48.918],[16.253,48.951],[16.141,48.937],[16.111,48.87],[16.0,48.807],[16.0,48.687],[15.858,48.703],[15.817,48.679],[15.806,48.62],[15.834,48.501],[15.803,48.429],[15.68,48.43],[15.5,48.397],[15.604,48.362]],[[17.219,49.715],[17.187,49.811],[17.142,49.811],[17.119,49.733],[17.049,49.735],[16.945,49.818]],[[16.985,49.912],[17.008,49.943],[16.921,49.925],[16.868,49.937],[16.898,49.789],[17.031,49.704],[17.176,49.635]]]}},{"type":"Feature","properties":{"a":654,"b":679},"geometry":{"type":"LineString","coordinates":[[21.012,55.924],[21.066,55.92],[21.174,56.002],[21.218,56.005],[21.223,55.932],[21.291,55.935],[21.232,55.835],[21.215,55.776],[21.249,55.71],[21.385,55.661],[21.574,55.651],[21.589,55.628],[21.527,55.551],[21.524,55.509],[21.568,55.448],[21.712,55.369],[21.858,55.327],[22.063,55.303],[22.244,55.325],[22.466,55.373],[22.551,55.411],[22.705,55.42],[22.975,55.374],[23.194,55.324],[23.394,55.268],[23.554,55.263],[23.855,55.172],[23.997,55.155],[24.079,55.13],[24.218,55.055],[24.251,55.013],[24.334,55.031],[24.39,55.15],[24.472,55.138],[24.479,55.023],[24.438,54.993],[24.642,54.901],[24.69,54.897],[24.797,54.814],[24.835,54.802],[24.837,54.889],[24.925,54.885],[24.941,54.816],[25.022,54.76],[24.998,54.728],[24.833,54.736],[24.843,54.677],[24.946,54.611],[24.958,54.554],[25.06,54.54],[25.203,54.46],[25.26,54.45],[25.342,54.494],[25.437,54.454],[25.572,54.43],[25.632,54.393],[25.636,54.357],[25.712,54.379],[25.737,54.351],[25.904,54.382],[26.014,54.38],[26.051,54.348],[26.131,54.342],[26.171,54.288],[26.191,54.179],[26.149,54.074],[26.204,54.034],[26.228,53.873],[26.292,53.893],[26.336,53.99],[26.447,54.028],[26.598,54.016],[26.656,53.984],[26.743,53.976],[26.747,53.929],[26.691,53.873],[26.757,53.863],[26.745,53.829],[26.834,53.733],[26.962,53.669],[27.21,53.602],[27.276,53.602],[27.391,53.681],[27.526,53.719],[27.556,53.796],[27.48,53.86],[27.301,53.932],[27.248,53.977],[27.369,54.019],[27.514,53.981],[27.596,53.922],[27.679,53.808],[27.629,53.757],[27.696,53.694]]}},{"type":"Feature","properties":{"a":660,"b":675},"geometry":{"type":"LineString","coordinates":[[13.628,45.978],[13.52,45.971],[13.436,46.076],[13.264,46.17],[13.197,46.231],[13.186,46.27],[13.24,46.368]]}},{"type":"Feature","properties":{"a":660,"b":674},"geometry":{"type":"MultiLineString","coordinates":[[[14.104,46.374],[14.067,46.31],[14.132,46.253],[14.138,46.214],[14.049,46.138],[14.033,46.098],[14.077,46.047],[14.231,46.047],[14.387,45.951],[14.529,45.933],[14.571,45.954],[14.598,45.922],[14.591,45.863],[14.673,45.788],[14.652,45.75],[14.822,45.637],[14.853,45.597],[14.75,45.647],[14.729,45.627],[14.779,45.58],[14.719,45.507],[14.744,45.455],[14.818,45.423],[14.943,45.448],[15.032,45.448],[15.208,45.362],[15.239,45.216],[15.358,45.129],[15.467,45.079],[15.703,45.004],[15.767,44.963],[15.848,44.859],[15.935,44.659],[16.024,44.524],[16.108,44.456],[16.179,44.47],[16.179,44.53],[16.071,44.691],[16.066,44.722],[16.128,44.757],[16.287,44.811],[16.37,44.803],[16.511,44.734],[16.595,44.666],[16.744,44.451],[16.81,44.422],[16.84,44.446],[16.903,44.572]],[[15.242,45.688],[15.372,45.767],[15.591,45.777],[15.694,45.817],[15.738,45.711],[15.713,45.69],[15.626,45.693],[15.515,45.647],[15.469,45.597],[15.242,45.688]]]}},{"type":"Feature","properties":{"a":792,"b":793},"geometry":{"type":"MultiLineString","coordinates":[[[-2.068,41.949],[-2.062,41.923],[-1.987,41.947],[-1.912,41.927],[-1.868,41.875],[-1.81,41.864],[-1.728,41.817],[-1.715,41.757],[-1.778,41.68],[-1.85,41.652],[-1.97,41.671],[-2.201,41.838],[-2.279,41.831],[-2.293,41.801],[-2.157,41.653],[-2.109,41.571],[-2.083,41.484],[-2.113,41.434],[-2.221,41.47],[-2.408,41.311],[-2.43,41.257],[-2.395,41.203],[-2.317,41.134],[-2.025,40.991],[-1.824,40.921],[-1.794,40.925],[-1.731,41.004],[-1.65,41.006],[-1.558,40.951],[-1.447,40.634],[-1.446,40.606],[-1.527,40.616],[-1.565,40.568],[-1.532,40.432],[-1.598,40.291],[-1.593,40.235],[-1.492,40.141],[-1.5,40.084],[-1.619,40.048],[-1.711,39.93],[-1.775,39.895],[-1.853,39.894],[-1.882,39.78],[-1.989,39.768],[-2.073,39.831],[-2.117,39.837],[-2.154,39.953],[-2.209,39.995],[-2.286,40.011],[-2.361,39.994],[-2.487,39.922],[-2.493,40.011],[-2.548,40.049],[-2.785,40.043],[-2.824,40.22],[-2.779,40.265],[-2.742,40.254],[-2.694,40.171],[-2.622,40.154],[-2.561,40.164],[-2.487,40.113],[-2.37,40.102],[-2.254,40.132],[-2.181,40.13],[-2.075,40.083],[-1.999,40.083],[-2.01,40.141],[-1.96,40.212],[-2.009,40.259],[-2.157,40.469],[-2.222,40.641],[-2.201,40.699],[-2.11,40.79],[-2.183,40.814],[-2.385,40.804],[-2.433,40.853],[-2.514,40.856],[-2.584,40.886],[-2.653,40.958],[-2.769,41.115],[-2.841,41.14],[-2.945,41.099],[-3.147,41.075],[-3.222,41.057],[-3.321,41.005],[-3.435,40.979],[-3.562,40.977],[-3.624,40.952],[-3.696,40.809],[-3.802,40.723],[-3.957,40.692],[-4.027,40.667],[-4.151,40.588],[-4.468,40.555],[-4.534,40.581],[-4.525,40.638],[-4.479,40.688],[-4.347,40.756],[-4.241,40.796],[-4.128,40.881],[-4.05,41.017],[-3.945,41.083],[-3.942,41.136],[-3.869,41.207],[-3.797,41.232],[-3.675,41.228],[-3.671,41.3],[-3.634,41.354],[-3.559,41.372],[-3.359,41.346],[-3.197,41.34],[-3.035,41.349],[-2.937,41.402],[-2.825,41.528],[-2.56,41.584],[-2.485,41.612],[-2.444,41.659],[-2.481,41.744],[-2.655,41.803],[-2.985,41.813]],[[-2.731,36.809],[-2.865,36.887],[-2.868,36.937],[-2.922,36.978],[-3.034,36.98],[-3.201,36.913],[-3.314,36.901],[-3.462,36.925],[-3.519,36.96],[-3.528,37.019],[-3.456,37.16],[-3.516,37.264],[-3.48,37.316],[-3.347,37.372],[-3.289,37.333],[-3.311,37.252],[-3.272,37.239],[-3.16,37.254],[-2.951,37.184],[-2.803,37.159],[-2.727,37.095],[-2.721,37.007],[-2.67,36.983]],[[-3.833,37.558],[-3.803,37.611],[-3.7,37.595],[-3.621,37.462],[-3.659,37.41],[-3.77,37.429],[-3.823,37.468],[-3.833,37.558]],[[-3.397,40.192],[-3.289,40.312],[-3.285,40.431],[-3.226,40.508],[-3.081,40.65],[-3.052,40.737],[-3.053,40.826],[-3.001,40.927],[-2.926,41.011],[-2.817,40.999],[-2.768,40.95],[-2.724,40.867],[-2.645,40.8],[-2.552,40.636],[-2.475,40.569],[-2.468,40.509],[-2.62,40.494],[-2.715,40.549],[-2.795,40.56],[-2.852,40.456],[-2.922,40.434],[-3.041,40.45],[-3.112,40.383],[-3.118,40.263],[-3.15,40.21],[-3.24,40.15],[-3.358,40.141],[-3.397,40.192]],[[-3.008,37.851],[-2.845,38.006],[-2.682,38.178],[-2.519,38.382],[-2.519,38.425],[-2.586,38.486],[-2.513,38.57],[-2.482,38.651],[-2.505,38.682],[-2.628,38.709],[-2.77,38.701],[-2.821,38.758],[-2.999,38.906],[-2.954,38.963],[-2.842,38.966],[-2.697,38.898],[-2.596,38.887],[-2.531,38.908],[-2.381,39.011],[-2.303,38.971],[-2.33,38.824],[-2.282,38.756],[-2.17,38.725],[-2.1,38.658],[-2.151,38.587],[-2.334,38.392],[-2.35,38.287],[-2.325,38.174],[-2.258,38.156],[-2.104,38.263],[-1.991,38.242],[-1.984,38.175],[-2.308,37.975],[-2.474,37.853],[-2.886,37.759],[-2.979,37.786],[-3.008,37.851]],[[-2.992,37.331],[-2.921,37.399],[-2.845,37.413],[-2.774,37.397],[-2.623,37.302],[-2.518,37.278],[-2.328,37.262],[-2.251,37.2],[-2.302,37.161],[-2.525,37.125],[-2.638,37.125],[-2.744,37.158],[-2.983,37.272],[-2.992,37.331]],[[-2.525,37.474],[-2.454,37.535],[-2.386,37.552],[-2.155,37.557],[-2.027,37.611],[-1.902,37.531],[-1.902,37.483],[-2.343,37.39],[-2.455,37.373],[-2.523,37.392],[-2.525,37.474]],[[-1.373,40.326],[-1.317,40.44],[-1.26,40.388],[-1.216,40.305],[-1.257,40.222],[-1.317,40.183],[-1.373,40.326]],[[-1.314,41.096],[-1.272,41.145],[-1.16,41.122],[-1.105,41.077],[-1.009,40.915],[-0.888,40.835],[-0.68,40.746],[-0.326,40.606],[-0.13,40.638],[-0.091,40.594],[-0.121,40.505],[-0.098,40.449],[-0.204,40.396],[-0.29,40.457],[-0.364,40.452],[-0.476,40.484],[-0.558,40.487],[-0.623,40.457],[-0.734,40.356],[-0.819,40.328],[-0.896,40.439],[-0.889,40.494],[-0.941,40.573],[-1.126,40.633],[-1.217,40.688],[-1.236,40.925],[-1.314,41.096]]]}},{"type":"Feature","properties":{"a":792,"b":800},"geometry":{"type":"LineString","coordinates":[[-2.985,41.813],[-2.948,41.871],[-2.743,41.876],[-2.588,41.912],[-2.528,41.966],[-2.435,41.938],[-2.371,41.988],[-2.291,41.996],[-2.151,41.957],[-2.068,41.949]]}},{"type":"Feature","properties":{"a":793,"b":805},"geometry":{"type":"MultiLineString","coordinates":[[[-3.828,36.75],[-3.849,36.794],[-3.97,36.814],[-4.091,36.867],[-4.111,36.908],[-4.22,36.931],[-4.346,36.915],[-4.312,36.871],[-4.369,36.831],[-4.325,36.776],[-4.42,36.824],[-4.381,36.901],[-4.483,36.912],[-4.491,36.94],[-4.57,36.921],[-4.623,36.978],[-4.697,36.926],[-4.741,36.924],[-4.726,36.972],[-4.866,36.961],[-4.878,36.938],[-4.818,36.897],[-4.765,36.89],[-4.746,36.853],[-4.801,36.842],[-4.834,36.765],[-4.889,36.727],[-4.912,36.639],[-4.974,36.65],[-4.955,36.725],[-5.053,36.762],[-5.056,36.712],[-4.993,36.676],[-5.036,36.568],[-5.103,36.618],[-5.166,36.606],[-5.238,36.621],[-5.303,36.582],[-5.373,36.618],[-5.375,36.667],[-5.429,36.666],[-5.427,36.735],[-5.374,36.739],[-5.388,36.787],[-5.462,36.802],[-5.441,36.743],[-5.496,36.784],[-5.447,36.84],[-5.334,36.839],[-5.409,36.889],[-5.216,36.906],[-5.201,36.977],[-5.276,37.019],[-5.348,37.012],[-5.354,37.061],[-5.32,37.095],[-5.269,37.081],[-5.214,37.127],[-5.263,37.161],[-5.205,37.198],[-5.094,37.234],[-4.967,37.208],[-4.907,37.214],[-4.876,37.274],[-4.933,37.359],[-4.982,37.395],[-4.915,37.467],[-4.811,37.46],[-4.683,37.474],[-4.692,37.501],[-4.814,37.507],[-4.838,37.564],[-4.911,37.597],[-4.865,37.647],[-4.872,37.684],[-4.813,37.743],[-4.704,37.726],[-4.673,37.758],[-4.726,37.827],[-4.657,37.905],[-4.609,37.902],[-4.499,37.941],[-4.522,37.975],[-4.685,37.925],[-4.764,37.93],[-4.877,37.876],[-4.954,37.875],[-5.051,37.828],[-5.182,37.887],[-5.255,37.892],[-5.308,37.944],[-5.376,37.972],[-5.396,37.935],[-5.342,37.904],[-5.368,37.857],[-5.402,37.87],[-5.525,38.029],[-5.573,38.053],[-5.582,37.982],[-5.697,37.955],[-5.787,37.883],[-5.879,37.903],[-5.896,37.872],[-5.785,37.841],[-5.851,37.771],[-5.954,37.857],[-5.957,37.939],[-5.98,37.962],[-6.016,37.886],[-6.061,37.874],[-6.142,37.785],[-6.164,37.846],[-6.248,37.751],[-6.341,37.751],[-6.403,37.706],[-6.32,37.641],[-6.372,37.645],[-6.55,37.567],[-6.585,37.594],[-6.65,37.557],[-6.604,37.511],[-6.687,37.503],[-6.769,37.54],[-6.803,37.615],[-6.782,37.664],[-6.829,37.684],[-6.845,37.637],[-6.905,37.618],[-6.921,37.713],[-7.001,37.704],[-7.009,37.632],[-7.122,37.567],[-7.187,37.579],[-7.216,37.495],[-7.305,37.496],[-7.328,37.532],[-7.431,37.534],[-7.441,37.58],[-7.347,37.587],[-7.267,37.66],[-7.288,37.696],[-7.174,37.698],[-7.124,37.717],[-7.106,37.772],[-7.179,37.724],[-7.228,37.746],[-7.305,37.743],[-7.368,37.687],[-7.411,37.696],[-7.397,37.746],[-7.445,37.759],[-7.472,37.72],[-7.551,37.695],[-7.646,37.626],[-7.609,37.52],[-7.529,37.482],[-7.518,37.446],[-7.608,37.425],[-7.578,37.38],[-7.618,37.299],[-7.596,37.266],[-7.672,37.224],[-7.843,37.353],[-7.926,37.464],[-8.05,37.468],[-8.15,37.523],[-8.205,37.528],[-8.194,37.617],[-8.144,37.728],[-8.069,37.813],[-7.965,37.88],[-7.932,37.926],[-7.936,37.986],[-7.902,38.099],[-7.891,38.207],[-7.821,38.21],[-7.76,38.175],[-7.648,38.162],[-7.598,38.192],[-7.514,38.19],[-7.561,38.235],[-7.681,38.275],[-7.7,38.332],[-7.763,38.425],[-7.968,38.399],[-8.04,38.476],[-8.012,38.514],[-8.092,38.574],[-8.099,38.607],[-7.937,38.618],[-7.903,38.675],[-7.898,38.744],[-7.77,38.642],[-7.706,38.627],[-7.605,38.669],[-7.457,38.704],[-7.402,38.733],[-7.478,38.759],[-7.409,38.794],[-7.405,38.839],[-7.466,38.894],[-7.522,38.904],[-7.601,38.877],[-7.64,38.77],[-7.681,38.787],[-7.725,38.861],[-7.784,38.91],[-7.852,39.007],[-7.838,39.177],[-7.762,39.261],[-7.678,39.299],[-7.511,39.316]],[[-7.313,39.179],[-7.268,39.141],[-7.185,39.15],[-7.096,39.207],[-6.884,39.199],[-6.868,39.24],[-7.012,39.236],[-7.115,39.277],[-7.064,39.322],[-7.158,39.446],[-7.238,39.476],[-7.477,39.517],[-7.503,39.538],[-7.45,39.579],[-7.358,39.69],[-7.423,39.728],[-7.568,39.68],[-7.624,39.713],[-7.556,39.724],[-7.504,39.777],[-7.406,39.82],[-7.335,39.931]]]}},{"type":"Feature","properties":{"a":793,"b":800},"geometry":{"type":"MultiLineString","coordinates":[[[-7.723,41.198],[-7.642,41.197],[-7.567,41.266],[-7.438,41.337],[-7.437,41.487],[-7.285,41.516],[-7.247,41.569],[-7.176,41.598],[-7.02,41.567],[-6.957,41.49],[-6.882,41.466],[-6.564,41.519],[-6.483,41.509],[-6.428,41.466],[-6.446,41.441],[-6.71,41.302],[-6.764,41.256],[-6.784,41.202],[-6.716,41.174],[-6.526,41.328],[-6.432,41.313],[-6.36,41.371],[-6.269,41.536],[-6.133,41.648],[-6.198,41.723],[-6.159,41.769],[-5.999,41.746],[-5.897,41.785],[-5.928,41.836],[-6.191,41.919],[-6.212,41.976],[-6.081,42.09],[-6.05,42.171],[-6.135,42.237],[-6.121,42.354],[-6.069,42.4],[-5.958,42.371],[-5.919,42.394],[-5.905,42.542],[-5.88,42.599],[-5.802,42.612],[-5.763,42.564],[-5.805,42.417],[-5.77,42.364],[-5.7,42.384],[-5.652,42.514],[-5.658,42.633],[-5.639,42.693],[-5.577,42.694],[-5.556,42.574],[-5.458,42.54],[-5.375,42.539],[-5.331,42.489],[-5.397,42.418],[-5.255,42.275],[-5.146,42.186],[-5.005,42.126],[-4.886,42.147],[-4.736,42.197],[-4.655,42.209],[-4.537,42.187],[-4.463,42.115],[-4.456,42.026],[-4.603,41.814],[-4.6,41.755],[-4.628,41.668],[-4.589,41.62],[-4.509,41.609],[-4.107,41.666],[-3.961,41.719],[-3.86,41.771],[-3.847,41.798],[-3.917,41.82],[-4.063,41.766],[-4.146,41.766],[-4.205,41.802],[-4.186,41.859],[-3.981,41.956],[-3.864,41.983],[-3.835,42.067],[-3.771,42.1],[-3.605,42.108],[-3.515,42.049],[-3.483,42.067],[-3.413,42.036],[-3.336,41.93],[-3.224,41.843],[-2.985,41.813]],[[-7.335,39.931],[-7.27,39.965],[-7.104,40.093],[-7.037,40.122],[-6.95,40.13],[-6.762,40.081],[-6.606,40.092],[-6.346,40.167],[-6.208,40.225],[-6.122,40.285],[-6.117,40.374],[-6.052,40.443],[-5.942,40.415],[-5.938,40.326],[-5.883,40.244],[-5.878,40.189],[-5.929,40.106],[-5.938,40.048],[-5.85,39.987],[-5.775,39.986],[-5.521,40.074],[-5.407,40.1],[-5.133,40.139],[-4.852,40.247],[-4.695,40.271],[-4.661,40.26],[-4.544,40.281],[-4.505,40.332],[-4.553,40.378],[-4.673,40.39],[-4.745,40.415],[-4.836,40.513],[-4.947,40.545],[-5.055,40.63],[-5.174,40.62],[-5.295,40.501],[-5.441,40.407],[-5.637,40.451],[-5.682,40.49],[-5.686,40.584],[-5.79,40.619],[-5.986,40.581],[-6.065,40.586],[-6.177,40.622],[-6.291,40.704],[-6.382,40.803],[-6.419,40.888],[-6.397,40.944],[-6.36,40.954],[-6.243,40.929],[-6.168,40.944],[-6.067,41.033],[-6.084,41.092],[-6.182,41.187],[-6.29,41.23],[-6.365,41.214],[-6.53,41.082],[-6.551,40.967],[-6.621,40.893],[-6.632,40.836],[-6.365,40.575],[-6.33,40.522],[-6.342,40.465],[-6.442,40.416],[-6.563,40.413],[-6.718,40.387],[-6.758,40.439],[-6.738,40.583],[-6.875,40.683],[-6.945,40.653],[-7.065,40.654],[-7.142,40.676],[-7.199,40.716],[-7.206,40.774],[-7.174,40.892],[-7.193,40.918],[-7.383,41.027],[-7.453,41.0],[-7.635,41.036]],[[-7.511,39.316],[-7.539,39.256],[-7.334,39.159],[-7.313,39.179]],[[-2.068,41.949],[-1.991,41.998],[-2.006,42.044],[-2.048,42.044],[-2.09,42.095],[-2.017,42.104],[-1.935,42.145],[-1.996,42.19],[-2.056,42.171],[-2.228,42.216],[-2.116,42.231],[-2.188,42.304],[-2.269,42.302],[-2.568,42.385],[-2.708,42.39],[-2.744,42.35],[-2.808,42.335],[-2.875,42.361],[-2.848,42.433],[-2.901,42.503],[-3.097,42.598]],[[-5.628,39.436],[-5.591,39.391],[-5.414,39.397],[-5.207,39.466],[-5.174,39.583],[-5.185,39.638],[-5.281,39.65],[-5.476,39.525],[-5.592,39.485],[-5.628,39.436]],[[-4.86,39.678],[-4.848,39.623],[-4.626,39.594],[-4.492,39.562],[-4.425,39.513],[-4.276,39.479],[-4.235,39.487],[-4.233,39.581],[-4.489,39.683],[-4.616,39.7],[-4.86,39.678]]]}},{"type":"Feature","properties":{"a":793,"b":799},"geometry":{"type":"LineString","coordinates":[[1.446,42.078],[1.478,42.05],[1.473,41.985],[1.506,41.959],[1.6,42.022],[1.739,42.02],[1.983,41.951],[2.033,41.907],[2.014,41.836],[2.038,41.827],[1.966,41.708],[1.819,41.645],[1.697,41.53],[1.511,41.409],[1.442,41.399],[1.317,41.44],[1.21,41.449],[1.079,41.41],[0.935,41.331],[0.812,41.296],[0.66,41.294],[0.539,41.281],[0.399,41.198],[0.369,41.203],[0.296,41.132],[0.211,41.082],[0.24,40.974],[0.233,40.922],[0.296,40.867],[0.237,40.795],[0.231,40.738],[0.171,40.703],[0.178,40.665],[0.057,40.63],[0.113,40.604],[0.082,40.576],[-0.0,40.567],[-0.0,40.509],[0.079,40.53],[0.086,40.478],[0.013,40.454],[-0.021,40.386],[-0.076,40.361],[-0.106,40.292],[-0.175,40.292],[-0.236,40.227],[-0.216,40.166],[-0.304,40.151],[-0.355,40.106],[-0.405,40.128],[-0.486,40.088],[-0.542,40.111],[-0.581,40.07],[-0.5,39.998],[-0.439,39.998],[-0.484,39.948],[-0.585,39.922],[-0.588,39.88],[-0.534,39.809],[-0.596,39.744],[-0.497,39.687],[-0.581,39.652],[-0.626,39.667],[-0.696,39.644],[-0.801,39.67],[-0.832,39.608],[-0.927,39.681],[-1.023,39.672],[-1.0,39.58],[-1.047,39.538],[-0.982,39.525],[-0.884,39.577],[-0.818,39.537],[-0.825,39.485],[-0.881,39.413],[-0.939,39.386],[-1.0,39.394],[-1.0,39.325],[-1.076,39.302],[-1.147,39.359],[-1.288,39.418],[-1.434,39.409],[-1.487,39.427],[-1.5,39.498],[-1.544,39.498],[-1.58,39.417],[-1.509,39.393],[-1.448,39.346],[-1.186,39.275],[-1.154,39.246],[-1.23,39.223],[-1.243,39.184],[-1.14,39.172],[-1.049,39.104],[-0.95,39.153],[-0.983,39.215],[-1.027,39.214],[-1.07,39.166],[-1.101,39.253],[-0.942,39.287],[-0.875,39.199],[-0.875,39.11],[-0.812,39.019],[-0.788,38.919],[-0.867,38.837],[-0.82,38.822],[-0.653,38.881],[-0.617,38.878],[-0.666,38.827],[-0.65,38.801],[-0.56,38.775],[-0.495,38.806],[-0.341,38.825],[-0.24,38.807],[-0.179,38.74],[-0.179,38.706],[-0.277,38.65],[-0.381,38.666],[-0.42,38.603],[-0.583,38.591],[-0.646,38.656],[-0.737,38.633],[-0.699,38.548],[-0.779,38.547],[-0.823,38.582],[-0.816,38.506],[-0.671,38.509],[-0.677,38.576],[-0.631,38.594],[-0.5,38.498],[-0.344,38.498],[-0.287,38.544],[-0.152,38.574],[-0.108,38.623],[-0.071,38.576]]}},{"type":"Feature","properties":{"a":795,"b":799},"geometry":{"type":"LineString","coordinates":[[7.051,43.541],[7.024,43.609],[6.871,43.646],[6.988,43.709],[7.152,43.75],[7.157,43.813],[7.116,43.844],[7.027,43.848],[7.027,43.876],[7.149,43.865],[7.145,43.915],[7.048,43.942],[7.067,43.965],[7.328,43.914],[7.419,43.965],[7.484,43.95],[7.497,44.011],[7.548,44.036],[7.569,44.085],[7.615,44.064],[7.552,43.952],[7.598,43.933],[7.711,44.008],[7.803,44.02],[7.802,44.05]]}},{"type":"Feature","properties":{"a":795,"b":675},"geometry":{"type":"LineString","coordinates":[[7.5,44.998],[7.474,44.827],[7.391,44.84],[7.389,44.802],[7.463,44.802],[7.5,44.708],[7.677,44.595],[7.691,44.526],[7.529,44.432],[7.547,44.358],[7.598,44.348],[7.683,44.371],[7.766,44.438],[7.797,44.507],[7.782,44.624],[7.851,44.722],[7.787,44.835],[7.817,44.909],[7.901,44.919],[7.963,44.977],[7.95,45.051],[8.041,45.069],[8.244,45.069],[8.389,45.113],[8.427,45.019],[8.415,44.977],[8.269,44.933],[8.139,44.853],[8.157,44.824],[8.268,44.86],[8.458,44.844],[8.583,44.898],[8.61,44.822],[8.762,44.787],[8.827,44.808],[8.848,44.887],[8.879,44.916],[8.952,44.925],[9.0,44.959],[9.0,44.998],[9.124,45.031],[9.283,45.041],[9.534,44.96],[9.66,44.957],[9.881,44.884],[9.976,44.878],[10.051,44.85],[10.181,44.753],[10.216,44.78],[10.331,44.767],[10.419,44.705],[10.503,44.708],[10.586,44.663],[10.733,44.621],[10.735,44.584],[10.865,44.593],[10.961,44.564],[10.996,44.511],[11.099,44.533],[11.285,44.481],[11.379,44.482],[11.605,44.376],[11.656,44.339],[11.738,44.325],[11.808,44.271],[11.941,44.212],[12.053,44.146],[12.117,44.149],[12.394,44.046],[12.479,44.06],[12.525,44.089]]}},{"type":"Feature","properties":{"a":799,"b":686},"geometry":{"type":"LineString","coordinates":[[2.128,42.891],[2.18,42.898],[2.197,42.971],[2.13,43.052],[2.12,43.109],[2.169,43.156],[2.333,43.215],[2.336,43.257],[2.18,43.282],[1.973,43.393],[2.0,43.421],[2.042,43.389],[2.238,43.374],[2.318,43.393],[2.44,43.381],[2.574,43.387],[2.784,43.45],[2.69,43.465],[2.689,43.529],[2.578,43.516],[2.507,43.543],[2.545,43.59],[2.669,43.596],[2.676,43.62],[2.553,43.621],[2.525,43.658],[2.614,43.717],[2.626,43.751],[2.524,43.812],[2.526,43.848],[2.617,43.851],[2.607,43.931],[2.648,43.987],[2.553,43.979],[2.531,43.932],[2.448,43.937],[2.311,43.925],[2.249,43.933],[2.267,43.966],[2.453,43.964],[2.558,44.023],[2.74,44.069],[2.64,44.092],[2.583,44.24],[2.629,44.303],[2.582,44.354],[2.458,44.372],[2.403,44.394],[2.394,44.435],[2.509,44.498],[2.777,44.498],[3.018,44.447],[3.196,44.451],[3.264,44.54],[3.251,44.561],[3.321,44.605],[3.363,44.603],[3.379,44.545],[3.579,44.558],[3.708,44.59],[3.801,44.556],[3.607,44.471],[3.552,44.395],[3.58,44.28],[3.554,44.232],[3.447,44.164],[3.423,44.093],[3.366,44.031],[3.403,43.991],[3.605,43.998],[3.651,44.084],[3.765,44.056],[3.799,44.071],[3.705,44.164],[3.822,44.205],[3.905,44.183],[3.938,44.199],[3.893,44.26],[3.969,44.282],[3.984,44.36],[4.057,44.37],[4.09,44.438],[4.229,44.547],[4.34,44.68],[4.539,44.748],[4.509,44.817],[4.53,44.903],[4.625,44.902],[4.683,44.944],[4.675,45.038],[4.743,45.121],[4.718,45.159],[4.746,45.245],[4.684,45.43],[4.733,45.498],[4.8,45.498],[4.785,45.566],[4.805,45.604],[4.881,45.518],[4.77,45.414],[4.768,45.384],[4.854,45.103],[4.898,45.083],[5.025,45.069],[5.157,45.083],[5.078,44.996],[5.102,44.953],[5.202,44.998]]}},{"type":"Feature","properties":{"a":800,"b":805},"geometry":{"type":"MultiLineString","coordinates":[[[-7.335,39.931],[-7.443,39.894],[-7.517,39.892],[-7.579,39.932],[-7.589,39.989],[-7.53,40.101],[-7.616,40.159],[-7.69,40.153],[-7.858,40.069],[-7.934,40.08],[-8.012,40.147],[-8.006,40.206],[-7.96,40.256],[-7.888,40.415]],[[-7.511,39.316],[-7.378,39.415],[-7.249,39.403],[-7.227,39.361],[-7.216,39.254],[-7.313,39.179]]]}},{"type":"Feature","properties":{"a":674,"b":686},"geometry":{"type":"MultiLineString","coordinates":[[[15.863,48.097],[15.927,48.21],[15.99,48.252],[16.1,48.271],[16.229,48.318],[16.048,48.32],[15.801,48.274],[15.684,48.292],[15.604,48.362]],[[16.985,49.912],[16.936,49.852],[16.945,49.818]]]}},{"type":"Feature","properties":{"a":679,"b":717},"geometry":{"type":"MultiLineString","coordinates":[[[21.462,60.891],[21.833,60.766],[22.304,60.675],[22.435,60.636],[22.615,60.562],[22.791,60.459],[22.88,60.419],[23.065,60.367]],[[30.293,59.902],[30.37,59.929],[30.444,59.913],[30.477,59.877],[30.581,59.825],[30.778,59.783],[30.87,59.83],[30.971,59.792],[30.946,59.694],[30.869,59.689],[30.853,59.759],[30.642,59.731],[30.502,59.704],[30.34,59.689],[30.162,59.544],[30.275,59.494],[30.436,59.442],[30.455,59.356],[30.356,59.362],[30.268,59.338],[30.223,59.275],[30.164,59.261],[30.097,59.31],[30.097,59.346],[30.2,59.419],[30.185,59.466],[30.085,59.523],[29.859,59.523],[29.747,59.506],[29.718,59.48],[29.758,59.433],[29.657,59.413],[29.494,59.423],[29.392,59.416],[29.26,59.448],[29.195,59.431],[29.157,59.361],[29.091,59.324],[28.959,59.329],[28.844,59.316],[28.732,59.353],[28.551,59.378],[28.275,59.45],[28.252,59.387],[28.421,59.377],[28.523,59.335],[28.365,59.327],[28.283,59.306],[28.221,59.324],[28.224,59.272],[28.173,59.282],[28.142,59.226],[28.085,59.282],[27.999,59.256],[27.999,59.23],[27.9,59.148],[27.872,59.098],[27.925,59.076],[28.089,59.122],[28.124,59.103],[28.065,58.996],[28.092,58.946],[28.222,58.857],[28.375,58.73],[28.538,58.733],[28.559,58.783],[28.61,58.819],[28.599,58.884],[28.648,58.894],[28.736,58.845],[28.82,58.866],[28.77,58.928],[28.793,59.004],[28.873,59.003],[28.903,58.896],[29.03,58.873],[29.232,58.858],[29.357,58.819],[29.22,58.738],[29.196,58.689],[29.323,58.681],[29.434,58.716],[29.601,58.741],[29.624,58.768],[29.595,58.832],[29.553,58.861],[29.688,58.887],[29.687,58.942],[29.561,59.024],[29.539,59.054],[29.579,59.081],[29.724,59.081],[29.771,59.054],[29.777,59.002],[29.835,58.919],[29.978,58.838],[29.856,58.807],[29.802,58.749],[29.819,58.691],[29.875,58.658],[30.032,58.718],[30.085,58.787],[30.235,58.868],[30.357,58.894],[30.447,58.931],[30.509,58.981],[30.601,59.0],[30.675,58.982],[30.657,58.908],[30.524,58.851],[30.22,58.799],[30.182,58.755],[30.239,58.695],[30.153,58.669],[30.149,58.607],[30.275,58.545],[30.425,58.528],[30.508,58.568],[30.57,58.673],[30.657,58.697],[30.727,58.665],[30.707,58.63],[30.608,58.568],[30.653,58.534],[30.769,58.536],[30.821,58.492],[30.77,58.415],[30.787,58.375],[30.927,58.375],[31.136,58.483],[31.195,58.498],[31.427,58.523],[31.402,58.558],[31.442,58.636],[31.64,58.744],[31.681,58.781],[31.831,58.8],[31.932,58.74],[32.099,58.716],[32.129,58.656],[32.06,58.652],[31.959,58.681],[31.836,58.666],[31.838,58.647],[32.146,58.607],[32.13,58.574],[32.26,58.547],[32.295,58.486],[32.409,58.464],[32.518,58.557],[32.571,58.557],[32.729,58.431]],[[31.396,57.333],[31.293,57.311],[31.278,57.284],[31.373,57.258]],[[31.502,57.783],[31.37,57.794],[31.219,57.882],[31.111,57.897],[31.023,57.858],[30.608,57.804],[30.5,57.724],[30.343,57.673],[30.241,57.719],[30.175,57.704],[30.133,57.641],[30.119,57.538],[30.015,57.468],[30.015,57.412],[29.944,57.31],[30.002,57.293],[30.076,57.353],[30.125,57.302],[30.24,57.261],[30.316,57.34],[30.373,57.36],[30.423,57.329],[30.38,57.27],[30.314,57.258],[30.318,57.207],[30.239,57.162],[30.279,57.14],[30.355,57.159],[30.438,57.113],[30.544,57.145],[30.638,57.209],[30.677,57.195],[30.688,57.134],[30.793,57.228],[30.928,57.282],[30.965,57.337],[31.033,57.362],[31.224,57.338],[31.246,57.379],[31.18,57.368],[31.171,57.423],[31.254,57.455],[31.298,57.514],[31.347,57.667],[31.396,57.699],[31.43,57.677],[31.431,57.619],[31.392,57.558],[31.38,57.432],[31.424,57.422]],[[28.349,58.358],[28.376,58.309],[28.584,58.207],[28.601,58.142],[28.575,58.062],[28.603,58.03],[28.415,58.009],[28.44,57.954],[28.381,57.928],[28.459,57.885],[28.51,57.817],[28.572,57.81],[28.775,57.862],[28.856,57.913],[28.956,57.942],[28.993,57.993],[28.815,58.039],[28.795,58.064],[28.858,58.08],[29.042,58.079],[29.111,58.116],[29.143,58.179],[29.113,58.212],[28.99,58.264],[28.958,58.296],[28.984,58.346],[29.05,58.374],[29.249,58.392],[29.378,58.381],[29.442,58.434],[29.396,58.469],[29.487,58.455],[29.612,58.483],[29.542,58.538],[29.572,58.584],[29.688,58.615],[29.678,58.643],[29.591,58.642],[29.424,58.594],[29.198,58.621],[29.083,58.626],[28.963,58.586],[28.846,58.435],[28.804,58.405],[28.704,58.408],[28.548,58.394],[28.42,58.409],[28.349,58.358]]]}}]}