{"type":"FeatureCollection","features":[{"type":"Feature","properties":{"a":328,"b":329},"geometry":{"type":"LineString","coordinates":[[-77.625,41.108],[-77.747,41.116],[-77.73,41.182],[-77.918,41.146],[-77.988,41.195],[-78.046,41.184],[-78.565,41.046],[-78.632,41.111],[-78.686,41.099],[-78.771,41.122],[-78.781,41.185],[-78.693,41.271],[-78.767,41.254],[-78.835,41.262],[-78.928,41.246],[-78.964,41.22],[-79.08,41.19],[-79.091,41.238],[-79.142,41.249],[-79.245,41.209],[-79.307,41.221],[-79.36,41.267],[-79.301,41.403],[-79.359,41.432],[-79.453,41.372],[-79.515,41.386],[-79.695,41.393],[-79.744,41.36],[-79.827,41.374]]}},{"type":"Feature","properties":{"a":328,"b":331},"geometry":{"type":"LineString","coordinates":[[-74.05,41.947],[-74.224,41.825],[-74.265,41.826],[-74.371,41.759],[-74.429,41.682],[-74.467,41.593],[-74.543,41.53],[-74.641,41.417],[-74.716,41.357],[-74.833,41.288],[-74.867,41.215],[-74.934,41.14],[-75.029,41.078],[-75.219,41.026],[-75.302,40.984],[-75.4,40.963],[-75.656,40.869],[-75.616,40.908],[-75.684,40.896],[-75.652,40.987],[-75.721,40.993],[-75.795,41.071],[-75.981,41.075],[-75.874,41.178],[-75.784,41.212],[-75.679,41.283],[-75.617,41.25],[-75.617,41.301],[-75.545,41.388],[-75.493,41.419],[-75.41,41.636],[-75.413,41.689],[-75.455,41.727],[-75.565,41.558],[-75.615,41.507],[-75.752,41.446],[-75.785,41.378],[-75.903,41.324],[-76.025,41.241],[-76.126,41.194],[-76.22,41.261],[-76.371,41.231],[-76.438,41.257],[-76.405,41.295],[-76.503,41.287],[-76.573,41.332],[-76.636,41.303],[-76.765,41.321],[-76.866,41.317],[-77.088,41.355],[-77.371,41.243],[-77.271,41.241],[-77.609,41.106],[-77.625,41.108]]}},{"type":"Feature","properties":{"a":328,"b":339},"geometry":{"type":"LineString","coordinates":[[-73.979,42.64],[-73.984,42.578],[-73.888,42.522],[-73.889,42.465],[-73.842,42.436],[-73.92,42.223],[-73.974,42.145],[-74.0,41.988],[-74.05,41.947]]}},{"type":"Feature","properties":{"a":328,"b":334},"geometry":{"type":"LineString","coordinates":[[-78.943,42.467],[-78.919,42.488],[-78.929,42.587],[-78.858,42.684],[-78.782,42.688],[-78.727,42.763],[-78.661,42.768],[-78.602,42.74],[-78.465,42.878],[-78.371,42.889],[-78.252,42.851],[-78.211,42.89],[-78.116,42.875],[-78.089,42.902],[-78.0,42.837],[-77.959,42.746],[-77.885,42.714],[-77.843,42.667],[-77.786,42.688],[-77.829,42.765],[-77.741,42.812],[-77.723,42.772],[-77.64,42.779],[-77.563,42.813],[-77.508,42.773],[-77.495,42.813],[-77.305,42.865],[-77.293,42.772],[-77.221,42.822],[-77.171,42.827],[-77.145,42.783],[-77.114,42.805],[-77.043,42.683],[-76.952,42.626],[-76.915,42.556],[-76.857,42.573],[-76.83,42.679],[-76.795,42.68],[-76.669,42.601],[-76.62,42.623],[-76.639,42.753],[-76.566,42.834],[-76.499,42.798],[-76.476,42.843],[-76.382,42.878],[-76.39,42.925],[-76.315,42.964],[-76.171,42.899],[-76.168,42.933],[-76.107,42.979],[-75.95,42.999],[-75.949,43.035],[-75.754,43.039],[-75.657,43.074],[-75.605,43.011],[-75.585,43.055],[-75.492,43.037],[-75.431,43.078],[-75.398,43.07],[-75.435,42.98],[-75.507,42.897],[-75.455,42.91],[-75.41,42.844],[-75.387,42.895],[-75.306,42.961],[-75.257,42.923],[-75.26,42.855],[-75.195,42.861],[-75.122,42.835],[-75.094,42.857],[-75.023,42.818],[-74.97,42.84],[-74.892,42.782],[-74.794,42.822],[-74.749,42.796],[-74.689,42.81],[-74.661,42.738],[-74.509,42.658],[-74.463,42.676],[-74.365,42.672],[-74.312,42.625],[-74.283,42.666],[-74.164,42.609],[-74.059,42.605],[-74.014,42.656],[-73.979,42.64]]}},{"type":"Feature","properties":{"a":328,"b":338},"geometry":{"type":"LineString","coordinates":[[-74.892,42.004],[-74.874,41.959],[-74.738,41.98],[-74.655,41.935],[-74.583,41.809],[-74.537,41.829],[-74.457,41.817],[-74.389,41.891],[-74.312,41.887],[-74.253,41.928],[-74.283,42.0],[-74.217,41.977],[-74.122,42.006],[-74.157,42.055],[-74.077,42.072],[-74.008,42.22],[-74.061,42.3],[-74.124,42.341],[-74.206,42.299],[-74.252,42.231],[-74.458,42.258],[-74.517,42.165],[-74.638,42.148],[-74.872,42.073],[-74.892,42.004]]}},{"type":"Feature","properties":{"a":331,"b":399},"geometry":{"type":"LineString","coordinates":[[-86.846,32.973],[-87.045,32.987],[-87.129,32.965],[-87.162,32.999],[-87.147,33.113],[-87.186,33.178],[-87.255,33.138],[-87.291,33.146]]}},{"type":"Feature","properties":{"a":331,"b":330},"geometry":{"type":"MultiLineString","coordinates":[[[-78.768,37.791],[-78.839,37.731],[-78.903,37.773],[-78.954,37.74],[-78.936,37.817],[-79.006,37.822],[-79.105,37.717],[-79.315,37.599],[-79.4,37.564],[-79.449,37.499],[-79.421,37.472],[-79.38,37.511],[-79.254,37.485],[-79.301,37.43],[-79.405,37.393],[-79.47,37.473],[-79.511,37.429],[-79.639,37.419],[-79.643,37.373],[-79.848,37.274],[-79.807,37.199],[-79.893,37.171],[-79.999,37.094],[-80.065,37.11],[-80.114,36.931],[-80.171,36.879],[-80.296,36.816],[-80.313,36.747],[-80.26,36.741],[-80.128,36.774],[-80.11,36.748],[-80.171,36.689],[-80.297,36.641],[-80.277,36.616],[-80.36,36.593],[-80.377,36.626],[-80.47,36.568],[-80.499,36.627],[-80.637,36.65],[-80.766,36.595],[-80.82,36.54],[-80.877,36.549],[-80.901,36.501],[-80.839,36.464],[-80.924,36.463],[-80.885,36.406],[-81.024,36.353],[-81.072,36.382],[-81.126,36.373],[-81.104,36.337],[-81.128,36.276],[-81.197,36.269],[-81.363,36.174],[-81.389,36.109],[-81.45,36.054],[-81.418,36.037],[-81.371,36.082],[-81.291,36.083],[-81.332,36.018],[-81.062,36.14],[-80.945,36.154],[-80.907,36.118],[-80.998,36.086],[-80.963,36.042],[-81.011,36.038],[-80.982,35.998],[-81.009,35.964],[-81.07,36.019],[-81.122,36.026],[-81.203,35.989],[-81.241,36.002],[-81.275,35.941],[-81.336,35.917],[-81.438,35.922],[-81.463,35.869],[-81.506,35.9],[-81.46,35.95],[-81.529,35.964],[-81.684,35.937],[-81.795,35.856],[-81.908,35.808],[-81.969,35.753],[-82.004,35.691],[-81.954,35.691],[-81.949,35.635],[-81.896,35.643],[-81.921,35.583],[-81.871,35.571],[-81.781,35.64],[-81.676,35.68],[-81.606,35.729],[-81.5,35.724],[-81.55,35.704],[-81.576,35.655],[-81.587,35.561],[-81.773,35.514],[-81.731,35.51],[-81.728,35.444],[-81.759,35.402],[-81.797,35.424],[-81.78,35.475],[-81.833,35.464],[-81.967,35.529],[-82.068,35.484],[-82.081,35.55],[-82.107,35.509],[-82.193,35.458],[-82.212,35.386],[-82.276,35.337],[-82.29,35.289],[-82.179,35.303],[-82.26,35.242],[-82.264,35.139],[-82.463,35.093],[-82.53,35.027],[-82.612,35.015],[-82.657,35.049],[-82.762,35.001],[-82.696,34.97],[-82.756,34.967],[-82.825,34.917],[-82.886,34.923],[-82.92,34.957],[-82.977,34.922],[-83.004,34.957],[-83.064,34.929],[-83.089,34.825],[-83.136,34.767],[-83.337,34.646],[-83.399,34.677],[-83.365,34.7],[-83.396,34.733],[-83.506,34.697],[-83.602,34.792],[-83.749,34.72],[-83.821,34.644],[-83.851,34.691],[-83.951,34.634],[-84.024,34.619],[-84.105,34.627],[-84.151,34.576],[-84.26,34.515],[-84.241,34.435],[-84.249,34.325],[-84.463,34.212],[-84.557,34.215],[-84.648,34.142],[-84.738,34.101],[-84.84,34.109],[-84.96,34.06],[-85.02,33.961],[-85.09,33.965],[-85.13,33.938],[-85.289,33.904],[-85.345,33.93],[-85.428,33.935],[-85.506,33.866],[-85.61,33.83],[-85.657,33.778],[-85.648,33.653],[-85.793,33.561],[-85.877,33.552],[-85.936,33.508],[-85.981,33.414],[-86.061,33.386],[-86.209,33.269],[-86.182,33.238],[-86.244,33.15],[-86.36,33.134],[-86.436,33.049],[-86.551,33.06],[-86.591,33.107],[-86.562,33.155],[-86.589,33.178],[-86.667,33.163],[-86.754,33.053],[-86.846,32.973]],[[-81.267,35.857],[-81.264,35.913],[-81.229,35.864],[-81.267,35.857]],[[-80.499,36.343],[-80.461,36.352],[-80.468,36.33],[-80.499,36.343]],[[-80.39,36.346],[-80.372,36.392],[-80.22,36.409],[-80.197,36.385],[-80.327,36.38],[-80.39,36.346]],[[-79.226,37.528],[-79.195,37.622],[-79.132,37.651],[-79.117,37.579],[-79.226,37.528]]]}},{"type":"Feature","properties":{"a":331,"b":329},"geometry":{"type":"MultiLineString","coordinates":[[[-87.291,33.146],[-87.057,33.326],[-87.002,33.432],[-86.902,33.529],[-86.801,33.573],[-86.673,33.721],[-86.625,33.835],[-86.582,33.884],[-86.357,34.066],[-86.195,34.144],[-86.15,34.132],[-86.302,34.046],[-86.552,33.856],[-86.609,33.787],[-86.595,33.754],[-86.507,33.804],[-86.403,33.824],[-86.321,33.906],[-86.274,33.906],[-86.194,33.984],[-86.313,33.947],[-86.262,34.005],[-86.115,34.081],[-86.042,34.148],[-85.822,34.423],[-85.712,34.52],[-85.539,34.764],[-85.587,34.74],[-85.564,34.824],[-85.452,34.978],[-85.404,34.989],[-85.352,35.095],[-85.278,35.189],[-85.194,35.247],[-85.105,35.431],[-85.061,35.46],[-84.906,35.635],[-84.868,35.704],[-84.791,35.762],[-84.692,35.879],[-84.572,35.926],[-84.545,35.957],[-84.437,35.984],[-84.344,36.047],[-84.226,36.103],[-84.163,36.182],[-84.167,36.231],[-84.226,36.3],[-84.217,36.328],[-84.047,36.433],[-83.972,36.463],[-83.869,36.466],[-83.77,36.533],[-83.667,36.567],[-83.646,36.615],[-83.544,36.651],[-83.404,36.672],[-83.207,36.73],[-83.05,36.766],[-82.764,36.863],[-82.836,36.761],[-82.807,36.719],[-82.675,36.784],[-82.507,36.83],[-82.255,36.929],[-82.203,36.93],[-82.107,36.983],[-82.028,37.07],[-81.976,37.036],[-81.809,37.087],[-81.707,37.13],[-81.561,37.159],[-81.375,37.237],[-81.259,37.256],[-81.118,37.3],[-80.876,37.356],[-80.791,37.391],[-80.617,37.487],[-80.364,37.615],[-80.417,37.651],[-80.373,37.775],[-80.325,37.828],[-80.256,37.974],[-80.049,38.19],[-79.953,38.355],[-79.882,38.429],[-79.839,38.528],[-79.788,38.708],[-79.714,38.8],[-79.629,38.951],[-79.561,39.027],[-79.51,39.032],[-79.402,38.973],[-79.329,38.991],[-79.262,39.137],[-79.145,39.302],[-79.025,39.45],[-78.884,39.595],[-78.735,39.856],[-78.746,39.885],[-78.816,39.807],[-78.902,39.741],[-79.039,39.59],[-79.213,39.448],[-79.274,39.421],[-79.435,39.285],[-79.575,39.152],[-79.62,39.074],[-79.666,39.051],[-79.784,38.816],[-79.945,38.618],[-79.997,38.492],[-80.073,38.487],[-80.095,38.589],[-80.004,38.739],[-79.944,38.812],[-79.817,39.209],[-79.704,39.366],[-79.668,39.374],[-79.531,39.559],[-79.473,39.546],[-79.499,39.467],[-79.567,39.36],[-79.506,39.333],[-79.329,39.49],[-79.224,39.543],[-79.1,39.64],[-79.017,39.758],[-78.839,39.949],[-78.73,40.085],[-78.629,40.316],[-78.563,40.369],[-78.402,40.64],[-78.308,40.683],[-78.21,40.779],[-78.0,40.893],[-77.876,41.015],[-77.809,41.049],[-77.625,41.108]],[[-86.074,34.023],[-86.002,34.024],[-85.849,34.142],[-85.745,34.208],[-85.603,34.384],[-85.515,34.465],[-85.366,34.632],[-85.309,34.774],[-85.398,34.704],[-85.445,34.62],[-85.458,34.68],[-85.42,34.753],[-85.356,34.948],[-85.33,34.99],[-85.355,35.019],[-85.517,34.824],[-85.523,34.769],[-85.485,34.753],[-85.569,34.642],[-85.649,34.508],[-85.752,34.404],[-85.856,34.25],[-86.074,34.023]],[[-79.363,39.569],[-79.299,39.693],[-79.272,39.676],[-79.363,39.569]],[[-78.312,40.057],[-78.216,40.087],[-78.215,39.999],[-78.273,39.866],[-78.177,39.923],[-78.108,40.033],[-78.004,40.324],[-77.958,40.416],[-77.992,40.428],[-78.054,40.373],[-78.137,40.34],[-78.233,40.222],[-78.312,40.057]]]}},{"type":"Feature","properties":{"a":331,"b":339},"geometry":{"type":"MultiLineString","coordinates":[[[-76.227,40.314],[-76.311,40.284],[-76.676,40.261],[-76.811,40.199],[-76.879,40.202],[-77.001,40.151],[-77.12,40.043],[-77.108,40.023],[-77.238,39.939],[-77.343,39.905],[-77.374,39.862],[-77.391,39.777],[-77.353,39.687],[-77.424,39.629],[-77.422,39.591],[-77.543,39.259],[-77.582,39.132],[-77.582,39.196],[-77.516,39.38],[-77.518,39.47],[-77.569,39.504],[-77.612,39.447],[-77.693,39.284],[-77.731,39.175],[-77.714,39.297],[-77.767,39.221],[-77.836,39.084],[-77.918,39.012],[-77.966,38.992],[-78.028,38.918],[-78.083,38.907],[-78.087,38.853],[-78.124,38.852],[-78.146,38.733],[-78.248,38.682],[-78.26,38.573],[-78.337,38.468],[-78.279,38.421],[-78.315,38.367],[-78.428,38.391],[-78.465,38.315],[-78.562,38.272],[-78.546,38.25],[-78.631,38.235],[-78.592,38.203],[-78.649,38.14],[-78.661,38.204],[-78.702,38.159],[-78.686,38.11],[-78.848,38.025],[-78.856,37.931],[-78.931,37.874],[-78.852,37.878],[-78.855,37.802],[-78.768,37.791]],[[-75.915,40.337],[-75.967,40.296],[-76.046,40.31]],[[-74.05,41.947],[-74.063,41.846],[-74.033,41.762],[-74.073,41.603],[-74.053,41.486],[-74.096,41.423]],[[-78.826,37.898],[-78.76,37.97],[-78.677,37.998],[-78.696,37.921],[-78.765,37.83],[-78.826,37.898]]]}},{"type":"Feature","properties":{"a":331,"b":338},"geometry":{"type":"MultiLineString","coordinates":[[[-76.046,40.31],[-76.152,40.35],[-76.227,40.314]],[[-74.425,41.232],[-74.505,41.197],[-74.493,41.283],[-74.542,41.252],[-74.58,41.171],[-74.544,41.145],[-74.712,41.03],[-74.889,40.843],[-74.946,40.887],[-74.912,40.927],[-75.024,40.853],[-75.133,40.755],[-75.132,40.712],[-75.087,40.716],[-74.974,40.791],[-74.938,40.769],[-74.828,40.866],[-74.825,40.823],[-74.927,40.754],[-74.938,40.72],[-75.041,40.666],[-75.189,40.621],[-75.223,40.67],[-75.329,40.628],[-75.323,40.57],[-75.45,40.523],[-75.442,40.557],[-75.353,40.599],[-75.4,40.61],[-75.549,40.509],[-75.701,40.502],[-75.911,40.424],[-75.915,40.337]],[[-74.096,41.423],[-74.144,41.417],[-74.225,41.346],[-74.259,41.35],[-74.29,41.252],[-74.423,41.232]]]}},{"type":"Feature","properties":{"a":329,"b":399},"geometry":{"type":"LineString","coordinates":[[-87.291,33.146],[-87.397,33.163],[-87.472,33.215],[-87.539,33.381],[-87.566,33.476],[-87.663,33.579],[-87.651,33.713],[-87.688,33.837],[-87.701,33.934],[-87.767,33.997],[-87.772,34.109],[-87.833,34.112],[-87.82,34.171],[-87.731,34.203],[-87.672,34.166],[-87.567,34.231],[-87.569,34.261],[-87.636,34.277],[-87.682,34.246],[-87.77,34.265],[-87.808,34.294],[-87.724,34.297],[-87.678,34.333],[-87.68,34.388],[-87.748,34.422]]}},{"type":"Feature","properties":{"a":330,"b":399},"geometry":{"type":"LineString","coordinates":[[-77.082,38.894],[-77.227,38.682],[-77.29,38.609],[-77.334,38.597],[-77.36,38.533],[-77.522,38.355],[-77.562,38.282],[-77.564,38.191],[-77.525,38.003],[-77.515,37.827],[-77.54,37.763],[-77.516,37.658],[-77.544,37.555],[-77.512,37.488],[-77.534,37.401],[-77.509,37.375],[-77.542,37.287],[-77.522,37.17],[-77.576,37.012],[-77.59,36.92],[-77.568,36.846],[-77.596,36.689],[-77.672,36.544],[-77.699,36.522],[-77.655,36.474],[-77.707,36.472],[-77.782,36.427],[-77.743,36.391],[-77.801,36.379],[-77.782,36.335],[-77.814,36.274],[-77.807,36.231],[-77.854,36.247],[-77.875,36.16],[-77.956,36.165],[-77.944,36.113],[-77.986,36.092],[-78.046,36.002],[-78.132,35.929],[-78.064,35.895],[-78.14,35.845],[-78.128,35.779],[-78.091,35.738],[-78.151,35.661],[-78.2,35.725],[-78.249,35.691],[-78.226,35.652],[-78.325,35.683],[-78.329,35.588],[-78.43,35.651],[-78.457,35.637],[-78.432,35.558],[-78.531,35.574],[-78.562,35.61],[-78.689,35.661],[-78.662,35.592],[-78.816,35.621],[-78.841,35.65],[-78.88,35.54],[-78.865,35.478],[-78.845,35.544],[-78.821,35.517],[-78.845,35.451],[-78.766,35.507],[-78.82,35.421],[-78.909,35.455],[-78.946,35.43],[-79.01,35.458],[-79.024,35.494],[-79.221,35.448],[-79.149,35.414],[-79.087,35.451],[-78.981,35.389],[-78.975,35.348],[-79.093,35.405],[-79.14,35.377],[-79.214,35.41],[-79.441,35.355],[-79.533,35.289],[-79.6,35.283],[-79.558,35.348],[-79.603,35.364],[-79.782,35.312],[-79.784,35.231],[-79.759,35.162],[-79.822,35.075],[-79.807,34.981],[-79.913,34.984],[-79.958,34.965],[-79.924,34.914],[-79.93,34.834],[-79.96,34.812],[-80.0,34.88],[-80.125,34.845],[-80.068,34.738],[-80.235,34.745],[-80.373,34.779],[-80.461,34.724],[-80.415,34.672],[-80.427,34.63],[-80.52,34.649],[-80.576,34.609],[-80.522,34.553],[-80.577,34.572],[-80.571,34.517],[-80.617,34.434],[-80.576,34.413],[-80.648,34.313],[-80.742,34.314],[-80.776,34.289],[-80.873,34.274],[-80.796,34.222],[-80.873,34.184],[-80.971,34.221],[-81.01,34.209],[-80.981,34.16],[-80.999,34.095],[-81.08,34.02],[-81.15,34.007],[-81.222,33.966],[-81.234,34.009],[-81.395,33.985],[-81.475,33.931],[-81.49,33.945],[-81.676,33.862],[-81.726,33.875],[-81.894,33.811],[-81.905,33.761],[-81.868,33.727],[-81.949,33.635],[-81.974,33.636],[-81.99,33.507],[-82.045,33.482],[-82.074,33.529],[-82.14,33.523],[-82.265,33.419],[-82.397,33.429],[-82.392,33.527],[-82.433,33.56],[-82.45,33.496],[-82.484,33.476],[-82.499,33.406],[-82.48,33.367],[-82.588,33.402],[-82.635,33.333],[-82.599,33.326],[-82.6,33.245],[-82.639,33.307],[-82.701,33.336],[-82.746,33.278],[-82.724,33.247],[-82.834,33.273],[-82.911,33.252],[-82.951,33.105],[-82.998,33.109],[-83.111,33.282],[-83.137,33.231],[-83.067,33.148],[-83.091,33.11],[-83.046,33.085],[-83.107,33.056],[-83.124,33.162],[-83.165,33.033],[-83.266,33.007],[-83.362,33.023],[-83.383,32.964],[-83.518,32.961],[-83.574,32.91],[-83.582,32.856],[-83.691,32.859],[-83.749,32.795],[-83.791,32.813],[-83.849,32.766],[-83.928,32.771],[-84.099,32.698],[-84.093,32.66],[-84.157,32.675],[-84.219,32.655],[-84.356,32.676],[-84.409,32.643],[-84.537,32.63],[-84.679,32.543],[-84.792,32.562],[-84.914,32.514],[-84.999,32.504],[-85.056,32.547],[-85.136,32.553],[-85.292,32.525],[-85.356,32.555],[-85.41,32.531],[-85.494,32.562],[-85.458,32.602],[-85.487,32.621],[-85.688,32.572],[-85.827,32.598],[-85.887,32.536],[-85.924,32.606],[-86.015,32.642],[-86.085,32.613],[-86.113,32.661],[-86.182,32.657],[-86.257,32.617],[-86.324,32.656],[-86.392,32.742],[-86.5,32.749],[-86.52,32.808],[-86.578,32.831],[-86.656,32.899],[-86.664,32.954],[-86.711,32.979],[-86.846,32.973]]}},{"type":"Feature","properties":{"a":330,"b":339},"geometry":{"type":"LineString","coordinates":[[-78.768,37.791],[-78.893,37.634],[-78.73,37.748],[-78.683,37.841],[-78.627,37.892],[-78.549,37.904],[-78.413,38.023],[-78.366,38.039],[-78.021,38.263],[-77.862,38.388],[-77.807,38.452],[-77.698,38.516],[-77.555,38.567],[-77.474,38.683],[-77.419,38.821],[-77.373,38.883],[-77.379,38.927],[-77.35,39.003],[-77.317,38.944],[-77.252,38.891],[-77.188,38.808],[-77.142,38.842],[-77.136,38.893],[-77.082,38.894]]}},{"type":"Feature","properties":{"a":346,"b":402},"geometry":{"type":"MultiLineString","coordinates":[[[-106.087,35.278],[-106.117,35.268],[-106.181,35.174],[-106.28,35.159],[-106.133,35.006],[-106.135,34.926],[-106.169,34.848],[-106.243,34.748],[-106.308,34.725],[-106.344,34.637],[-106.343,34.492],[-106.462,34.393],[-106.485,34.34],[-106.557,34.288],[-106.662,34.274]],[[-105.812,33.802],[-105.781,33.894],[-105.651,33.969],[-105.568,33.951],[-105.542,33.9],[-105.573,33.837],[-105.559,33.763],[-105.511,33.696],[-105.413,33.695],[-105.379,33.728],[-105.335,33.704],[-105.219,33.684],[-105.167,33.633],[-105.152,33.566],[-105.174,33.482],[-105.224,33.415],[-105.299,33.422],[-105.312,33.4],[-105.222,33.325],[-105.194,33.182],[-105.155,33.084],[-105.185,33.041],[-105.182,32.899],[-105.22,32.842],[-105.271,32.844],[-105.242,32.752],[-105.143,32.713],[-105.092,32.647]],[[-105.869,34.239],[-105.792,34.31],[-105.755,34.274],[-105.661,34.256],[-105.693,34.166],[-105.753,34.13],[-105.869,34.239]]]}},{"type":"Feature","properties":{"a":346,"b":429},"geometry":{"type":"MultiLineString","coordinates":[[[-111.013,34.81],[-110.82,34.68],[-110.736,34.684],[-110.691,34.64],[-110.525,34.603],[-110.449,34.483],[-110.073,34.379],[-109.944,34.411],[-109.917,34.388],[-109.805,34.386],[-109.666,34.27],[-109.583,34.282],[-109.49,34.216],[-109.38,34.163],[-109.376,34.12],[-109.324,34.109],[-109.239,34.176],[-109.122,34.16],[-109.05,34.197],[-109.005,34.127],[-108.968,34.116],[-108.882,34.155],[-108.797,34.128],[-108.668,34.164],[-108.629,34.193],[-108.607,34.266],[-108.55,34.234],[-108.485,34.277],[-108.43,34.275],[-108.34,34.199],[-108.3,34.213],[-108.244,34.28],[-108.168,34.268],[-108.114,34.29],[-108.038,34.362],[-107.931,34.373],[-107.813,34.347],[-107.718,34.437],[-107.636,34.448],[-107.587,34.388],[-107.417,34.343],[-107.319,34.367],[-107.272,34.328],[-107.199,34.167],[-107.264,34.173],[-107.297,34.129],[-107.4,34.085],[-107.463,34.079],[-107.486,34.133],[-107.569,34.183],[-107.54,34.202],[-107.576,34.268],[-107.681,34.282],[-107.81,34.184],[-107.776,34.087],[-107.837,34.047],[-107.885,34.071],[-107.973,34.071],[-108.029,34.048],[-108.033,33.999],[-108.116,33.94],[-108.176,33.942],[-108.235,33.879],[-108.311,33.923],[-108.354,33.872],[-108.318,33.853],[-108.378,33.786],[-108.269,33.685],[-108.237,33.759],[-108.204,33.781],[-108.043,33.802],[-107.96,33.847],[-107.915,33.903],[-107.884,33.879],[-107.819,33.889],[-107.768,33.774],[-107.721,33.789],[-107.665,33.767],[-107.643,33.807],[-107.693,33.883],[-107.67,33.929],[-107.58,33.976],[-107.413,33.94],[-107.324,33.842]],[[-107.215,33.872],[-107.29,34.031],[-107.257,34.091],[-107.21,34.082],[-107.176,34.13],[-107.113,34.06],[-107.028,34.002]],[[-106.662,34.274],[-106.581,34.384],[-106.498,34.471],[-106.524,34.628],[-106.478,34.693],[-106.483,34.774],[-106.438,34.863],[-106.471,35.009],[-106.496,35.016],[-106.472,35.151],[-106.515,35.223],[-106.505,35.263],[-106.378,35.317],[-106.28,35.267],[-106.223,35.288],[-106.217,35.364],[-106.14,35.401],[-106.086,35.353],[-106.087,35.278]],[[-109.436,35.861],[-109.392,35.882],[-109.418,35.924],[-109.364,36.0],[-109.333,36.09],[-109.345,36.234],[-109.28,36.306],[-109.232,36.317],[-109.207,36.365],[-109.217,36.43],[-109.335,36.559],[-109.288,36.601],[-109.28,36.875],[-109.157,36.895],[-109.083,36.87],[-109.048,36.816],[-109.068,36.751],[-109.14,36.665],[-109.17,36.687],[-109.21,36.647],[-109.211,36.589],[-109.136,36.565],[-109.081,36.509],[-108.992,36.539],[-108.923,36.532],[-108.888,36.453],[-108.888,36.375],[-108.862,36.342],[-108.864,36.264],[-108.782,36.202],[-108.713,36.121],[-108.663,35.974],[-108.671,35.895],[-108.749,35.869],[-108.764,35.84],[-108.878,35.766],[-108.888,35.727],[-108.943,35.745],[-109.012,35.729],[-109.039,35.781],[-109.069,35.772],[-109.112,35.645],[-109.102,35.557],[-109.17,35.486],[-109.146,35.449],[-109.175,35.414],[-109.336,35.423],[-109.389,35.487],[-109.423,35.571],[-109.395,35.589],[-109.412,35.655],[-109.371,35.742],[-109.436,35.861]],[[-108.651,35.407],[-108.64,35.444],[-108.543,35.469],[-108.361,35.435],[-108.248,35.386],[-108.106,35.353],[-108.056,35.32],[-108.016,35.153],[-107.924,35.039],[-107.941,34.953],[-108.019,34.914],[-108.05,35.001],[-108.124,34.978],[-108.094,34.902],[-108.137,34.9],[-108.146,34.845],[-108.21,34.792],[-108.337,34.751],[-108.296,34.853],[-108.305,34.915],[-108.178,34.959],[-108.152,35.005],[-108.29,35.109],[-108.402,35.146],[-108.46,35.128],[-108.506,35.155],[-108.651,35.407]],[[-107.918,34.768],[-107.868,34.861],[-107.808,34.845],[-107.829,34.91],[-107.758,34.984],[-107.71,34.97],[-107.746,34.924],[-107.724,34.887],[-107.668,34.898],[-107.652,34.837],[-107.765,34.705],[-107.862,34.688],[-107.918,34.768]],[[-107.883,35.2],[-107.767,35.227],[-107.786,35.331],[-107.683,35.31],[-107.632,35.345],[-107.636,35.404],[-107.555,35.471],[-107.51,35.464],[-107.438,35.529],[-107.406,35.588],[-107.34,35.613],[-107.218,35.586],[-107.213,35.523],[-107.15,35.378],[-107.211,35.318],[-107.257,35.21],[-107.378,35.145],[-107.361,35.078],[-107.43,35.05],[-107.498,35.074],[-107.499,35.13],[-107.588,35.105],[-107.652,35.122],[-107.721,35.084],[-107.783,35.128],[-107.803,35.185],[-107.87,35.164],[-107.883,35.2]]]}},{"type":"Feature","properties":{"a":522,"b":547},"geometry":{"type":"MultiLineString","coordinates":[[[-101.584,18.11],[-101.752,18.084],[-101.995,18.174]],[[-99.184,17.231],[-99.252,17.232]]]}},{"type":"Feature","properties":{"a":522,"b":558},"geometry":{"type":"MultiLineString","coordinates":[[[-99.252,17.232],[-99.192,17.289],[-99.245,17.347],[-99.29,17.255],[-99.327,17.28],[-99.284,17.39],[-99.33,17.45],[-99.353,17.415],[-99.407,17.424],[-99.427,17.368],[-99.473,17.341],[-99.437,17.41],[-99.477,17.434],[-99.559,17.54],[-99.574,17.61],[-99.651,17.697],[-99.707,17.666],[-99.727,17.703],[-99.775,17.686],[-99.694,17.758],[-99.737,17.811],[-99.653,17.833],[-99.686,17.899],[-99.752,17.893],[-99.823,17.831],[-99.879,17.831],[-99.923,17.9],[-99.941,17.767],[-99.969,17.818],[-100.012,17.802],[-100.022,17.737],[-99.928,17.634],[-99.979,17.655],[-100.028,17.639],[-100.06,17.677],[-100.064,17.743],[-100.121,17.749],[-100.156,17.554],[-100.19,17.584],[-100.15,17.654],[-100.162,17.768],[-100.211,17.669],[-100.214,17.601],[-100.269,17.652],[-100.246,17.704],[-100.272,17.748],[-100.206,17.801],[-100.25,17.826],[-100.175,17.877],[-100.24,17.919],[-100.273,17.988],[-100.243,17.999],[-100.276,18.062],[-100.361,18.046],[-100.403,17.854],[-100.405,17.728],[-100.444,17.766],[-100.422,17.912],[-100.458,17.974],[-100.486,17.943],[-100.483,17.853],[-100.545,17.79],[-100.521,17.855],[-100.507,17.969],[-100.617,18.044],[-100.635,17.992],[-100.533,17.943],[-100.573,17.828],[-100.66,17.78],[-100.632,17.829],[-100.631,17.908],[-100.723,17.947],[-100.686,17.989],[-100.724,18.049],[-100.728,17.975],[-100.806,17.963],[-100.834,17.987],[-100.811,18.052],[-100.766,18.09],[-100.843,18.146],[-100.873,18.035],[-100.969,17.994],[-101.059,17.993],[-101.069,18.017],[-100.992,18.043],[-100.931,18.134],[-100.991,18.195],[-101.042,18.175],[-101.076,18.231],[-101.138,18.235],[-101.109,18.298],[-101.162,18.369],[-101.23,18.272],[-101.281,18.281],[-101.256,18.235],[-101.322,18.232],[-101.366,18.302],[-101.427,18.346],[-101.393,18.269],[-101.443,18.268],[-101.458,18.36],[-101.49,18.409],[-101.551,18.408],[-101.496,18.358],[-101.546,18.371],[-101.57,18.264],[-101.613,18.162],[-101.563,18.137],[-101.584,18.11]],[[-97.835,17.972],[-97.87,17.942],[-97.819,17.892],[-97.848,17.867],[-97.938,17.984],[-97.959,17.961],[-97.873,17.871],[-97.984,17.907],[-98.128,17.741],[-98.1,17.691],[-98.042,17.678],[-98.0,17.704],[-98.005,17.747],[-97.947,17.75],[-97.947,17.704],[-97.868,17.722],[-97.84,17.79],[-97.739,17.898],[-97.68,17.879],[-97.742,17.804],[-97.721,17.746],[-97.631,17.697],[-97.493,17.717],[-97.469,17.748],[-97.444,17.694],[-97.458,17.639],[-97.526,17.615],[-97.521,17.576],[-97.577,17.609],[-97.627,17.59],[-97.65,17.633],[-97.738,17.63],[-97.779,17.594],[-97.854,17.622],[-97.861,17.662],[-97.945,17.656],[-97.983,17.623],[-97.964,17.536],[-98.066,17.586],[-98.05,17.497],[-98.1,17.459],[-98.124,17.507],[-98.098,17.57],[-98.197,17.617],[-98.146,17.661],[-98.15,17.716],[-98.199,17.716],[-98.208,17.755],[-98.176,17.927],[-98.272,17.907],[-98.357,18.0],[-98.393,17.923],[-98.348,17.887],[-98.32,17.813],[-98.332,17.757],[-98.395,17.863],[-98.497,17.838],[-98.544,17.782],[-98.491,17.703],[-98.487,17.603],[-98.523,17.539],[-98.482,17.478],[-98.502,17.387],[-98.451,17.382],[-98.458,17.341],[-98.524,17.331],[-98.553,17.414],[-98.647,17.418],[-98.686,17.508],[-98.627,17.607],[-98.657,17.643],[-98.543,17.666],[-98.584,17.774],[-98.66,17.745],[-98.694,17.782],[-98.65,17.826],[-98.687,17.85],[-98.712,17.934],[-98.743,17.901],[-98.816,17.916],[-98.876,18.011],[-98.948,17.972],[-98.953,17.934],[-98.862,17.877],[-98.846,17.837],[-98.878,17.793],[-98.934,17.794],[-98.895,17.713],[-98.848,17.687],[-98.93,17.581],[-98.956,17.613],[-98.915,17.675],[-98.924,17.718],[-99.066,17.688],[-98.987,17.814],[-99.04,17.839],[-99.111,17.718],[-99.111,17.799],[-99.16,17.818],[-99.188,17.784],[-99.179,17.717],[-99.126,17.616],[-99.167,17.599],[-99.242,17.758],[-99.213,17.845],[-99.301,17.785],[-99.274,17.722],[-99.302,17.657],[-99.336,17.67],[-99.38,17.559],[-99.357,17.49],[-99.337,17.518],[-99.29,17.495],[-99.233,17.521],[-99.204,17.464],[-99.146,17.453],[-99.146,17.408],[-99.074,17.378],[-99.138,17.232],[-99.15,17.283],[-99.184,17.231]],[[-97.658,18.118],[-97.737,18.089],[-97.775,17.976],[-97.803,17.99]],[[-97.019,17.419],[-97.09,17.467],[-97.123,17.528],[-97.025,17.548],[-97.036,17.665],[-97.089,17.764],[-97.041,17.773],[-97.061,17.815],[-97.136,17.812],[-97.122,17.853],[-97.161,17.878],[-97.181,17.958],[-97.267,17.996],[-97.253,18.041],[-97.341,18.062],[-97.38,17.99],[-97.436,18.041],[-97.454,18.004],[-97.51,18.109]],[[-100.554,17.453],[-100.514,17.526],[-100.371,17.534],[-100.368,17.493],[-100.438,17.503],[-100.492,17.473],[-100.505,17.423],[-100.554,17.453]],[[-99.529,17.722],[-99.488,17.733],[-99.455,17.645],[-99.399,17.661],[-99.377,17.724],[-99.308,17.828],[-99.392,17.875],[-99.502,17.877],[-99.438,17.813],[-99.529,17.722]],[[-99.516,17.561],[-99.448,17.486],[-99.413,17.486],[-99.426,17.564],[-99.383,17.636],[-99.511,17.605],[-99.516,17.561]],[[-99.368,18.077],[-99.347,18.008],[-99.286,18.056],[-99.325,18.151],[-99.368,18.077]],[[-99.016,18.236],[-99.014,18.108],[-98.965,18.131],[-98.909,18.076],[-98.899,18.031],[-98.849,18.047],[-98.761,18.136],[-98.836,17.999],[-98.777,17.987],[-98.697,18.095],[-98.652,18.081],[-98.678,17.968],[-98.597,17.869],[-98.48,17.991],[-98.474,18.054],[-98.569,17.991],[-98.511,18.101],[-98.577,18.138],[-98.574,18.085],[-98.633,18.113],[-98.603,18.165],[-98.668,18.193],[-98.744,18.156],[-98.754,18.208],[-98.865,18.16],[-98.932,18.15],[-99.016,18.236]],[[-98.641,18.399],[-98.585,18.389],[-98.494,18.259],[-98.465,18.293],[-98.489,18.348],[-98.544,18.389],[-98.573,18.451],[-98.641,18.399]],[[-98.551,18.183],[-98.503,18.124],[-98.42,18.128],[-98.444,18.161],[-98.515,18.17],[-98.523,18.249],[-98.551,18.183]],[[-98.42,18.228],[-98.343,18.236],[-98.326,18.277],[-98.374,18.322],[-98.42,18.228]],[[-97.481,17.197],[-97.452,17.217],[-97.39,17.06],[-97.361,17.111],[-97.355,17.206],[-97.313,17.253],[-97.382,17.326],[-97.337,17.382],[-97.368,17.563],[-97.308,17.539],[-97.24,17.549],[-97.156,17.524],[-97.139,17.482],[-97.162,17.399],[-97.233,17.364],[-97.231,17.24],[-97.167,17.171],[-97.227,17.134],[-97.244,17.029],[-97.327,17.069],[-97.39,17.017],[-97.438,17.052],[-97.434,17.115],[-97.481,17.197]],[[-97.395,17.725],[-97.356,17.776],[-97.287,17.724],[-97.296,17.656],[-97.332,17.625],[-97.395,17.725]]]}},{"type":"Feature","properties":{"a":522,"b":557},"geometry":{"type":"LineString","coordinates":[[-97.33,18.504],[-97.279,18.496],[-97.264,18.442],[-97.144,18.378],[-97.112,18.251],[-97.069,18.25],[-97.051,18.165],[-96.945,17.989],[-96.879,18.012],[-96.944,17.88],[-96.881,17.722],[-96.813,17.664],[-96.821,17.593],[-96.801,17.52],[-96.818,17.487],[-96.809,17.393],[-96.873,17.447],[-96.906,17.533],[-96.946,17.564],[-96.994,17.667],[-96.985,17.568],[-97.015,17.484],[-96.975,17.458],[-97.019,17.419]]}},{"type":"Feature","properties":{"a":522,"b":610},"geometry":{"type":"MultiLineString","coordinates":[[[-98.029,18.345],[-97.997,18.333],[-97.967,18.434],[-97.921,18.436],[-97.941,18.38],[-97.887,18.395],[-97.792,18.297],[-97.799,18.209],[-97.693,18.156],[-97.658,18.118]],[[-97.987,18.78],[-97.952,18.746],[-97.957,18.808],[-97.925,18.806],[-97.919,18.749],[-97.858,18.647],[-97.86,18.576],[-97.925,18.562],[-98.028,18.487]],[[-97.803,17.99],[-97.846,18.05],[-97.812,18.08],[-97.844,18.119],[-97.935,18.118],[-97.915,17.991],[-97.835,17.972]],[[-97.51,18.109],[-97.505,18.146],[-97.383,18.197],[-97.357,18.159],[-97.275,18.165],[-97.236,18.197],[-97.158,18.153],[-97.153,18.304],[-97.209,18.33],[-97.347,18.479],[-97.33,18.504]]]}},{"type":"Feature","properties":{"a":348,"b":354},"geometry":{"type":"LineString","coordinates":[[-121.099,43.882],[-121.138,43.909],[-121.15,43.993],[-121.123,44.026],[-121.221,44.051],[-121.258,44.037],[-121.321,44.083],[-121.451,44.149],[-121.54,44.299],[-121.474,44.333],[-121.444,44.386],[-121.457,44.447],[-121.421,44.483],[-121.429,44.59],[-121.46,44.625],[-121.37,44.653],[-121.437,44.786],[-121.45,44.906],[-121.361,44.959],[-121.423,44.989],[-121.377,45.028],[-121.392,45.08],[-121.3,45.042]]}},{"type":"Feature","properties":{"a":348,"b":398},"geometry":{"type":"MultiLineString","coordinates":[[[-121.3,45.042],[-121.147,45.043],[-121.218,45.009],[-121.1,45.025],[-121.133,44.991],[-121.062,44.967],[-120.979,44.914],[-120.987,44.882],[-121.058,44.842],[-121.056,44.806],[-120.963,44.801],[-120.927,44.866],[-120.835,44.884],[-120.787,44.925],[-120.632,44.966],[-120.618,44.944],[-120.549,44.969],[-120.508,45.087],[-120.468,45.047],[-120.437,44.965],[-120.389,44.993],[-120.392,45.049],[-120.287,45.033],[-120.18,45.041],[-120.078,45.023],[-119.945,45.056],[-119.853,45.054],[-119.524,45.132],[-119.383,45.238],[-119.306,45.258],[-119.155,45.263],[-119.11,45.224],[-118.945,45.293],[-118.923,45.329],[-118.742,45.365],[-118.714,45.337],[-118.614,45.372],[-118.609,45.413],[-118.548,45.431],[-118.497,45.416],[-118.504,45.483],[-118.58,45.487],[-118.562,45.556],[-118.621,45.561],[-118.558,45.62],[-118.429,45.647],[-118.396,45.69],[-118.392,45.752],[-118.35,45.811],[-118.272,45.837],[-118.155,45.827],[-118.162,45.91],[-118.141,46.004],[-118.152,46.081],[-117.981,46.152],[-117.961,46.21],[-117.921,46.198],[-117.889,46.234],[-117.82,46.236],[-117.838,46.275],[-117.769,46.276],[-117.794,46.31],[-117.674,46.325],[-117.61,46.273],[-117.616,46.343],[-117.573,46.315],[-117.54,46.357],[-117.491,46.275],[-117.418,46.286],[-117.398,46.244],[-117.43,46.213],[-117.346,46.202],[-117.298,46.161],[-117.254,46.173],[-117.109,46.084],[-117.04,46.078],[-116.942,46.19],[-116.903,46.176],[-116.806,46.202],[-116.812,46.221],[-116.731,46.267]],[[-116.688,46.217],[-116.66,46.212],[-116.602,46.085],[-116.54,46.012],[-116.449,46.02],[-116.419,45.954],[-116.352,45.996],[-116.356,45.948],[-116.236,45.84]]]}},{"type":"Feature","properties":{"a":348,"b":361},"geometry":{"type":"LineString","coordinates":[[-116.731,46.267],[-116.688,46.217]]}},{"type":"Feature","properties":{"a":352,"b":357},"geometry":{"type":"MultiLineString","coordinates":[[[-122.371,42.089],[-122.44,42.08],[-122.506,42.097],[-122.515,42.163],[-122.565,42.253],[-122.624,42.243],[-122.597,42.308],[-122.469,42.324],[-122.411,42.314],[-122.538,42.462],[-122.586,42.494],[-122.637,42.578],[-122.616,42.605],[-122.665,42.644],[-122.528,42.73],[-122.628,42.761],[-122.712,42.75],[-122.756,42.696],[-122.834,42.73],[-122.856,42.664],[-122.95,42.69],[-122.93,42.777],[-122.974,42.808],[-122.909,42.91],[-122.966,42.911],[-122.972,42.994],[-123.039,42.97],[-123.027,43.079],[-123.085,43.1],[-123.065,43.138],[-123.114,43.153],[-123.12,43.21],[-123.02,43.271],[-123.059,43.305],[-123.133,43.468],[-123.237,43.536],[-123.232,43.587],[-123.171,43.616]],[[-122.002,40.732],[-121.928,40.768],[-121.899,40.819],[-121.916,40.877],[-121.968,40.902],[-121.964,40.983],[-121.86,40.998],[-121.86,41.052],[-121.898,41.048],[-121.886,41.112],[-121.796,41.127],[-121.795,41.159],[-121.881,41.177],[-121.973,41.175],[-122.118,41.199],[-122.164,41.254],[-122.257,41.254],[-122.339,41.301],[-122.418,41.369]]]}},{"type":"Feature","properties":{"a":352,"b":354},"geometry":{"type":"MultiLineString","coordinates":[[[-122.418,41.369],[-122.42,41.448],[-122.322,41.475],[-122.303,41.522],[-122.196,41.568],[-122.332,41.638],[-122.341,41.734],[-122.276,41.753],[-122.321,41.845],[-122.321,41.934],[-122.261,41.959],[-122.189,41.949],[-122.133,41.851],[-122.088,41.83],[-122.076,41.757],[-121.992,41.732],[-121.952,41.67],[-121.987,41.621],[-121.935,41.55],[-121.813,41.654],[-121.767,41.72],[-121.752,41.679],[-121.666,41.703],[-121.607,41.675],[-121.546,41.686],[-121.48,41.668],[-121.438,41.626],[-121.413,41.545],[-121.42,41.467],[-121.465,41.42],[-121.453,41.366],[-121.35,41.333],[-121.29,41.25],[-121.231,41.242],[-121.199,41.151],[-121.215,41.123],[-121.164,41.054],[-121.247,41.006],[-121.271,41.088],[-121.312,41.114],[-121.516,41.106],[-121.582,41.128],[-121.519,41.037],[-121.459,41.004],[-121.373,41.007],[-121.328,40.909],[-121.18,40.878],[-121.073,40.832],[-120.944,40.845],[-120.9,40.883],[-120.851,40.83],[-120.786,40.71],[-120.837,40.652],[-120.838,40.568],[-120.762,40.56],[-120.717,40.618],[-120.71,40.572],[-120.566,40.488],[-120.667,40.443],[-120.674,40.426]],[[-121.167,47.216],[-121.124,47.143],[-121.097,47.156],[-121.044,47.093],[-121.075,47.046],[-121.253,47.091],[-121.289,47.028],[-121.181,46.991],[-121.282,46.982],[-121.361,46.946],[-121.373,46.914],[-121.259,46.938],[-121.329,46.864],[-121.249,46.858],[-121.229,46.806],[-121.191,46.831],[-121.205,46.772],[-121.294,46.701],[-121.34,46.597],[-121.264,46.561],[-121.312,46.442],[-121.272,46.377],[-121.34,46.382],[-121.417,46.312],[-121.363,46.202],[-121.413,46.11],[-121.5,46.117],[-121.651,46.092],[-121.644,46.017],[-121.663,45.944],[-121.73,45.899],[-121.759,45.83],[-121.645,45.712],[-121.584,45.706],[-121.643,45.64],[-121.576,45.625],[-121.573,45.568],[-121.639,45.593],[-121.671,45.569],[-121.63,45.502],[-121.642,45.455],[-121.546,45.445],[-121.5,45.475],[-121.462,45.408],[-121.5,45.384],[-121.46,45.317],[-121.509,45.214],[-121.6,45.177],[-121.532,45.146],[-121.58,45.055],[-121.657,45.017],[-121.686,44.979],[-121.651,44.789],[-121.659,44.728],[-121.694,44.702],[-121.648,44.668],[-121.681,44.623],[-121.705,44.645],[-121.754,44.611],[-121.695,44.606],[-121.688,44.574],[-121.738,44.525],[-121.764,44.313],[-121.714,44.26],[-121.746,44.228],[-121.684,44.148],[-121.537,44.101],[-121.577,44.029],[-121.553,44.009],[-121.62,43.971],[-121.677,43.886],[-121.764,43.898],[-121.785,43.836],[-121.882,43.804],[-121.859,43.756],[-121.89,43.68],[-121.91,43.571],[-121.951,43.546],[-121.943,43.445],[-121.981,43.345],[-121.933,43.362],[-121.882,43.323],[-121.976,43.306],[-121.933,43.28],[-121.982,43.246],[-121.951,43.195],[-121.991,43.103],[-121.891,42.93],[-121.961,42.852],[-122.105,42.807],[-122.126,42.734],[-122.085,42.722],[-122.084,42.516],[-122.098,42.411],[-122.025,42.349],[-122.044,42.241],[-122.223,42.332],[-122.354,42.265],[-122.322,42.167],[-122.371,42.089]],[[-121.661,44.413],[-121.614,44.415],[-121.616,44.386],[-121.661,44.413]],[[-121.301,43.685],[-121.294,43.756],[-121.199,43.767],[-121.166,43.712],[-121.253,43.671],[-121.301,43.685]]]}},{"type":"Feature","properties":{"a":352,"b":403},"geometry":{"type":"LineString","coordinates":[[-123.171,43.616],[-123.124,43.606],[-123.041,43.707],[-123.041,43.772],[-122.958,43.693],[-122.956,43.774],[-122.899,43.743],[-122.888,43.79],[-122.985,43.822],[-123.002,43.869],[-122.89,43.92],[-122.835,43.86],[-122.764,43.833],[-122.785,43.889],[-122.658,43.912],[-122.763,44.011],[-122.859,44.007],[-122.859,44.027],[-122.71,44.079],[-122.73,44.101],[-122.819,44.094],[-122.794,44.118],[-122.849,44.151],[-122.784,44.169],[-122.826,44.218],[-122.92,44.187],[-122.956,44.121],[-123.006,44.125],[-123.019,44.177],[-122.918,44.3],[-122.869,44.315],[-122.813,44.293],[-122.724,44.328],[-122.714,44.364],[-122.651,44.381],[-122.704,44.453],[-122.727,44.552],[-122.692,44.591],[-122.702,44.672],[-122.611,44.713],[-122.58,44.757],[-122.473,44.74],[-122.582,44.802],[-122.668,44.815],[-122.716,44.851],[-122.694,44.915],[-122.703,45.007],[-122.595,45.046],[-122.559,45.083],[-122.494,45.087],[-122.475,45.132],[-122.375,45.178],[-122.348,45.283],[-122.266,45.315],[-122.293,45.362],[-122.256,45.449],[-122.31,45.539],[-122.2,45.564],[-122.192,45.622],[-122.354,45.635],[-122.455,45.698],[-122.44,45.766],[-122.516,45.861],[-122.516,45.912],[-122.561,45.907],[-122.6,45.954],[-122.747,45.939],[-122.768,45.952]]}},{"type":"Feature","properties":{"a":387,"b":337},"geometry":{"type":"LineString","coordinates":[[-89.097,36.953],[-89.15,36.998],[-89.174,37.059],[-89.114,37.13],[-89.25,37.114],[-89.335,37.187],[-89.444,37.164],[-89.615,37.051],[-89.705,37.118],[-89.643,37.206],[-89.49,37.251],[-89.556,37.3],[-89.582,37.256],[-89.663,37.254]]}},{"type":"Feature","properties":{"a":387,"b":399},"geometry":{"type":"LineString","coordinates":[[-88.334,37.018],[-88.433,37.011],[-88.546,37.044],[-88.519,36.978],[-88.447,36.949],[-88.557,36.932],[-88.631,37.023],[-88.616,37.047],[-88.662,37.106],[-88.742,37.094],[-88.744,37.131],[-88.802,37.16],[-88.943,37.2],[-88.98,37.198],[-89.06,37.094],[-89.097,36.953]]}},{"type":"Feature","properties":{"a":387,"b":340},"geometry":{"type":"LineString","coordinates":[[-89.663,37.254],[-89.761,37.293],[-89.751,37.317],[-89.844,37.414],[-89.82,37.417],[-89.852,37.531],[-89.921,37.564],[-89.982,37.627],[-89.925,37.704],[-89.982,37.8],[-90.035,37.85],[-90.115,37.865],[-90.159,37.947],[-90.193,37.961],[-90.323,38.097],[-90.317,38.135],[-90.375,38.157],[-90.375,38.33],[-90.304,38.461],[-90.343,38.509],[-90.383,38.494],[-90.423,38.59],[-90.47,38.63],[-90.524,38.62],[-90.614,38.569],[-90.677,38.582],[-90.76,38.52],[-90.858,38.473],[-90.884,38.484],[-91.05,38.462],[-91.136,38.524],[-91.231,38.508],[-91.343,38.575],[-91.396,38.636],[-91.473,38.617],[-91.57,38.643],[-91.708,38.619],[-91.796,38.582],[-91.902,38.582],[-91.974,38.531],[-92.098,38.493],[-92.187,38.483],[-92.329,38.428],[-92.363,38.451],[-92.412,38.404],[-92.486,38.427],[-92.536,38.404],[-92.614,38.437],[-92.531,38.47],[-92.505,38.524],[-92.581,38.532],[-92.575,38.577],[-92.703,38.58],[-92.713,38.616],[-92.629,38.658],[-92.669,38.716],[-92.735,38.705],[-92.793,38.725],[-92.735,38.764],[-92.553,38.782],[-92.54,38.815],[-92.59,38.854],[-92.638,38.853],[-92.666,38.808],[-92.711,38.885],[-92.766,38.877],[-92.776,38.815],[-92.811,38.812],[-92.85,38.866],[-92.851,38.799],[-92.929,38.864],[-92.978,38.81],[-92.946,38.76],[-92.988,38.705],[-93.032,38.692]]}},{"type":"Feature","properties":{"a":387,"b":388},"geometry":{"type":"LineString","coordinates":[[-93.032,38.692],[-93.069,38.734],[-93.14,38.739],[-93.15,38.775],[-93.206,38.745],[-93.288,38.771],[-93.242,38.833],[-93.153,38.824],[-93.091,38.87],[-93.248,38.885],[-93.163,38.964],[-93.265,38.928],[-93.238,39.029],[-93.107,39.019],[-93.012,38.994],[-92.997,39.079],[-92.965,39.124],[-92.894,39.155],[-92.835,39.154],[-92.737,39.192],[-92.692,39.254],[-92.598,39.306],[-92.453,39.276],[-92.444,39.241],[-92.473,39.153],[-92.47,39.087],[-92.424,39.042],[-92.387,39.047],[-92.331,38.978],[-92.263,38.965],[-92.308,38.92],[-92.257,38.841],[-92.299,38.815],[-92.264,38.755],[-92.153,38.821],[-92.167,38.873],[-92.098,38.879],[-92.066,38.8],[-92.037,38.864],[-91.973,38.835],[-92.002,38.888],[-91.983,38.934],[-91.895,38.945],[-91.94,39.002],[-91.822,38.974],[-91.812,38.933],[-91.739,38.884],[-91.644,38.919],[-91.722,38.963],[-91.769,38.963],[-91.735,39.001],[-91.776,39.014],[-91.742,39.055],[-91.779,39.072],[-91.716,39.097],[-91.566,39.068],[-91.598,38.989],[-91.494,38.932],[-91.537,38.928],[-91.507,38.885],[-91.39,38.877],[-91.33,38.846],[-91.205,38.824],[-91.155,38.792],[-91.039,38.776],[-91.031,38.716],[-90.952,38.673],[-90.953,38.733],[-90.893,38.748],[-90.982,38.812],[-90.933,38.826],[-91.055,38.837],[-91.09,38.86],[-91.144,38.825],[-91.198,38.858],[-91.062,38.954],[-90.955,38.903],[-90.912,38.928],[-90.929,38.98],[-91.041,38.995],[-91.2,38.962],[-91.242,38.891],[-91.274,38.919],[-91.241,38.997],[-91.317,38.967],[-91.278,39.039],[-91.429,39.04],[-91.365,39.084],[-91.379,39.109],[-91.475,39.093],[-91.522,39.119],[-91.448,39.131],[-91.49,39.173],[-91.399,39.176],[-91.314,39.114],[-91.17,39.045],[-91.244,39.159],[-91.319,39.164],[-91.371,39.195],[-91.357,39.233],[-91.409,39.269],[-91.373,39.304],[-91.295,39.253],[-91.262,39.276],[-91.21,39.225],[-91.185,39.291],[-91.075,39.262],[-91.104,39.31],[-91.208,39.352],[-91.271,39.355],[-91.296,39.404],[-91.366,39.437],[-91.358,39.383],[-91.418,39.359],[-91.516,39.427],[-91.563,39.41],[-91.543,39.485],[-91.498,39.491],[-91.439,39.539],[-91.369,39.542],[-91.394,39.581],[-91.596,39.518],[-91.663,39.447],[-91.652,39.38],[-91.699,39.367],[-91.708,39.456],[-91.778,39.457],[-91.77,39.278],[-91.805,39.321],[-91.908,39.324],[-91.855,39.353],[-91.849,39.395],[-91.891,39.44],[-91.971,39.41],[-91.98,39.504],[-91.936,39.567],[-92.007,39.587],[-91.952,39.657],[-91.884,39.661],[-91.878,39.592],[-91.836,39.547],[-91.786,39.544],[-91.804,39.624],[-91.752,39.603],[-91.558,39.637],[-91.494,39.676],[-91.503,39.734],[-91.435,39.708],[-91.469,39.758],[-91.574,39.728],[-91.567,39.678],[-91.624,39.721],[-91.658,39.685],[-91.696,39.72],[-91.859,39.69],[-91.842,39.755],[-91.751,39.775],[-91.85,39.78],[-91.986,39.827],[-91.947,39.861],[-91.989,39.932],[-91.878,39.915],[-91.842,39.879],[-91.743,39.876],[-91.679,39.836],[-91.624,39.847],[-91.61,39.905],[-91.56,39.892],[-91.525,39.934],[-91.614,39.95],[-91.603,39.985],[-91.524,39.949],[-91.554,39.994],[-91.508,40.021],[-91.528,40.152],[-91.522,40.215],[-91.572,40.293],[-91.585,40.365],[-91.572,40.461],[-91.609,40.5],[-91.559,40.51],[-91.525,40.411],[-91.43,40.383],[-91.373,40.403],[-91.381,40.526],[-91.436,40.515],[-91.473,40.548],[-91.449,40.606],[-91.355,40.635],[-91.302,40.629],[-91.253,40.67],[-91.251,40.709],[-91.186,40.76],[-91.099,40.764],[-91.106,40.844],[-91.058,40.897],[-91.03,40.999],[-91.08,41.097],[-91.203,41.13],[-91.288,41.187],[-91.296,41.251],[-91.346,41.272],[-91.433,41.36],[-91.445,41.4],[-91.52,41.465],[-91.589,41.604],[-91.511,41.577],[-91.538,41.624],[-91.46,41.641],[-91.453,41.536],[-91.395,41.522],[-91.354,41.464],[-91.264,41.557],[-91.078,41.588],[-91.104,41.522],[-91.202,41.447],[-91.171,41.427],[-91.221,41.352],[-91.188,41.278],[-91.138,41.238],[-91.183,41.362],[-91.139,41.41],[-91.048,41.412],[-90.975,41.434],[-90.932,41.422],[-90.847,41.455],[-90.659,41.462],[-90.601,41.51],[-90.456,41.527],[-90.426,41.565],[-90.34,41.601],[-90.343,41.647],[-90.305,41.756],[-90.196,41.806],[-90.155,41.926],[-90.144,42.012],[-90.166,42.087]]}},{"type":"Feature","properties":{"a":387,"b":343},"geometry":{"type":"MultiLineString","coordinates":[[[-90.166,42.087],[-90.066,42.101],[-90.013,42.194],[-89.921,42.286],[-89.947,42.327],[-90.019,42.36],[-90.015,42.398],[-89.951,42.428],[-89.888,42.494],[-89.825,42.503],[-89.804,42.575],[-89.678,42.599],[-89.624,42.653],[-89.611,42.723],[-89.544,42.825],[-89.541,42.936],[-89.601,43.074],[-89.585,43.094],[-89.595,43.244],[-89.536,43.32],[-89.605,43.363],[-89.69,43.38],[-89.497,43.482],[-89.538,43.512],[-89.621,43.509],[-89.546,43.56],[-89.493,43.642],[-89.365,43.678],[-89.233,43.735],[-89.106,43.747],[-89.124,43.892],[-89.175,43.98],[-89.112,44.005],[-89.077,44.074],[-89.003,44.105],[-88.879,44.204],[-88.861,44.265],[-88.801,44.278],[-88.731,44.234],[-88.638,44.245],[-88.48,44.311],[-88.39,44.362],[-88.307,44.384],[-88.175,44.52],[-88.034,44.569]],[[-87.697,44.752],[-87.634,44.661],[-87.539,44.596],[-87.46,44.563]]]}},{"type":"Feature","properties":{"a":351,"b":357},"geometry":{"type":"LineString","coordinates":[[-123.368,43.71],[-123.395,43.719],[-123.448,43.663],[-123.397,43.652],[-123.41,43.608],[-123.365,43.588],[-123.385,43.535],[-123.445,43.496],[-123.465,43.391],[-123.526,43.377],[-123.549,43.327],[-123.526,43.284],[-123.588,43.178],[-123.67,43.146],[-123.665,43.109],[-123.736,43.073],[-123.76,42.995],[-123.719,42.927],[-123.648,42.887],[-123.716,42.792],[-123.788,42.812],[-123.901,42.784],[-123.943,42.729],[-124.113,42.655],[-124.133,42.586],[-124.228,42.544],[-124.191,42.496],[-124.228,42.446],[-124.296,42.484],[-124.331,42.409],[-124.304,42.326],[-124.346,42.295],[-124.255,42.285],[-124.279,42.254],[-124.369,42.252],[-124.353,42.207]]}},{"type":"Feature","properties":{"a":351,"b":403},"geometry":{"type":"LineString","coordinates":[[-122.845,45.995],[-122.879,46.004],[-122.879,45.935],[-122.825,45.882],[-122.899,45.836],[-122.905,45.772],[-122.877,45.664],[-122.703,45.521],[-122.689,45.488],[-122.826,45.597],[-122.88,45.618],[-122.934,45.679],[-123.017,45.682],[-123.054,45.72],[-123.164,45.734],[-123.31,45.665],[-123.268,45.576],[-123.322,45.409],[-123.398,45.368],[-123.345,45.336],[-123.37,45.302],[-123.351,45.222],[-123.519,45.185],[-123.581,45.113],[-123.681,45.08],[-123.637,45.031],[-123.522,45.028],[-123.439,44.991],[-123.415,44.956],[-123.457,44.857],[-123.43,44.803],[-123.459,44.765],[-123.478,44.674],[-123.464,44.609],[-123.499,44.595],[-123.494,44.54],[-123.425,44.417],[-123.436,44.316],[-123.404,44.194],[-123.547,44.073],[-123.548,44.044],[-123.484,44.056],[-123.329,43.937],[-123.288,43.872],[-123.391,43.886],[-123.405,43.785],[-123.355,43.741],[-123.368,43.71]]}},{"type":"Feature","properties":{"a":388,"b":341},"geometry":{"type":"LineString","coordinates":[[-95.238,35.995],[-95.277,35.955],[-95.248,35.869],[-95.297,35.835],[-95.2,35.804],[-95.201,35.76],[-95.278,35.732],[-95.287,35.645],[-95.248,35.688],[-95.159,35.708],[-95.141,35.674],[-95.209,35.595],[-95.263,35.581],[-95.186,35.54],[-95.157,35.551],[-95.171,35.464],[-95.225,35.353],[-95.296,35.318]]}},{"type":"Feature","properties":{"a":388,"b":340},"geometry":{"type":"LineString","coordinates":[[-93.032,38.692],[-93.032,38.664],[-93.125,38.658],[-93.197,38.681],[-93.267,38.67],[-93.294,38.632],[-93.15,38.587],[-93.152,38.5],[-93.094,38.531],[-93.096,38.481],[-93.221,38.429],[-93.298,38.431],[-93.313,38.387],[-93.272,38.365],[-93.339,38.298],[-93.376,38.325],[-93.364,38.407],[-93.406,38.37],[-93.462,38.374],[-93.534,38.345],[-93.516,38.296],[-93.614,38.303],[-93.62,38.24],[-93.591,38.219],[-93.672,38.174],[-93.654,38.109],[-93.7,38.07],[-93.731,38.12],[-93.792,38.111],[-93.735,38.066],[-93.775,38.053],[-93.841,38.123],[-93.939,38.062],[-93.831,37.96],[-93.76,37.999],[-93.894,37.856],[-93.958,37.826],[-93.909,37.785],[-94.051,37.716],[-94.033,37.663],[-93.987,37.71],[-93.931,37.714],[-93.955,37.659],[-93.926,37.632],[-94.002,37.585],[-93.995,37.436],[-94.06,37.419],[-94.144,37.467],[-94.174,37.431],[-94.138,37.403],[-94.247,37.352],[-94.359,37.348],[-94.395,37.309],[-94.543,37.315],[-94.582,37.261],[-94.621,37.152],[-94.679,37.15],[-94.728,37.074],[-94.733,37.001],[-94.815,36.783],[-94.822,36.727],[-94.871,36.68],[-95.009,36.591],[-95.128,36.582],[-95.142,36.493],[-95.179,36.441],[-95.159,36.374],[-95.196,36.323],[-95.215,36.245],[-95.273,36.151],[-95.257,36.079],[-95.298,36.024],[-95.238,35.995]]}},{"type":"Feature","properties":{"a":388,"b":343},"geometry":{"type":"LineString","coordinates":[[-95.58,45.38],[-95.336,45.269],[-95.003,45.166],[-94.904,45.121],[-94.814,45.135],[-94.673,45.182],[-94.555,45.135],[-94.515,45.076],[-94.507,44.959],[-94.422,44.932],[-94.218,44.935],[-94.141,44.916],[-94.058,44.856],[-94.025,44.81],[-94.008,44.705],[-94.014,44.628],[-94.057,44.518],[-94.047,44.477],[-93.974,44.423],[-94.031,44.301],[-94.002,44.247],[-93.908,44.178],[-93.762,44.109],[-93.554,44.139],[-93.457,44.168],[-93.404,44.228],[-93.331,44.267],[-93.23,44.272],[-93.206,44.353],[-93.157,44.418],[-93.195,44.548],[-93.23,44.6],[-93.232,44.696],[-93.2,44.731],[-92.938,44.812],[-92.873,44.915],[-92.733,45.003],[-92.662,45.021],[-92.563,45.107],[-92.451,45.08],[-92.323,45.074],[-92.233,45.04],[-92.225,44.98],[-92.145,44.845],[-92.196,44.765],[-92.421,44.73],[-92.581,44.765],[-92.777,44.732],[-92.746,44.652],[-92.774,44.608],[-92.998,44.476],[-92.975,44.28],[-92.868,44.26],[-92.819,44.159],[-92.71,44.095],[-92.757,44.054],[-92.688,44.025],[-92.751,43.96],[-92.658,43.892],[-92.597,43.824],[-92.575,43.716],[-92.498,43.67],[-92.411,43.595],[-92.242,43.542],[-92.241,43.499],[-92.064,43.435],[-91.941,43.375],[-91.921,43.295],[-91.993,43.238],[-91.961,43.154],[-91.876,43.045],[-91.903,42.998],[-91.821,42.972],[-91.789,42.917],[-91.809,42.835],[-91.619,42.752],[-91.531,42.69],[-91.408,42.658],[-91.33,42.582],[-91.242,42.598],[-91.146,42.577],[-91.022,42.571],[-90.984,42.532],[-91.003,42.48],[-90.947,42.437],[-90.834,42.427],[-90.802,42.38],[-90.714,42.396],[-90.694,42.324],[-90.601,42.301],[-90.461,42.178],[-90.362,42.121],[-90.166,42.087]]}},{"type":"Feature","properties":{"a":429,"b":402},"geometry":{"type":"MultiLineString","coordinates":[[[-106.662,34.274],[-106.669,34.27]],[[-105.853,35.504],[-105.884,35.461],[-105.858,35.39],[-105.895,35.335],[-105.906,35.248],[-106.019,35.291],[-106.087,35.278]]]}},{"type":"Feature","properties":{"a":429,"b":353},"geometry":{"type":"MultiLineString","coordinates":[[[-107.69,40.203],[-107.735,40.172],[-107.742,40.116],[-107.671,40.037],[-107.681,39.986],[-107.846,39.944],[-107.901,39.917],[-107.924,39.864],[-107.891,39.725],[-107.81,39.685],[-107.696,39.685],[-107.651,39.665],[-107.564,39.669],[-107.526,39.62],[-107.413,39.581],[-107.413,39.544],[-107.582,39.428],[-107.612,39.358],[-107.719,39.363],[-107.726,39.431],[-107.814,39.49],[-107.974,39.454],[-108.07,39.334],[-108.114,39.253],[-108.054,39.259],[-107.95,39.316],[-107.877,39.311],[-107.782,39.27],[-107.882,39.224],[-107.905,39.19],[-107.967,39.184],[-108.154,39.101],[-108.241,39.116],[-108.286,39.057],[-108.231,38.988],[-108.187,38.968],[-108.228,38.934],[-108.2,38.875],[-108.123,38.875],[-108.044,38.948],[-107.936,38.973],[-107.754,38.887],[-107.693,38.883],[-107.543,38.927],[-107.546,38.884],[-107.504,38.864],[-107.58,38.772],[-107.538,38.729],[-107.568,38.616],[-107.546,38.575],[-107.571,38.512],[-107.432,38.39],[-107.463,38.356],[-107.55,38.349],[-107.581,38.417],[-107.67,38.422],[-107.7,38.403],[-107.722,38.283],[-107.659,38.207],[-107.675,38.155],[-107.718,38.151],[-107.697,38.096],[-107.773,38.148],[-107.799,38.108],[-107.845,38.117],[-107.91,38.171],[-107.809,38.194],[-107.874,38.259],[-108.026,38.333],[-108.095,38.405],[-108.17,38.396],[-108.18,38.433],[-108.316,38.552],[-108.379,38.535],[-108.426,38.565],[-108.474,38.554],[-108.491,38.602],[-108.589,38.605],[-108.616,38.648],[-108.586,38.755],[-108.639,38.776],[-108.771,38.75],[-108.854,38.776],[-108.879,38.724],[-108.84,38.722],[-108.779,38.667],[-108.842,38.661],[-108.833,38.623],[-108.75,38.588],[-108.744,38.555],[-108.634,38.461],[-108.504,38.41],[-108.511,38.372],[-108.315,38.287],[-108.167,38.201],[-108.238,38.158],[-108.183,38.112],[-108.212,38.034],[-108.181,37.931],[-108.244,37.968],[-108.346,37.924],[-108.39,37.976],[-108.471,37.957],[-108.535,37.99],[-108.51,37.933],[-108.39,37.863],[-108.473,37.835],[-108.528,37.771],[-108.631,37.815],[-108.687,37.862],[-108.775,37.89],[-108.765,37.797],[-108.693,37.712],[-108.698,37.647],[-108.585,37.582],[-108.472,37.589],[-108.485,37.548],[-108.454,37.496],[-108.508,37.47],[-108.407,37.438],[-108.403,37.404],[-108.226,37.394],[-108.159,37.32],[-108.078,37.311],[-108.024,37.279],[-107.998,37.185],[-108.011,37.155],[-107.906,37.207],[-107.895,37.286],[-107.841,37.325],[-107.78,37.264],[-107.732,37.25],[-107.596,37.29],[-107.585,37.237],[-107.504,37.24],[-107.55,37.146],[-107.525,37.066],[-107.442,37.04],[-107.375,36.942],[-107.285,36.929],[-107.268,36.855],[-107.33,36.818],[-107.314,36.707],[-107.333,36.7],[-107.366,36.587],[-107.242,36.591],[-107.329,36.519],[-107.328,36.485],[-107.224,36.5],[-107.323,36.404],[-107.309,36.372],[-107.125,36.323],[-107.163,36.28],[-107.217,36.281],[-107.23,36.246],[-107.175,36.211],[-107.204,36.188],[-107.112,36.174],[-107.028,36.066],[-107.015,35.988],[-106.945,36.045],[-106.915,35.975],[-106.919,35.855],[-106.96,35.843],[-106.899,35.76],[-106.921,35.697],[-106.89,35.669],[-106.854,35.567],[-106.79,35.569],[-106.739,35.628],[-106.746,35.66],[-106.675,35.644],[-106.668,35.594],[-106.583,35.546],[-106.5,35.566],[-106.276,35.733],[-106.172,35.849],[-106.14,35.99],[-106.245,36.159],[-106.3,36.196],[-106.431,36.231],[-106.457,36.203],[-106.522,36.205],[-106.592,36.171],[-106.612,36.209],[-106.555,36.321],[-106.517,36.346],[-106.388,36.293],[-106.345,36.314],[-106.313,36.276],[-106.203,36.364],[-106.156,36.336],[-106.062,36.32],[-105.964,36.416],[-105.919,36.398],[-105.912,36.449],[-105.957,36.565],[-105.986,36.696],[-106.056,36.71],[-106.056,36.755],[-106.108,36.827],[-105.984,36.832],[-106.002,36.895],[-106.057,36.869],[-106.16,36.996],[-106.105,37.059],[-106.178,37.052],[-106.168,37.093],[-106.218,37.127],[-106.203,37.227],[-106.248,37.38],[-106.214,37.41],[-106.212,37.468],[-106.276,37.557],[-106.309,37.644],[-106.365,37.665],[-106.425,37.615],[-106.552,37.7],[-106.45,37.74],[-106.33,37.734],[-106.311,37.811],[-106.233,37.937],[-106.144,38.052],[-106.223,38.071],[-106.283,38.15],[-106.22,38.131],[-106.178,38.146],[-106.092,38.12],[-105.956,38.188],[-106.021,38.235],[-106.034,38.321],[-106.09,38.416],[-106.051,38.429],[-105.855,38.269],[-105.818,38.214],[-105.748,38.047],[-105.639,37.892],[-105.507,37.808],[-105.504,37.752],[-105.592,37.624],[-105.59,37.55],[-105.558,37.514],[-105.487,37.496],[-105.475,37.451],[-105.421,37.421],[-105.396,37.368],[-105.356,37.38],[-105.4,37.28],[-105.377,37.175],[-105.344,37.129],[-105.388,37.04],[-105.386,36.99],[-105.454,36.928],[-105.498,36.962],[-105.533,36.943],[-105.57,36.794],[-105.574,36.701],[-105.623,36.678],[-105.658,36.557],[-105.562,36.542],[-105.517,36.448],[-105.561,36.364],[-105.6,36.33],[-105.718,36.305],[-105.82,36.239],[-105.818,36.166],[-105.906,36.167],[-105.874,36.138],[-105.904,36.055],[-105.853,36.018],[-105.911,35.921],[-105.897,35.842],[-105.923,35.771],[-105.902,35.668],[-105.93,35.6],[-105.853,35.504]],[[-109.609,37.818],[-109.541,37.754],[-109.455,37.721],[-109.35,37.785],[-109.358,37.872],[-109.454,37.921],[-109.493,37.918],[-109.528,37.961],[-109.608,37.931],[-109.562,37.902],[-109.608,37.865],[-109.609,37.818]],[[-109.341,38.459],[-109.328,38.389],[-109.287,38.345],[-109.214,38.331],[-109.136,38.394],[-109.083,38.413],[-109.065,38.465],[-109.114,38.491],[-109.135,38.565],[-109.082,38.528],[-109.108,38.584],[-109.222,38.622],[-109.325,38.571],[-109.341,38.459]],[[-109.001,38.8],[-108.974,38.757],[-108.926,38.759],[-108.848,38.806],[-108.761,38.786],[-108.675,38.811],[-108.612,38.867],[-108.703,38.933],[-108.796,38.882],[-108.845,38.817],[-108.928,38.855],[-108.983,38.855],[-109.001,38.8]]]}},{"type":"Feature","properties":{"a":353,"b":402},"geometry":{"type":"LineString","coordinates":[[-104.959,41.717],[-104.93,41.68],[-104.986,41.626],[-105.022,41.516],[-104.991,41.466],[-105.03,41.425],[-105.144,41.39],[-105.109,41.319],[-105.106,41.203],[-105.169,41.201],[-105.152,41.099],[-105.09,41.068],[-105.096,40.995],[-105.133,40.968],[-105.12,40.881],[-105.162,40.809],[-105.163,40.687],[-105.138,40.528],[-105.143,40.44],[-105.191,40.446],[-105.205,40.404],[-105.196,40.223],[-105.235,40.222],[-105.279,40.147],[-105.29,40.039],[-105.269,39.883],[-105.169,39.644],[-105.127,39.577],[-105.072,39.447],[-105.023,39.393],[-104.952,39.231],[-104.918,39.187],[-104.823,38.989],[-104.838,38.923],[-104.885,38.866],[-104.829,38.743],[-104.821,38.629],[-104.849,38.59],[-104.839,38.48],[-104.863,38.46],[-104.91,38.495],[-105.052,38.495],[-105.127,38.476],[-105.215,38.52],[-105.264,38.495],[-105.263,38.399],[-105.204,38.306],[-105.115,38.256],[-105.095,38.197],[-104.991,38.165],[-104.978,38.101],[-104.935,38.068],[-104.944,38.028],[-104.868,37.953],[-104.921,37.912],[-104.939,37.821],[-105.015,37.726],[-105.057,37.644],[-105.042,37.593],[-105.083,37.541],[-105.068,37.511],[-104.991,37.484],[-104.863,37.532],[-104.792,37.59],[-104.684,37.504],[-104.661,37.412],[-104.595,37.359],[-104.544,37.28],[-104.497,37.248],[-104.531,37.163],[-104.371,37.1],[-104.226,37.068],[-104.135,36.988],[-104.02,36.965],[-104.021,36.985],[-103.901,36.994],[-103.916,36.948],[-103.867,36.912],[-103.922,36.905],[-103.916,36.861],[-104.063,36.882],[-104.07,36.84],[-104.166,36.838],[-104.185,36.782],[-104.284,36.812],[-104.345,36.865],[-104.362,36.914],[-104.423,36.915],[-104.471,36.866],[-104.531,36.855],[-104.484,36.807],[-104.541,36.803],[-104.548,36.757],[-104.611,36.74],[-104.626,36.698],[-104.698,36.652],[-104.775,36.648],[-104.788,36.6],[-104.881,36.538],[-104.911,36.548],[-105.017,36.482],[-104.948,36.403],[-104.994,36.38],[-104.928,36.328],[-104.852,36.345],[-104.764,36.326],[-104.766,36.28],[-104.817,36.299],[-104.899,36.267],[-104.944,36.208],[-104.989,36.206],[-104.992,36.15],[-105.026,36.134],[-105.077,36.22],[-105.109,36.193],[-105.139,36.081],[-105.18,36.086],[-105.176,36.032],[-105.224,35.999],[-105.243,35.937],[-105.167,35.926],[-105.233,35.859],[-105.269,35.735],[-105.264,35.63],[-105.236,35.529],[-105.309,35.541],[-105.354,35.417],[-105.436,35.435],[-105.524,35.429],[-105.513,35.356],[-105.471,35.297],[-105.565,35.302],[-105.657,35.436],[-105.78,35.54],[-105.853,35.504]]}},{"type":"Feature","properties":{"a":373,"b":333},"geometry":{"type":"LineString","coordinates":[[-69.953,47.741],[-69.993,47.746],[-70.062,47.694],[-70.139,47.705],[-69.988,47.777],[-69.988,47.832],[-70.045,47.859],[-70.054,47.905],[-70.111,47.944],[-70.137,48.001],[-70.061,48.068],[-70.036,48.122],[-70.071,48.195],[-70.132,48.233],[-70.184,48.205],[-70.3,48.177],[-70.431,48.207],[-70.56,48.205],[-70.687,48.168],[-70.842,48.145],[-70.987,48.162],[-71.253,48.242],[-71.678,48.278],[-71.877,48.328],[-72.14,48.493],[-72.327,48.518],[-72.465,48.612],[-72.597,48.65],[-72.757,48.667],[-72.866,48.723],[-72.943,48.816],[-73.004,48.838],[-73.032,48.902],[-73.226,49.086],[-73.295,49.22],[-73.277,49.255],[-73.517,49.31],[-73.592,49.295],[-73.613,49.218],[-73.739,49.188],[-73.75,49.26],[-73.911,49.256],[-74.061,49.301],[-74.131,49.346],[-74.166,49.469],[-74.327,49.492],[-74.362,49.52]]}},{"type":"Feature","properties":{"a":354,"b":357},"geometry":{"type":"LineString","coordinates":[[-122.418,41.369],[-122.453,41.433],[-122.581,41.512],[-122.546,41.607],[-122.579,41.641],[-122.687,41.674],[-122.689,41.723],[-122.618,41.776],[-122.525,41.783],[-122.514,41.825],[-122.564,41.955],[-122.469,42.036],[-122.371,42.089]]}},{"type":"Feature","properties":{"a":354,"b":398},"geometry":{"type":"LineString","coordinates":[[-120.345,47.331],[-120.252,47.312],[-120.22,47.191],[-120.253,47.102],[-120.454,47.166],[-120.644,47.182],[-120.792,47.154],[-120.764,47.075],[-120.772,46.993],[-120.673,46.952],[-120.748,46.946],[-120.8,46.88],[-120.749,46.786],[-120.907,46.763],[-120.947,46.686],[-120.886,46.69],[-120.957,46.652],[-120.87,46.6],[-120.946,46.52],[-120.914,46.459],[-120.98,46.434],[-120.864,46.322],[-120.885,46.272],[-120.768,46.236],[-120.792,46.2],[-120.747,46.144],[-120.715,46.15],[-120.658,46.054],[-120.515,46.041],[-120.483,46.014],[-120.351,46.021],[-120.4,45.966],[-120.407,45.844],[-120.505,45.852],[-120.572,45.794],[-120.672,45.842],[-120.827,45.842],[-120.872,45.89],[-120.964,45.839],[-120.943,45.805],[-121.042,45.831],[-121.045,45.771],[-121.092,45.719],[-121.202,45.697],[-121.201,45.67],[-121.282,45.615],[-121.29,45.559],[-121.216,45.572],[-121.162,45.518],[-121.214,45.466],[-121.146,45.453],[-121.218,45.374],[-121.193,45.348],[-121.262,45.305],[-121.262,45.226],[-121.324,45.216],[-121.32,45.18],[-121.407,45.162],[-121.37,45.103],[-121.271,45.078],[-121.3,45.042]]}},{"type":"Feature","properties":{"a":333,"b":334},"geometry":{"type":"LineString","coordinates":[[-71.049,46.949],[-71.334,46.881],[-71.539,46.761],[-71.638,46.734],[-71.726,46.772],[-71.838,46.8],[-71.987,46.769],[-72.105,46.768],[-72.214,46.723],[-72.185,46.636],[-72.32,46.613],[-72.426,46.709],[-72.35,46.733],[-72.309,46.833],[-72.386,46.843],[-72.58,46.779],[-72.658,46.707],[-72.658,46.598],[-72.788,46.534],[-72.942,46.475],[-72.978,46.367],[-73.077,46.297],[-73.139,46.231],[-73.345,46.159],[-73.405,46.209],[-73.366,46.254],[-73.411,46.281],[-73.459,46.206],[-73.652,46.068],[-73.644,46.01],[-73.729,45.955],[-73.779,45.883],[-73.904,45.836],[-73.979,45.779],[-74.11,45.706],[-74.322,45.67],[-74.496,45.675],[-74.772,45.646],[-74.905,45.681],[-74.987,45.654],[-75.077,45.669],[-75.103,45.641],[-75.05,45.612],[-75.243,45.603],[-75.428,45.555],[-75.575,45.495],[-75.636,45.492],[-75.704,45.422],[-75.824,45.354],[-76.022,45.486],[-76.144,45.515],[-76.214,45.507],[-76.214,45.472],[-76.294,45.438],[-76.343,45.442],[-76.439,45.496],[-76.592,45.527],[-76.663,45.563],[-76.714,45.676],[-76.717,45.721],[-76.787,45.757],[-76.773,45.855],[-76.911,45.892],[-76.886,45.809],[-76.953,45.774],[-77.003,45.775],[-77.1,45.832],[-77.171,45.851],[-77.187,45.827],[-77.065,45.704],[-76.952,45.518],[-76.794,45.484],[-76.548,45.387],[-76.419,45.347],[-76.31,45.273],[-76.256,45.181],[-76.345,45.014],[-76.245,44.939],[-76.246,44.821],[-76.289,44.715],[-76.276,44.62],[-76.387,44.514],[-76.533,44.46],[-76.697,44.484],[-76.826,44.462],[-76.958,44.49],[-77.139,44.452],[-77.273,44.465],[-77.388,44.504],[-77.706,44.482],[-77.84,44.507],[-78.001,44.569],[-78.192,44.588],[-78.363,44.593],[-78.645,44.69],[-78.766,44.693],[-79.09,44.674],[-79.188,44.725],[-79.335,44.751],[-79.519,44.765],[-79.714,44.767]]}},{"type":"Feature","properties":{"a":334,"b":339},"geometry":{"type":"MultiLineString","coordinates":[[[-73.977,43.087],[-73.895,42.993],[-73.977,42.996],[-73.969,42.889],[-74.004,42.862],[-74.023,42.778],[-73.966,42.712],[-73.979,42.64]],[[-73.358,43.443],[-73.447,43.46]]]}},{"type":"Feature","properties":{"a":334,"b":338},"geometry":{"type":"MultiLineString","coordinates":[[[-73.447,43.46],[-73.409,43.555],[-73.448,43.693],[-73.414,43.753],[-73.406,43.825],[-73.44,43.829],[-73.457,43.89],[-73.424,43.933],[-73.484,43.936],[-73.457,43.978],[-73.508,44.0],[-73.524,44.045],[-73.575,44.053],[-73.534,44.122],[-73.491,44.075],[-73.467,44.132],[-73.543,44.19],[-73.52,44.242],[-73.602,44.249],[-73.573,44.376],[-73.508,44.407],[-73.511,44.476],[-73.567,44.478],[-73.614,44.523],[-73.597,44.576],[-73.651,44.672],[-73.736,44.64],[-73.71,44.683],[-73.647,44.703],[-73.577,44.79],[-73.591,44.89],[-73.644,44.915],[-73.75,44.88],[-73.844,44.882],[-73.911,44.841],[-73.971,44.881],[-74.041,44.838],[-74.156,44.845],[-74.216,44.782],[-74.282,44.808],[-74.348,44.805],[-74.498,44.757],[-74.608,44.683],[-74.683,44.65],[-74.755,44.646],[-74.868,44.593],[-74.987,44.51],[-75.017,44.468],[-75.096,44.442],[-75.228,44.319],[-75.297,44.286],[-75.344,44.207],[-75.479,44.14],[-75.54,44.001],[-75.433,43.884],[-75.428,43.792],[-75.369,43.747],[-75.342,43.681],[-75.345,43.624],[-75.282,43.512],[-75.213,43.466],[-75.174,43.404],[-75.032,43.3],[-74.993,43.245],[-74.869,43.2],[-74.817,43.128],[-74.745,43.117],[-74.68,43.04],[-74.584,43.02],[-74.437,43.033],[-74.381,43.09],[-74.3,43.13],[-74.25,43.079],[-74.156,43.088],[-74.053,43.071],[-73.977,43.087]],[[-69.805,47.597],[-69.769,47.557],[-69.789,47.494],[-69.861,47.467],[-69.947,47.404],[-69.951,47.365],[-70.04,47.307],[-70.175,47.179],[-70.24,47.083],[-70.349,47.029],[-70.381,46.989],[-70.472,46.973],[-70.573,46.907],[-70.585,46.88],[-70.671,46.838],[-70.82,46.728],[-70.848,46.573],[-70.93,46.521],[-71.076,46.457],[-71.054,46.429],[-71.134,46.403],[-71.288,46.423],[-71.445,46.364],[-71.599,46.283],[-71.749,46.178],[-71.87,46.058],[-71.987,45.863],[-72.106,45.833],[-72.256,45.755],[-72.322,45.666],[-72.32,45.564],[-72.483,45.383],[-72.549,45.283],[-72.681,45.232],[-72.877,45.075],[-72.945,44.983],[-72.993,44.884],[-73.056,44.804],[-73.081,44.648],[-73.132,44.561],[-73.123,44.512],[-73.026,44.527],[-73.017,44.441],[-73.119,44.433],[-73.129,44.372],[-73.049,44.286],[-73.039,44.209],[-73.062,44.172],[-73.096,44.24],[-73.073,44.096],[-73.092,43.935],[-73.064,43.915],[-73.055,43.808],[-73.1,43.769],[-73.187,43.812],[-73.196,43.78],[-73.263,43.803],[-73.3,43.786],[-73.293,43.724],[-73.247,43.721],[-73.293,43.658],[-73.292,43.612],[-73.344,43.553],[-73.339,43.457],[-73.358,43.443]],[[-76.045,43.65],[-76.013,43.518],[-75.964,43.457],[-75.789,43.356],[-75.715,43.295],[-75.656,43.282],[-75.556,43.34],[-75.445,43.311],[-75.385,43.319],[-75.359,43.362],[-75.249,43.336],[-75.215,43.362],[-75.273,43.447],[-75.352,43.462],[-75.416,43.569],[-75.425,43.655],[-75.579,43.811],[-75.596,43.842],[-75.732,43.93],[-75.867,43.963],[-75.924,43.934],[-75.992,43.856],[-76.045,43.65]]]}},{"type":"Feature","properties":{"a":335,"b":338},"geometry":{"type":"MultiLineString","coordinates":[[[-66.025,48.14],[-66.015,48.201],[-65.958,48.21],[-66.0,48.285],[-65.95,48.296],[-65.794,48.222],[-65.752,48.178],[-65.695,48.182],[-65.58,48.234],[-65.517,48.21],[-65.354,48.212],[-65.232,48.146],[-65.176,48.133],[-65.07,48.162],[-64.953,48.154]],[[-64.704,45.994],[-64.713,45.979],[-64.703,45.959],[-64.838,45.936],[-64.937,45.949],[-65.104,45.892],[-65.223,45.892],[-65.138,45.983],[-65.278,45.975],[-65.252,46.02],[-65.324,46.044],[-65.384,46.033],[-65.494,45.944],[-65.529,45.946],[-65.635,45.863],[-65.674,45.796],[-65.787,45.703],[-65.813,45.738],[-65.909,45.698],[-66.025,45.669],[-66.018,45.711],[-66.08,45.685],[-66.153,45.7],[-66.151,45.654],[-66.249,45.611],[-66.482,45.533],[-66.483,45.501],[-66.614,45.442],[-66.627,45.503],[-66.707,45.492],[-66.693,45.455],[-66.764,45.459],[-66.722,45.553],[-66.662,45.562],[-66.631,45.626],[-66.695,45.63],[-66.786,45.586],[-66.913,45.615],[-66.932,45.697],[-66.877,45.771],[-66.872,45.862],[-66.826,45.934],[-66.892,46.053],[-66.958,46.074],[-66.928,46.141],[-66.834,46.167],[-66.804,46.205],[-66.875,46.208],[-66.897,46.261],[-66.825,46.281],[-66.645,46.276],[-66.619,46.321],[-66.676,46.316],[-66.644,46.395],[-66.574,46.37],[-66.52,46.425],[-66.426,46.475],[-66.437,46.51],[-66.355,46.648],[-66.25,46.684],[-66.16,46.788],[-66.095,46.82],[-66.06,46.866],[-66.189,46.881],[-65.987,46.91],[-65.876,46.956],[-65.861,47.035],[-65.944,47.083],[-65.936,47.108],[-65.854,47.071],[-65.865,47.138],[-65.838,47.214],[-65.878,47.209],[-65.784,47.31],[-65.701,47.462],[-65.733,47.599],[-65.693,47.638],[-65.709,47.681],[-65.705,47.697]],[[-62.112,45.783],[-62.314,45.626],[-62.422,45.605],[-62.507,45.567],[-62.651,45.563],[-62.742,45.538],[-62.798,45.61],[-62.859,45.552],[-62.855,45.672],[-62.954,45.652],[-63.042,45.613],[-63.125,45.657],[-63.2,45.657],[-63.232,45.628],[-63.431,45.63],[-63.479,45.672],[-63.672,45.651],[-63.801,45.682],[-63.831,45.658],[-63.883,45.693],[-64.01,45.668],[-63.912,45.74],[-63.953,45.779],[-64.072,45.761],[-64.185,45.763],[-64.252,45.821],[-64.142,45.875],[-64.281,45.85],[-64.257,45.948],[-64.357,45.966],[-64.35,45.941],[-64.406,45.876],[-64.441,45.888],[-64.384,45.954],[-64.403,45.987],[-64.462,45.983],[-64.525,45.933],[-64.552,46.032],[-64.586,46.016],[-64.573,45.964],[-64.598,45.898]]]}},{"type":"Feature","properties":{"a":357,"b":403},"geometry":{"type":"LineString","coordinates":[[-123.368,43.71],[-123.348,43.666],[-123.218,43.651],[-123.171,43.616]]}},{"type":"Feature","properties":{"a":393,"b":399},"geometry":{"type":"MultiLineString","coordinates":[[[-78.996,33.579],[-79.052,33.547],[-79.113,33.557],[-79.142,33.522],[-79.17,33.56],[-79.191,33.485],[-79.242,33.467],[-79.298,33.49],[-79.3,33.427],[-79.428,33.368],[-79.413,33.343],[-79.331,33.33],[-79.315,33.292],[-79.371,33.23],[-79.453,33.231],[-79.447,33.192],[-79.552,33.065],[-79.636,33.027],[-79.697,32.961],[-79.758,32.968],[-79.875,32.922],[-79.856,33.05],[-79.82,33.097],[-79.886,33.082],[-79.987,33.143],[-79.959,33.08],[-79.978,33.026],[-79.957,32.946],[-80.052,32.96],[-80.04,32.893],[-80.144,32.928],[-80.081,32.83],[-80.154,32.837],[-80.213,32.737],[-80.393,32.69],[-80.424,32.743],[-80.466,32.706],[-80.534,32.732],[-80.526,32.776],[-80.593,32.752],[-80.565,32.678],[-80.643,32.661],[-80.696,32.724],[-80.793,32.693],[-80.696,32.634],[-80.693,32.551],[-80.734,32.554],[-80.777,32.605],[-80.795,32.575],[-80.841,32.63],[-80.846,32.579],[-80.936,32.592],[-80.881,32.49],[-80.903,32.447],[-80.895,32.365],[-80.941,32.293],[-80.873,32.276],[-80.864,32.246],[-81.008,32.208],[-81.05,32.178],[-81.109,32.253],[-81.138,32.495],[-81.195,32.553],[-81.288,32.597],[-81.373,32.723],[-81.377,32.773],[-81.432,32.887],[-81.367,32.903],[-81.308,32.955],[-81.243,32.924],[-81.179,33.03],[-81.127,33.09],[-81.148,33.176],[-81.111,33.25],[-81.023,33.346],[-80.957,33.394],[-80.808,33.451],[-80.696,33.45],[-80.655,33.426],[-80.528,33.405],[-80.453,33.429],[-80.332,33.38],[-80.168,33.391],[-80.146,33.443],[-80.182,33.521],[-80.126,33.678],[-80.178,33.7],[-80.116,33.799],[-80.144,33.821],[-80.185,33.917],[-80.155,33.948],[-80.162,34.017],[-80.131,34.09],[-80.065,34.05],[-80.036,34.093],[-79.966,34.096],[-79.898,34.144],[-79.824,34.147],[-79.817,34.115],[-79.723,34.13],[-79.737,34.093],[-79.66,34.043],[-79.629,34.071],[-79.518,34.014],[-79.451,34.055],[-79.34,34.022],[-79.275,34.121],[-79.182,34.191],[-79.197,34.228],[-79.091,34.215],[-79.065,34.149],[-78.984,34.124],[-78.938,34.143],[-78.85,34.115],[-78.789,34.175],[-78.735,34.194],[-78.674,34.26],[-78.645,34.323],[-78.54,34.4],[-78.497,34.413],[-78.435,34.502],[-78.47,34.568],[-78.523,34.612],[-78.608,34.647],[-78.659,34.705],[-78.756,34.76],[-78.795,34.861],[-78.769,34.962],[-78.801,34.988],[-78.758,35.019],[-78.611,34.893],[-78.554,34.867],[-78.429,34.749],[-78.351,34.752],[-78.235,34.726],[-78.109,34.822],[-78.055,34.846],[-77.969,34.918],[-77.854,34.959],[-77.72,34.951],[-77.666,34.995],[-77.675,35.051],[-77.612,35.092],[-77.645,35.135],[-77.539,35.187],[-77.422,35.352],[-77.407,35.478],[-77.457,35.527],[-77.497,35.632],[-77.441,35.704],[-77.45,35.768],[-77.412,35.816],[-77.426,35.915],[-77.404,35.981],[-77.426,36.013],[-77.389,36.078],[-77.314,36.098],[-77.271,36.175],[-77.313,36.241],[-77.538,36.386],[-77.564,36.427],[-77.486,36.434],[-77.438,36.379],[-77.322,36.399],[-77.224,36.374],[-77.071,36.372],[-77.011,36.419],[-77.093,36.448],[-77.078,36.489],[-77.118,36.519],[-77.074,36.533],[-77.111,36.589],[-77.166,36.588],[-77.179,36.625],[-77.126,36.696],[-77.113,36.842],[-77.058,36.805],[-76.979,36.917],[-76.916,37.032],[-76.839,37.133],[-76.765,37.17]],[[-77.027,38.27],[-77.078,38.316],[-77.059,38.386],[-77.133,38.342],[-77.25,38.383],[-77.188,38.382],[-77.155,38.44],[-77.022,38.457],[-76.986,38.379],[-76.86,38.308]],[[-77.012,38.2],[-77.026,38.268]],[[-76.881,38.175],[-76.983,38.161],[-77.011,38.2]],[[-76.858,38.17],[-76.86,38.171]],[[-76.828,38.163],[-76.829,38.163],[-76.837,38.163],[-76.839,38.163]],[[-76.82,38.297],[-76.718,38.285]],[[-76.772,38.16],[-76.791,38.169]],[[-76.73,38.107],[-76.77,38.158]],[[-76.405,37.661],[-76.364,37.736],[-76.343,37.825],[-76.447,37.88],[-76.326,37.863],[-76.35,37.908],[-76.53,37.975],[-76.58,38.014],[-76.598,38.069],[-76.711,38.079],[-76.727,38.102]],[[-76.709,38.282],[-76.654,38.264]],[[-76.585,38.389],[-76.595,38.395],[-76.676,38.449],[-76.696,38.479],[-76.694,38.495]],[[-76.694,38.497],[-76.694,38.538]],[[-76.693,38.544],[-76.716,38.704],[-76.693,38.733],[-76.667,38.61],[-76.633,38.564],[-76.626,38.472],[-76.602,38.458]],[[-76.647,38.261],[-76.559,38.21]],[[-76.629,37.206],[-76.494,37.226]],[[-76.597,38.452],[-76.572,38.432],[-76.541,38.426]],[[-76.563,38.385],[-76.583,38.388]],[[-76.571,39.276],[-76.54,39.266]],[[-76.558,38.385],[-76.561,38.385]],[[-76.558,38.209],[-76.444,38.186]],[[-76.554,38.753],[-76.561,38.759],[-76.573,38.779],[-76.55,38.876]],[[-76.535,38.373],[-76.551,38.383]],[[-76.55,38.88],[-76.548,38.883]],[[-76.533,38.694],[-76.548,38.73]],[[-76.54,39.266],[-76.536,39.264],[-76.528,39.266],[-76.522,39.305],[-76.487,39.325],[-76.484,39.322]],[[-76.539,38.425],[-76.538,38.425]],[[-76.537,38.425],[-76.493,38.394]],[[-76.531,38.355],[-76.535,38.373]],[[-76.512,38.325],[-76.528,38.339],[-76.534,38.347],[-76.532,38.354]],[[-76.454,38.289],[-76.511,38.324]],[[-76.496,37.249],[-76.515,37.342],[-76.499,37.402]],[[-76.498,37.403],[-76.493,37.412]],[[-76.491,37.416],[-76.432,37.513]],[[-76.49,38.391],[-76.47,38.374]],[[-76.484,39.32],[-76.394,39.35],[-76.396,39.377]],[[-76.475,38.989],[-76.466,39.003]],[[-76.47,38.373],[-76.45,38.35]],[[-76.465,39.003],[-76.463,39.01]],[[-76.462,39.011],[-76.44,39.032],[-76.411,39.031]],[[-76.437,38.187],[-76.407,38.174],[-76.36,38.127],[-76.41,38.252],[-76.452,38.287]],[[-76.449,38.35],[-76.435,38.343]],[[-76.434,38.343],[-76.431,38.341]],[[-76.43,38.341],[-76.41,38.335]],[[-76.427,37.527],[-76.414,37.581]],[[-76.418,37.64],[-76.411,37.652]],[[-76.41,37.653],[-76.41,37.654]],[[-76.409,39.03],[-76.403,39.03]],[[-76.409,37.656],[-76.407,37.658]],[[-76.394,39.381],[-76.355,39.4]],[[-76.355,39.4],[-76.353,39.4]],[[-76.351,39.4],[-76.348,39.4]],[[-76.347,39.4],[-76.249,39.466],[-76.086,39.54]],[[-76.086,39.54],[-76.086,39.539]],[[-75.843,39.581],[-75.742,39.639],[-75.71,39.688]]]}},{"type":"Feature","properties":{"a":393,"b":339},"geometry":{"type":"LineString","coordinates":[[-75.71,39.688],[-75.649,39.732],[-75.536,39.764],[-75.344,39.877],[-75.239,39.92],[-75.144,40.003],[-74.957,40.079],[-74.841,40.159],[-74.783,40.225]]}},{"type":"Feature","properties":{"a":337,"b":399},"geometry":{"type":"MultiLineString","coordinates":[[[-89.097,36.953],[-89.062,36.934],[-89.1,36.873],[-89.093,36.799],[-89.127,36.705],[-89.098,36.6],[-89.171,36.579],[-89.309,36.471],[-89.306,36.435],[-89.42,36.274],[-89.419,36.224],[-89.379,36.171],[-89.489,36.115],[-89.502,36.065],[-89.429,35.987],[-89.493,35.938],[-89.675,35.76],[-89.738,35.678],[-89.835,35.645],[-89.893,35.603],[-89.835,35.598],[-89.9,35.51],[-89.951,35.494],[-89.967,35.428],[-90.045,35.36],[-90.076,35.302],[-90.05,35.23],[-90.05,35.149],[-90.083,35.071],[-90.127,35.057],[-90.118,35.0],[-90.143,34.904],[-90.194,34.835],[-90.2,34.776],[-90.139,34.779],[-90.214,34.646],[-90.171,34.476],[-90.083,34.399],[-90.026,34.321],[-90.066,34.261],[-90.08,34.079],[-90.063,33.899],[-90.008,33.745],[-90.043,33.708],[-90.05,33.529],[-90.073,33.451],[-90.151,33.358],[-90.143,33.25],[-90.195,33.183],[-90.198,33.101],[-90.292,32.981],[-90.347,32.957],[-90.38,32.878],[-90.446,32.817],[-90.584,32.61],[-90.721,32.561],[-90.781,32.52],[-90.828,32.422],[-90.874,32.366],[-90.942,32.217],[-90.941,32.151],[-90.974,32.096],[-91.048,32.04],[-91.058,31.987],[-91.177,31.911],[-91.22,31.774],[-91.349,31.7],[-91.382,31.646],[-91.388,31.56],[-91.424,31.546],[-91.45,31.389],[-91.354,31.339],[-91.414,31.235],[-91.496,31.176],[-91.55,31.081]],[[-90.836,35.837],[-90.806,35.802],[-90.713,35.759],[-90.68,35.696],[-90.714,35.592],[-90.815,35.075],[-90.774,34.967],[-90.705,34.884],[-90.682,34.933],[-90.728,34.989],[-90.679,35.168],[-90.709,35.23],[-90.705,35.314],[-90.675,35.413],[-90.661,35.62],[-90.675,35.788],[-90.558,35.937],[-90.444,36.153],[-90.347,36.239],[-90.28,36.276],[-90.198,36.373],[-90.171,36.435],[-90.118,36.472],[-90.055,36.48],[-90.03,36.54],[-90.049,36.566],[-90.043,36.675],[-89.937,36.782],[-89.908,36.83],[-89.831,36.883],[-89.833,36.944],[-89.87,36.952],[-89.802,37.031],[-89.835,37.087],[-89.912,37.077],[-90.088,37.015],[-90.207,36.945],[-90.194,36.866],[-90.129,36.861],[-90.08,36.896],[-90.042,36.793],[-90.063,36.647],[-90.092,36.627],[-90.108,36.523],[-90.207,36.509],[-90.219,36.467],[-90.281,36.429],[-90.356,36.421],[-90.414,36.368],[-90.417,36.333],[-90.507,36.245],[-90.615,36.199],[-90.647,36.109],[-90.705,36.013],[-90.759,35.977],[-90.804,35.87],[-90.836,35.837]],[[-90.734,34.663],[-90.7,34.579],[-90.611,34.5],[-90.607,34.594],[-90.704,34.76],[-90.725,34.757],[-90.734,34.663]]]}},{"type":"Feature","properties":{"a":337,"b":341},"geometry":{"type":"LineString","coordinates":[[-92.253,34.745],[-92.27,34.758],[-92.073,34.943],[-92.005,34.978],[-91.971,35.039],[-92.016,35.07],[-91.911,35.083],[-91.813,35.176],[-91.715,35.22],[-91.7,35.266],[-91.585,35.302],[-91.398,35.487],[-91.497,35.636]]}},{"type":"Feature","properties":{"a":337,"b":340},"geometry":{"type":"LineString","coordinates":[[-91.497,35.636],[-91.528,35.712],[-91.458,35.696],[-91.392,35.73],[-91.296,35.835],[-91.255,35.96],[-91.094,36.102],[-91.005,36.221],[-90.806,36.414],[-90.777,36.462],[-90.647,36.595],[-90.522,36.666],[-90.49,36.721],[-90.409,36.751],[-90.387,36.803],[-90.352,36.788],[-90.289,36.83],[-90.253,36.89],[-90.247,36.951],[-90.144,37.061],[-90.056,37.093],[-89.988,37.162],[-89.853,37.207],[-89.852,37.238],[-89.777,37.256],[-89.663,37.254]]}},{"type":"Feature","properties":{"a":338,"b":339},"geometry":{"type":"MultiLineString","coordinates":[[[-76.227,40.314],[-76.106,40.287],[-76.046,40.31]],[[-70.184,43.775],[-70.134,43.837],[-70.12,43.914],[-70.202,43.969],[-70.281,43.994],[-70.345,43.956],[-70.358,43.902],[-70.418,43.841],[-70.53,43.761],[-70.591,43.812],[-70.665,43.841],[-70.739,43.79],[-70.701,43.786],[-70.703,43.716],[-70.803,43.66],[-70.751,43.636],[-70.723,43.57],[-70.743,43.521],[-70.836,43.466],[-70.891,43.467],[-70.973,43.415],[-71.015,43.36],[-71.073,43.388],[-71.168,43.269],[-71.152,43.113],[-71.192,43.09],[-71.353,43.189],[-71.342,43.287],[-71.474,43.316],[-71.527,43.307],[-71.625,43.372],[-71.654,43.355],[-71.624,43.276],[-71.733,43.264],[-71.781,43.195],[-71.726,43.101],[-71.668,43.084],[-71.658,43.022],[-71.578,42.983],[-71.597,42.925],[-71.704,42.877],[-71.76,42.761],[-71.765,42.689],[-71.85,42.555],[-71.821,42.5],[-71.891,42.413],[-71.854,42.321],[-71.867,42.281],[-71.95,42.281],[-71.983,42.331],[-71.96,42.447],[-71.981,42.471],[-72.06,42.468],[-72.135,42.401],[-72.186,42.416],[-72.192,42.548],[-72.218,42.607],[-72.301,42.622],[-72.326,42.576],[-72.322,42.343],[-72.391,42.303],[-72.461,42.348],[-72.506,42.467],[-72.565,42.467],[-72.527,42.507],[-72.442,42.669],[-72.434,42.725],[-72.486,42.776],[-72.501,42.841],[-72.538,42.837],[-72.521,42.978],[-72.56,42.963],[-72.561,42.905],[-72.599,42.887],[-72.518,42.735],[-72.467,42.722],[-72.505,42.669],[-72.552,42.673],[-72.639,42.618],[-72.627,42.556],[-72.645,42.464],[-72.636,42.392],[-72.689,42.352],[-72.748,42.232],[-72.824,42.132],[-72.824,41.999],[-72.866,41.916],[-72.883,41.837],[-73.01,41.813],[-73.103,41.73],[-73.214,41.755],[-73.379,41.661],[-73.422,41.594],[-73.459,41.474],[-73.524,41.47],[-73.639,41.389],[-73.794,41.381],[-73.83,41.342],[-73.899,41.325],[-73.968,41.264],[-74.032,41.248],[-74.045,41.215],[-74.348,40.943],[-74.454,40.885],[-74.488,40.789],[-74.593,40.708],[-74.644,40.704],[-74.687,40.753],[-74.774,40.685],[-74.846,40.659],[-74.986,40.659],[-75.059,40.619],[-75.178,40.584],[-75.219,40.536],[-75.305,40.54],[-75.32,40.512],[-75.399,40.524],[-75.467,40.441],[-75.562,40.44],[-75.653,40.323],[-75.72,40.317],[-75.733,40.398],[-75.798,40.396],[-75.812,40.33],[-75.915,40.337]],[[-74.096,41.423],[-74.091,41.394],[-73.984,41.448],[-73.95,41.503],[-73.871,41.536],[-73.85,41.515],[-73.702,41.569],[-73.663,41.614],[-73.663,41.715],[-73.748,41.612],[-73.806,41.722],[-73.796,41.79],[-73.758,41.846],[-73.794,41.882],[-73.796,41.977],[-73.774,42.084],[-73.741,42.099],[-73.722,42.169],[-73.665,42.204],[-73.623,42.316],[-73.55,42.386],[-73.564,42.459],[-73.667,42.507],[-73.702,42.605],[-73.668,42.694],[-73.668,42.765],[-73.632,42.839],[-73.586,42.86],[-73.584,42.925],[-73.528,43.042],[-73.525,43.145],[-73.371,43.381],[-73.358,43.443]],[[-73.447,43.46],[-73.483,43.446],[-73.496,43.5],[-73.534,43.418],[-73.602,43.404],[-73.651,43.439],[-73.656,43.385],[-73.717,43.378],[-73.732,43.272],[-73.839,43.287],[-73.919,43.141],[-73.977,43.087]]]}},{"type":"Feature","properties":{"a":339,"b":399},"geometry":{"type":"LineString","coordinates":[[-75.71,39.688],[-75.749,39.692],[-75.855,39.638],[-75.899,39.67],[-75.958,39.607],[-76.022,39.641],[-76.058,39.578],[-76.186,39.526],[-76.227,39.488],[-76.356,39.459],[-76.412,39.404],[-76.544,39.402],[-76.599,39.371],[-76.656,39.271],[-76.724,39.214],[-76.788,39.203],[-76.842,39.133],[-76.916,39.108],[-77.082,38.894]]}},{"type":"Feature","properties":{"a":614,"b":547},"geometry":{"type":"MultiLineString","coordinates":[[[-101.625,17.662],[-101.579,17.657],[-101.578,17.618]],[[-101.443,17.554],[-101.402,17.558],[-101.286,17.485],[-101.279,17.456]],[[-100.943,17.229],[-100.915,17.245],[-100.843,17.198]],[[-100.655,17.129],[-100.618,17.158],[-100.531,17.149],[-100.507,17.077]],[[-100.433,17.056],[-100.374,17.108],[-100.322,17.014]],[[-99.834,16.794],[-99.808,16.807],[-99.813,16.777]],[[-99.688,16.699],[-99.642,16.724],[-99.633,16.692]],[[-99.426,16.677],[-99.297,16.697],[-99.238,16.624]],[[-99.213,16.62],[-99.131,16.653],[-99.131,16.607]],[[-99.068,16.596],[-99.044,16.61],[-99.015,16.587]],[[-98.743,16.522],[-98.705,16.511],[-98.672,16.444]],[[-98.442,16.277],[-98.362,16.284],[-98.347,16.256]],[[-98.286,16.245],[-98.268,16.274],[-98.192,16.257],[-98.187,16.211]],[[-98.165,16.196],[-98.083,16.19],[-98.081,16.158]],[[-97.641,15.959],[-97.603,15.993],[-97.685,16.009],[-97.593,16.014],[-97.56,15.942]],[[-97.543,15.943],[-97.49,15.983],[-97.5,15.941]],[[-97.445,15.925],[-97.426,15.956],[-97.353,15.951],[-97.346,15.92]],[[-97.25,15.918],[-97.212,15.953],[-97.166,15.944],[-97.151,15.891]],[[-97.031,15.803],[-96.913,15.797],[-96.887,15.749]],[[-96.766,15.716],[-96.667,15.726],[-96.564,15.678],[-96.563,15.648]],[[-96.321,15.675],[-96.275,15.705],[-96.281,15.67]],[[-95.815,15.86],[-95.757,15.893]],[[-95.574,15.947],[-95.588,15.983],[-95.541,15.955]]]}},{"type":"Feature","properties":{"a":487,"b":557},"geometry":{"type":"MultiLineString","coordinates":[[[-97.148,18.902],[-97.195,18.899]],[[-95.773,17.329],[-95.84,17.261],[-95.812,17.214],[-95.882,17.161],[-95.869,17.125],[-95.799,17.143],[-95.783,17.198],[-95.758,17.163],[-95.838,17.111],[-95.822,16.938],[-95.633,16.899],[-95.648,16.846],[-95.744,16.893],[-95.782,16.889],[-95.859,16.935],[-95.869,16.982],[-95.951,16.996],[-95.98,16.973],[-96.05,17.132],[-96.115,17.171],[-96.1,17.25],[-96.131,17.393],[-96.183,17.398],[-96.21,17.476],[-96.265,17.486],[-96.286,17.531],[-96.382,17.511],[-96.497,17.617],[-96.497,17.661],[-96.682,17.714],[-96.771,17.812],[-96.755,17.902],[-96.726,17.922],[-96.748,17.987],[-96.785,17.931],[-96.883,17.932],[-96.808,18.008],[-96.839,18.066],[-96.954,18.076],[-96.996,18.15],[-97.034,18.268],[-96.931,18.345],[-96.971,18.542],[-97.038,18.586],[-97.058,18.634],[-97.055,18.793]],[[-95.788,17.427],[-95.966,17.34],[-95.937,17.292],[-95.937,17.197],[-95.864,17.255],[-95.836,17.356],[-95.778,17.364]],[[-95.529,17.119],[-95.51,17.109],[-95.573,17.015],[-95.615,17.002],[-95.556,17.082],[-95.571,17.099],[-95.664,17.031],[-95.677,16.967],[-95.711,17.011],[-95.692,17.085],[-95.718,17.106],[-95.628,17.143]],[[-96.956,18.266],[-96.909,18.253],[-96.882,18.298],[-96.911,18.323],[-96.956,18.266]],[[-96.404,17.392],[-96.271,17.43],[-96.231,17.395],[-96.214,17.313],[-96.313,17.297],[-96.404,17.392]],[[-95.52,16.763],[-95.517,16.808],[-95.451,16.804],[-95.406,16.857],[-95.467,16.88],[-95.507,16.955],[-95.414,16.931],[-95.384,16.981],[-95.38,16.907],[-95.285,16.928],[-95.252,16.821],[-95.257,16.763],[-95.359,16.807],[-95.411,16.797],[-95.461,16.751],[-95.52,16.763]]]}},{"type":"Feature","properties":{"a":487,"b":494},"geometry":{"type":"MultiLineString","coordinates":[[[-96.892,19.071],[-96.857,18.988],[-96.895,18.954],[-96.973,18.948],[-97.087,18.899],[-97.148,18.902]],[[-97.055,18.793],[-96.991,18.762],[-96.981,18.709],[-96.922,18.64],[-96.926,18.577],[-96.893,18.555],[-96.914,18.508],[-96.886,18.423],[-96.898,18.373],[-96.808,18.391],[-96.784,18.374],[-96.846,18.305],[-96.849,18.256],[-96.807,18.269],[-96.775,18.333],[-96.744,18.292],[-96.783,18.213],[-96.735,18.136],[-96.695,18.144],[-96.637,18.092],[-96.574,18.067],[-96.688,18.025],[-96.68,17.998],[-96.598,17.995],[-96.541,17.946],[-96.685,17.948],[-96.624,17.907],[-96.649,17.863],[-96.72,17.826],[-96.536,17.714],[-96.526,17.757],[-96.445,17.768],[-96.458,17.706],[-96.381,17.697],[-96.307,17.6],[-96.264,17.636],[-96.206,17.608],[-96.255,17.572],[-96.24,17.543],[-96.156,17.541],[-96.101,17.494],[-96.037,17.48],[-95.938,17.498],[-95.909,17.473],[-95.793,17.455],[-95.788,17.427]],[[-95.778,17.364],[-95.773,17.329]],[[-95.628,17.143],[-95.556,17.196],[-95.504,17.163],[-95.573,17.156],[-95.571,17.099],[-95.529,17.119]]]}},{"type":"Feature","properties":{"a":362,"b":398},"geometry":{"type":"LineString","coordinates":[[-119.331,49.09],[-119.356,49.155],[-119.476,49.228],[-119.336,49.257],[-119.405,49.292],[-119.462,49.285],[-119.479,49.324],[-119.564,49.378],[-119.663,49.392],[-119.755,49.37]]}},{"type":"Feature","properties":{"a":362,"b":361},"geometry":{"type":"LineString","coordinates":[[-120.627,51.864],[-120.499,51.902],[-120.313,51.896],[-120.133,51.839],[-120.009,51.765],[-119.879,51.708],[-119.738,51.668],[-119.687,51.582],[-119.811,51.511],[-119.909,51.382],[-119.894,51.259],[-119.818,51.022],[-119.746,50.931],[-119.624,50.873],[-119.499,50.942],[-119.334,50.98],[-119.228,50.979],[-119.141,50.951],[-119.099,50.851],[-119.112,50.699],[-119.107,50.604],[-119.067,50.457],[-119.02,50.371],[-118.628,50.257],[-118.523,50.176],[-118.498,50.048],[-118.537,49.919],[-118.616,49.811],[-118.732,49.692],[-118.772,49.604],[-118.678,49.414],[-118.678,49.329],[-118.569,49.243],[-118.355,49.126],[-118.395,49.024],[-118.589,49.012],[-118.714,49.046],[-118.843,49.064],[-119.042,49.108],[-119.191,49.09],[-119.331,49.09]]}},{"type":"Feature","properties":{"a":340,"b":341},"geometry":{"type":"LineString","coordinates":[[-91.497,35.636],[-91.539,35.667],[-91.609,35.664],[-91.734,35.693],[-91.741,35.745],[-91.847,35.732],[-91.916,35.835],[-92.022,35.864],[-92.034,35.81],[-92.106,35.821],[-92.122,35.788],[-92.201,35.851],[-92.321,35.856],[-92.421,35.9],[-92.56,35.901],[-92.586,35.924],[-92.701,35.877],[-92.783,35.904],[-92.841,35.877],[-92.89,35.967],[-93.005,35.877],[-93.005,35.95],[-93.17,35.982],[-93.174,36.035],[-93.238,36.069],[-93.186,36.118],[-93.197,36.219],[-93.277,36.245],[-93.379,36.214],[-93.356,36.285],[-93.452,36.295],[-93.405,36.25],[-93.412,36.194],[-93.546,36.118],[-93.516,36.045],[-93.644,36.133],[-93.707,36.095],[-93.724,36.114],[-93.86,36.089],[-93.871,36.133],[-93.95,36.114],[-93.998,36.141],[-94.089,36.129],[-94.164,36.073],[-94.209,36.064],[-94.253,35.984],[-94.374,35.927],[-94.39,35.863],[-94.444,35.842],[-94.477,35.872],[-94.479,35.793],[-94.563,35.79],[-94.561,35.719],[-94.708,35.703],[-94.74,35.669],[-94.84,35.628],[-94.966,35.659],[-94.857,35.706],[-94.88,35.744],[-95.032,35.722],[-94.949,35.842],[-95.058,35.815],[-94.985,35.89],[-95.03,35.899],[-95.08,35.859],[-95.152,35.895],[-95.04,35.98],[-95.055,35.999],[-95.172,35.967],[-95.172,35.93],[-95.225,35.95],[-95.238,35.995]]}},{"type":"Feature","properties":{"a":398,"b":361},"geometry":{"type":"MultiLineString","coordinates":[[[-119.331,49.09],[-119.35,49.005],[-119.303,49.0],[-119.328,48.945],[-119.39,48.93],[-119.407,48.884],[-119.348,48.786],[-119.218,48.67],[-119.283,48.634],[-119.395,48.662],[-119.342,48.616],[-119.458,48.611],[-119.457,48.586],[-119.304,48.561],[-119.249,48.501],[-119.337,48.495],[-119.47,48.553],[-119.492,48.507],[-119.393,48.432],[-119.368,48.394],[-119.214,48.363],[-119.29,48.331],[-119.357,48.36],[-119.426,48.345],[-119.298,48.23],[-119.241,48.194],[-119.312,48.188],[-119.281,48.127],[-119.186,48.176],[-119.156,48.165],[-118.994,48.176],[-118.985,48.203],[-118.842,48.224],[-118.837,48.164],[-118.87,48.018],[-118.975,47.962],[-118.849,47.97],[-118.73,47.922],[-118.696,47.978],[-118.621,47.938],[-118.538,47.933],[-118.521,47.895],[-118.39,47.85],[-118.345,47.911],[-118.221,47.952],[-118.186,47.935],[-118.055,47.817],[-117.922,47.834],[-117.815,47.884],[-117.765,47.85],[-117.692,47.866],[-117.631,47.801],[-117.555,47.761],[-117.438,47.61],[-117.355,47.536],[-117.219,47.523],[-117.107,47.54],[-117.029,47.482],[-117.003,47.429],[-116.931,47.416],[-116.977,47.372],[-116.959,47.337],[-117.072,47.313],[-116.94,47.311],[-116.862,47.238],[-116.872,47.185],[-116.775,47.11],[-116.781,47.066],[-116.854,47.054],[-116.847,47.095],[-116.947,47.143],[-117.018,47.124],[-116.98,47.067],[-117.013,47.014],[-116.884,47.034],[-116.9,46.988],[-116.766,46.939],[-116.675,46.97],[-116.692,46.919],[-116.901,46.916],[-117.003,46.874],[-117.027,46.802],[-116.934,46.746],[-116.936,46.708],[-116.988,46.692],[-116.901,46.669],[-116.816,46.613],[-116.766,46.533],[-116.727,46.513],[-116.625,46.379],[-116.721,46.302],[-116.731,46.267]],[[-116.688,46.217],[-116.659,46.238],[-116.598,46.189],[-116.522,46.188],[-116.505,46.316],[-116.427,46.338],[-116.336,46.331],[-116.337,46.389],[-116.391,46.453],[-116.328,46.431],[-116.295,46.35],[-116.302,46.45],[-116.398,46.481],[-116.287,46.472],[-116.251,46.406],[-116.17,46.323],[-116.174,46.295],[-116.071,46.229],[-116.131,46.241],[-116.203,46.19],[-116.199,46.148],[-116.126,46.204],[-116.081,46.2],[-116.089,46.151],[-116.039,46.192],[-116.016,46.109],[-116.135,46.08],[-116.111,46.049],[-116.06,46.082],[-116.008,46.067],[-116.04,46.035],[-115.968,46.005],[-115.968,45.961]],[[-115.944,45.961],[-115.962,46.067],[-115.928,46.141],[-115.869,46.126]]]}},{"type":"Feature","properties":{"a":494,"b":547},"geometry":{"type":"MultiLineString","coordinates":[[[-94.998,16.815],[-95.108,16.849]],[[-94.805,16.751],[-94.818,16.747]],[[-94.672,16.745],[-94.691,16.787],[-94.753,16.766]]]}},{"type":"Feature","properties":{"a":494,"b":557},"geometry":{"type":"MultiLineString","coordinates":[[[-97.055,18.793],[-97.152,18.832],[-97.148,18.902]],[[-95.778,17.364],[-95.788,17.427]],[[-95.628,17.143],[-95.662,17.183],[-95.597,17.2],[-95.644,17.223],[-95.724,17.317],[-95.773,17.329]],[[-95.108,16.849],[-95.09,16.893],[-95.139,16.961],[-95.297,16.972],[-95.345,17.063],[-95.313,17.11],[-95.394,17.083],[-95.44,17.132],[-95.452,17.212],[-95.492,17.139],[-95.529,17.119]],[[-94.818,16.747],[-94.899,16.809],[-94.948,16.796],[-94.984,16.905],[-95.008,16.887],[-94.998,16.815]],[[-94.753,16.766],[-94.805,16.751]],[[-94.545,16.772],[-94.672,16.745]],[[-95.545,17.336],[-95.502,17.31],[-95.501,17.353],[-95.545,17.336]],[[-94.685,16.909],[-94.682,16.885],[-94.565,16.893],[-94.581,16.937],[-94.685,16.909]]]}},{"type":"Feature","properties":{"a":557,"b":547},"geometry":{"type":"MultiLineString","coordinates":[[[-95.108,16.849],[-95.166,16.818],[-95.166,16.78],[-95.237,16.727],[-95.374,16.781],[-95.483,16.716],[-95.463,16.657],[-95.559,16.721],[-95.612,16.707],[-95.767,16.751],[-95.772,16.816],[-95.852,16.782],[-95.859,16.847],[-95.917,16.841],[-95.985,16.886],[-95.95,16.807],[-95.993,16.827],[-95.991,16.751],[-96.021,16.712],[-96.118,16.72],[-96.158,16.774],[-96.158,16.949],[-96.206,16.954],[-96.241,16.916],[-96.192,16.782],[-96.235,16.756],[-96.256,16.701],[-96.267,16.781],[-96.305,16.75],[-96.403,16.774],[-96.402,16.706],[-96.355,16.669],[-96.359,16.624],[-96.428,16.615],[-96.531,16.684],[-96.46,16.606],[-96.481,16.585],[-96.43,16.546],[-96.436,16.461],[-96.463,16.442],[-96.595,16.451],[-96.515,16.517],[-96.552,16.586],[-96.671,16.544],[-96.735,16.607],[-96.693,16.676],[-96.635,16.681],[-96.619,16.78],[-96.67,16.869],[-96.728,16.843],[-96.756,16.87],[-96.706,16.913],[-96.716,16.981],[-96.658,17.047],[-96.615,16.998],[-96.622,16.882],[-96.582,16.905],[-96.47,16.864],[-96.426,16.88],[-96.36,16.846],[-96.319,16.941],[-96.406,16.976],[-96.43,17.026],[-96.463,17.014],[-96.519,17.049],[-96.579,17.036],[-96.617,17.067],[-96.597,17.1],[-96.638,17.138],[-96.703,17.123],[-96.797,17.277],[-96.882,17.329],[-96.999,17.34]],[[-94.818,16.747],[-94.842,16.667],[-94.848,16.723],[-94.883,16.742],[-94.906,16.652],[-94.929,16.72],[-94.984,16.732],[-94.998,16.815]],[[-94.805,16.751],[-94.736,16.715],[-94.753,16.766]],[[-94.399,16.733],[-94.397,16.614],[-94.472,16.598],[-94.556,16.647],[-94.604,16.631],[-94.65,16.687],[-94.583,16.688],[-94.696,16.72],[-94.672,16.745]],[[-96.009,16.533],[-96.009,16.551],[-95.908,16.578],[-95.882,16.642],[-95.89,16.724],[-95.847,16.754],[-95.732,16.691],[-95.74,16.654],[-95.653,16.656],[-95.663,16.606],[-95.611,16.509],[-95.7,16.419],[-95.769,16.407],[-95.802,16.465],[-95.79,16.525],[-95.844,16.525],[-95.865,16.454],[-95.895,16.535],[-96.009,16.533]]]}},{"type":"Feature","properties":{"a":557,"b":558},"geometry":{"type":"LineString","coordinates":[[-96.999,17.34],[-97.036,17.391],[-97.019,17.419]]}},{"type":"Feature","properties":{"a":557,"b":610},"geometry":{"type":"LineString","coordinates":[[-97.33,18.504],[-97.271,18.523],[-97.271,18.577],[-97.386,18.596],[-97.346,18.641],[-97.37,18.686],[-97.331,18.756],[-97.347,18.779],[-97.306,18.839],[-97.318,18.872]]}},{"type":"Feature","properties":{"a":558,"b":547},"geometry":{"type":"MultiLineString","coordinates":[[[-99.252,17.232],[-99.255,17.172],[-99.309,17.155],[-99.433,17.165],[-99.502,17.131],[-99.528,17.198],[-99.485,17.273],[-99.596,17.271],[-99.624,17.314],[-99.607,17.354],[-99.704,17.33],[-99.719,17.388],[-99.762,17.371],[-99.701,17.29],[-99.701,17.245],[-99.787,17.242],[-99.716,17.223],[-99.639,17.158],[-99.693,17.14],[-99.713,17.095],[-99.857,17.044],[-99.948,17.086],[-100.074,17.1],[-100.097,17.145],[-100.034,17.225],[-100.112,17.263],[-100.178,17.23],[-100.272,17.278],[-100.324,17.366],[-100.394,17.355],[-100.435,17.389],[-100.529,17.335],[-100.555,17.387],[-100.626,17.43],[-100.644,17.507],[-100.69,17.423],[-100.626,17.397],[-100.645,17.298],[-100.729,17.326],[-100.782,17.27],[-100.804,17.323],[-100.742,17.349],[-100.735,17.446],[-100.843,17.389],[-100.869,17.345],[-100.88,17.413],[-100.939,17.449],[-100.931,17.371],[-100.973,17.36],[-101.012,17.485],[-100.995,17.566],[-100.955,17.579],[-100.981,17.621],[-101.088,17.535],[-101.114,17.459],[-101.148,17.48],[-101.161,17.554],[-101.125,17.59],[-101.17,17.614],[-101.089,17.655],[-101.119,17.713],[-101.17,17.717],[-101.158,17.81],[-101.233,17.857],[-101.299,17.761],[-101.225,17.691],[-101.164,17.685],[-101.149,17.644],[-101.234,17.637],[-101.302,17.693],[-101.331,17.667],[-101.386,17.725],[-101.312,17.731],[-101.333,17.763],[-101.464,17.753],[-101.406,17.789],[-101.442,17.856],[-101.486,17.858],[-101.508,17.948],[-101.491,18.041],[-101.584,18.11]],[[-96.999,17.34],[-96.989,17.299],[-96.917,17.281],[-96.864,17.216],[-96.876,17.168],[-96.834,17.159],[-96.798,17.099],[-96.832,17.037],[-96.794,16.906],[-96.799,16.805],[-96.824,16.767],[-96.815,16.703],[-96.857,16.636],[-96.791,16.498],[-96.8,16.447],[-96.683,16.342],[-96.552,16.282],[-96.409,16.317],[-96.392,16.356],[-96.344,16.358],[-96.225,16.505],[-96.266,16.578],[-96.256,16.62],[-96.201,16.585],[-96.214,16.525],[-96.097,16.472],[-95.976,16.501],[-95.966,16.448],[-96.004,16.428],[-95.995,16.354],[-96.065,16.316],[-96.007,16.309],[-95.971,16.339],[-95.907,16.322],[-95.82,16.328],[-95.8,16.261],[-95.826,16.233],[-95.969,16.246],[-95.95,16.205],[-95.899,16.221],[-95.868,16.193],[-95.878,16.142],[-95.837,16.104],[-95.789,16.133],[-95.715,16.101],[-95.789,16.101],[-95.76,16.06],[-95.952,16.022],[-96.015,15.99],[-96.055,16.038],[-96.083,15.969],[-96.141,15.942],[-96.246,16.002],[-96.315,15.988],[-96.271,15.961],[-96.33,15.917],[-96.367,15.941],[-96.415,15.914],[-96.531,15.974],[-96.59,15.949],[-96.645,15.977],[-96.714,15.922],[-96.775,15.928],[-96.727,15.956],[-96.663,16.06],[-96.738,16.071],[-96.793,16.033],[-96.786,15.994],[-96.84,16.006],[-96.88,15.965],[-96.969,16.066],[-97.054,16.065],[-97.126,16.001],[-97.16,16.039],[-97.147,16.095],[-97.2,16.134],[-97.241,16.123],[-97.352,16.154],[-97.466,16.157],[-97.52,16.199],[-97.427,16.274],[-97.58,16.322],[-97.585,16.362],[-97.518,16.436],[-97.452,16.424],[-97.463,16.507],[-97.427,16.61],[-97.47,16.642],[-97.469,16.58],[-97.531,16.506],[-97.566,16.61],[-97.528,16.642],[-97.513,16.749],[-97.447,16.857],[-97.421,16.939],[-97.486,16.922],[-97.496,16.849],[-97.539,16.8],[-97.58,16.803],[-97.561,16.734],[-97.667,16.587],[-97.586,16.552],[-97.566,16.493],[-97.621,16.465],[-97.616,16.414],[-97.699,16.341],[-97.779,16.419],[-97.785,16.453],[-97.855,16.452],[-97.821,16.493],[-97.889,16.538],[-98.013,16.545],[-98.018,16.582],[-97.954,16.651],[-97.984,16.727],[-97.896,16.736],[-97.891,16.604],[-97.83,16.541],[-97.775,16.543],[-97.839,16.648],[-97.874,16.752],[-97.964,16.825],[-97.937,16.887],[-97.878,16.907],[-97.941,16.95],[-98.012,16.942],[-98.069,16.872],[-98.094,16.805],[-98.141,16.778],[-98.228,16.839],[-98.289,16.795],[-98.309,16.853],[-98.504,16.831],[-98.412,16.908],[-98.471,16.949],[-98.555,16.829],[-98.626,16.846],[-98.686,16.825],[-98.69,16.899],[-98.753,16.924],[-98.798,16.909],[-98.791,16.82],[-98.862,16.801],[-98.897,16.831],[-99.003,16.831],[-99.079,16.866],[-99.089,16.947],[-99.053,16.894],[-99.002,16.933],[-99.039,16.984],[-99.014,17.031],[-99.126,17.022],[-99.2,17.092],[-99.268,17.122],[-99.168,17.171],[-99.184,17.231]],[[-101.572,17.799],[-101.543,17.853],[-101.516,17.784],[-101.572,17.799]],[[-100.475,17.288],[-100.445,17.341],[-100.411,17.309],[-100.444,17.27],[-100.475,17.288]],[[-100.33,17.219],[-100.328,17.286],[-100.303,17.268],[-100.33,17.219]],[[-100.256,17.164],[-100.198,17.211],[-100.17,17.181],[-100.221,17.108],[-100.256,17.164]],[[-99.669,17.094],[-99.656,17.123],[-99.583,17.123],[-99.669,17.094]],[[-99.436,16.997],[-99.385,17.004],[-99.355,16.951],[-99.419,16.949],[-99.436,16.997]],[[-99.428,17.033],[-99.394,17.071],[-99.34,17.06],[-99.381,17.013],[-99.428,17.033]],[[-99.382,16.93],[-99.279,16.908],[-99.372,16.878],[-99.382,16.93]],[[-99.296,17.053],[-99.259,17.069],[-99.265,17.01],[-99.296,17.053]],[[-98.09,16.56],[-98.045,16.569],[-98.044,16.541],[-98.09,16.56]],[[-96.689,15.874],[-96.621,15.888],[-96.624,15.844],[-96.689,15.874]],[[-96.59,15.857],[-96.515,15.888],[-96.471,15.848],[-96.514,15.832],[-96.59,15.857]],[[-96.18,16.588],[-96.1,16.624],[-96.048,16.584],[-96.077,16.523],[-96.128,16.527],[-96.18,16.588]],[[-95.797,16.16],[-95.783,16.185],[-95.688,16.212],[-95.664,16.32],[-95.579,16.312],[-95.588,16.357],[-95.513,16.373],[-95.557,16.324],[-95.454,16.276],[-95.495,16.228],[-95.508,16.276],[-95.567,16.267],[-95.565,16.178],[-95.613,16.168],[-95.61,16.223],[-95.65,16.138],[-95.797,16.16]]]}},{"type":"Feature","properties":{"a":558,"b":610},"geometry":{"type":"MultiLineString","coordinates":[[[-97.835,17.972],[-97.803,17.99]],[[-97.658,18.118],[-97.586,18.117],[-97.557,18.056],[-97.51,18.109]]]}}]}