{
  "type": "FeatureCollection",
  "metadata": {
    "source": "Per-region climate.md dossiers + national/regional climate-projection sources (CMIP6 SSP2-4.5, IPMA, AEMET, Meteo-France DRIAS, Met Office UKCP18, NCA5, Ouranos, WICCI, etc.)",
    "source_url": "see per-feature `source_url` for the primary source",
    "vintage": "2026-05 compilation; per-feature source vintages 2020-2025; re-verified and extended to 30 regions 2026-10",
    "native_unit": "per-jurisdiction (point at region centroid)",
    "license": "Research dossiers internal; underlying climate-projection sources are typically open government / publicly funded",
    "note": "Buffering is a description of how much a place cushions heat and drought, never a score of how good a place is. Delivers Overview decision 8.1's 'climate-buffering features (altitude, distance-to-coast, mountain-shelter exposure)' as a structured per-jurisdiction layer. Pairs the static buffering features with the dynamic trajectory_under_warming so the layer surfaces both 'how resilient is the microclimate' and 'how fast is it being eroded.'"
  },
  "features": [
    {
      "type": "Feature",
      "geometry": {
        "type": "Point",
        "coordinates": [
          -7.9,
          38.6
        ]
      },
      "properties": {
        "primary_buffering_features": [],
        "altitude_range_m": null,
        "buffering_strength": "very_low",
        "buffering_notes": "Dossier describes Alentejo as one of the hotter, drier corners of Europe with no buffering features named in climate.md.",
        "primary_vulnerability_signal": "extreme summer heat and drought",
        "trajectory_under_warming": "worsening",
        "trajectory_notes": "Projected +2.7 to 2.9C warming envelope per IPMA, with summer warming of +2.0 to 2.5C and 10 to 15% reduction in wet-day frequency by 2041 to 2060.",
        "data_confidence": "high",
        "source": "WorldClim CMIP6 v2.1 (2024); Soares et al. Scientific Reports 2024; IPMA Climate Scenarios 2023; Gomes et al. 2024",
        "source_url": "https://www.nature.com/articles/s41598-024-67996-6",
        "gaps": "No explicit altitude band or microclimate-buffering feature discussed.",
        "region_id": "alentejo"
      }
    },
    {
      "type": "Feature",
      "geometry": {
        "type": "Point",
        "coordinates": [
          -8.4,
          42.9
        ]
      },
      "properties": {
        "primary_buffering_features": [
          "coastal_moderation"
        ],
        "altitude_range_m": null,
        "buffering_strength": "high",
        "buffering_notes": "Climate.md identifies Galicia as a partial climate refugium in IPCC AR6, buffered against extreme heat by Atlantic maritime influence.",
        "primary_vulnerability_signal": "more intense winter storms and AMOC-shift tail risk",
        "trajectory_under_warming": "stable",
        "trajectory_notes": "Projected +1.5 to 2.0C by mid-century, more modest than Iberian interior; summer heat unlikely to become a primary stress this century.",
        "data_confidence": "medium",
        "source": "WorldClim CMIP6 v2.1 (2024); AEMET 2023; MDPI Land 14:85 (2025)",
        "source_url": "https://www.mdpi.com/2073-445X/14/1/85",
        "gaps": "No specific altitude range given for coastal versus interior placement.",
        "region_id": "galicia"
      }
    },
    {
      "type": "Feature",
      "geometry": {
        "type": "Point",
        "coordinates": [
          25.0,
          46.0
        ]
      },
      "properties": {
        "primary_buffering_features": [
          "altitude",
          "forest_canopy"
        ],
        "altitude_range_m": "300-900 m",
        "buffering_strength": "moderate",
        "buffering_notes": "Climate.md cites elevation, forest cover, and continental setting as providing partial buffering; high-elevation Carpathian valleys are EEA-flagged refugia.",
        "primary_vulnerability_signal": "forest-pathogen and bark-beetle outbreaks in spruce monocultures",
        "trajectory_under_warming": "worsening",
        "trajectory_notes": "Summer warming of +2.5 to 3.0C by 2050 over 1961-1990 baseline; heatwave frequency in Romanian lowlands roughly tripled since 1990s with uplands trending similarly.",
        "data_confidence": "medium",
        "source": "WorldClim CMIP6 v2.1 (2024); Bojariu et al. Springer 2014; World Bank CCKP Romania",
        "source_url": "https://link.springer.com/book/10.1007/978-3-319-02886-6",
        "gaps": "Plateau-versus-Carpathian-flank altitude bands not differentiated in detail.",
        "region_id": "transylvania"
      }
    },
    {
      "type": "Feature",
      "geometry": {
        "type": "Point",
        "coordinates": [
          -9.4,
          53.0
        ]
      },
      "properties": {
        "primary_buffering_features": [
          "coastal_moderation",
          "peat_water_storage"
        ],
        "altitude_range_m": null,
        "buffering_strength": "very_high",
        "buffering_notes": "Climate.md describes Atlantic-maritime climate that drifts rather than transforms with no projected heat-stress regime change; water.md and soil.md document blanket peat storing ~240 t C/ha and deep raised bogs storing up to 3,000 t C/ha with order-of-magnitude reliable summer flow.",
        "primary_vulnerability_signal": "Atlantic storm intensification and AMOC-shift tail risk",
        "trajectory_under_warming": "stable",
        "trajectory_notes": "Projected +0.7 to 1.5C by mid-century, among the slowest-warming regions in Europe; no projected drought, heat, or fire regime change.",
        "data_confidence": "high",
        "source": "EPA Research 471 (2023); Met Eireann 2024; ICHEC 2023; WorldClim CMIP6 v2.1",
        "source_url": "https://www.epa.ie/publications/research/reports/research-471-updated-high-resolution-climate-projections-for-ireland.php",
        "gaps": "Altitude range for building placement not specified; AMOC-shift probability not quantified.",
        "region_id": "connemara"
      }
    },
    {
      "type": "Feature",
      "geometry": {
        "type": "Point",
        "coordinates": [
          -4.9,
          51.85
        ]
      },
      "properties": {
        "primary_buffering_features": [
          "coastal_moderation"
        ],
        "altitude_range_m": null,
        "buffering_strength": "high",
        "buffering_notes": "Climate.md frames west Wales as a relatively stable maritime climate with mild winters (Jan min 3-4C) and moderate summers (July max 19-21C) thanks to Atlantic exposure.",
        "primary_vulnerability_signal": "intense hourly rainfall and flash-flood risk",
        "trajectory_under_warming": "volatile",
        "trajectory_notes": "Hourly rainfall extremes above 20 mm/h projected to become roughly 4x more frequent by 2070s under high emissions; +1.2 to 1.8C mean warming by mid-century.",
        "data_confidence": "medium",
        "source": "Met Office UKCP18; PMC9992391 (2023); World Bank CCKP UK",
        "source_url": "https://www.metoffice.gov.uk/research/approach/collaboration/ukcp/climate-projections-land-maps",
        "gaps": "Altitude range not specified; coastal cliff versus inland buffering not differentiated.",
        "region_id": "pembrokeshire"
      }
    },
    {
      "type": "Feature",
      "geometry": {
        "type": "Point",
        "coordinates": [
          3.85,
          44.2
        ]
      },
      "properties": {
        "primary_buffering_features": [
          "altitude",
          "mountain_shelter"
        ],
        "altitude_range_m": "200-1500 m",
        "buffering_strength": "moderate",
        "buffering_notes": "Climate.md identifies Mont Lozere, Aigoual, and Mejean plateau as elevation-mediated climate refugia where mean July maxima at 1500 m remain ~22-24C even under +2C global warming.",
        "primary_vulnerability_signal": "cevenol autumn flash-flood storms with debris-flow risk",
        "trajectory_under_warming": "volatile",
        "trajectory_notes": "Southern France warming above the national +1.7 to 2.7C trajectory; maximum daily autumn precipitation up ~30% since mid-20th century; summer precipitation projected down 15 to 25% by 2050.",
        "data_confidence": "medium",
        "source": "Meteo-France DRIAS 2024; WorldClim CMIP6 v2.1",
        "source_url": "https://www.drias-climat.fr/",
        "gaps": "Lower-slope versus high-plateau microclimate boundaries not mapped quantitatively.",
        "region_id": "cevennes"
      }
    },
    {
      "type": "Feature",
      "geometry": {
        "type": "Point",
        "coordinates": [
          11.35,
          46.5
        ]
      },
      "properties": {
        "primary_buffering_features": [
          "altitude",
          "mountain_shelter",
          "valley_inversion"
        ],
        "altitude_range_m": "250-1400 m",
        "buffering_strength": "very_high",
        "buffering_notes": "Climate.md describes a 1000-metre altitudinal gradient as a climate-selection lever; a settlement at 1000 m today experiences a climate similar to the Bolzano valley floor of 1950.",
        "primary_vulnerability_signal": "glacier-fed irrigation baseflow loss and debris flows",
        "trajectory_under_warming": "worsening",
        "trajectory_notes": "Alpine warming roughly twice the global mean; Ortles-Cevedale and Stubai glaciers lost over 30% of 1980 ice volume by 2024; more debris flows and convective storms since 2000.",
        "data_confidence": "high",
        "source": "WorldClim CMIP6 v2.1 (2024); Bucchignani et al. Scientific Data 2023; Crespi et al. Scientific Reports 2020; EURAC",
        "source_url": "https://www.nature.com/articles/s41597-023-02144-9",
        "gaps": "Valley-inversion frequency and cold-air-pooling sites not enumerated.",
        "region_id": "south-tirol"
      }
    },
    {
      "type": "Feature",
      "geometry": {
        "type": "Point",
        "coordinates": [
          -5.85,
          43.3
        ]
      },
      "properties": {
        "primary_buffering_features": [
          "coastal_moderation",
          "mountain_shelter",
          "altitude"
        ],
        "altitude_range_m": "0-1000+ m",
        "buffering_strength": "very_high",
        "buffering_notes": "Climate.md frames Asturias as buffered against extreme heat by Atlantic maritime influence with an abrupt coast-to-Cordillera-Cantabrica gradient and IPCC-recognised cool-temperate refugia above 1000 m.",
        "primary_vulnerability_signal": "intense Atlantic storms and AMOC-shift tail risk",
        "trajectory_under_warming": "stable",
        "trajectory_notes": "Projected +1.5 to 2.0C by mid-century; Atlantic regime moderates the broader Spanish 14 to 20% rainfall decline projected for 2050.",
        "data_confidence": "medium",
        "source": "WorldClim CMIP6 v2.1 (2024); AEMET 2023; MDPI Land 14:85 (2025)",
        "source_url": "https://www.mdpi.com/2073-445X/14/1/85",
        "gaps": "Specific upper altitude limit for habitable buffering not stated.",
        "region_id": "asturias"
      }
    },
    {
      "type": "Feature",
      "geometry": {
        "type": "Point",
        "coordinates": [
          11.6,
          51.95
        ]
      },
      "properties": {
        "primary_buffering_features": [],
        "altitude_range_m": null,
        "buffering_strength": "very_low",
        "buffering_notes": "Climate.md flags the central loess plain as exposed within Germany's primary inland-drought zone (Mitteldeutsches Trockengebiet); only the Harz foothills offer some microclimate variability.",
        "primary_vulnerability_signal": "summer drought and groundwater drawdown",
        "trajectory_under_warming": "worsening",
        "trajectory_notes": "Projected +1.8 to 2.5C by mid-century with pronounced drying trend; 2018, 2019, 2020, and 2022 summers already caused major agricultural impacts.",
        "data_confidence": "medium",
        "source": "WorldClim CMIP6 v2.1 (2024); DWD; PMC11322161 (2024); World Bank CCKP Germany",
        "source_url": "https://pmc.ncbi.nlm.nih.gov/articles/PMC11322161/",
        "gaps": "Harz-foothill altitude buffering not quantified; only flagged qualitatively.",
        "region_id": "saxony-anhalt"
      }
    },
    {
      "type": "Feature",
      "geometry": {
        "type": "Point",
        "coordinates": [
          25.0,
          58.6
        ]
      },
      "properties": {
        "primary_buffering_features": [
          "coastal_moderation"
        ],
        "altitude_range_m": null,
        "buffering_strength": "moderate",
        "buffering_notes": "Climate.md notes Saaremaa coastal sites are 2-3C warmer in winter than mainland southeast due to Baltic moderation, with less snow but more wind-storm exposure.",
        "primary_vulnerability_signal": "shrinking winter snow regime and Baltic Sea ecosystem shifts",
        "trajectory_under_warming": "worsening",
        "trajectory_notes": "Northern latitudes amplify warming; +2.0 to 2.5C by mid-century, with Baltic SST projected +2 to 4C by 2100; growing season expands 2 to 4 weeks.",
        "data_confidence": "medium",
        "source": "WorldClim CMIP6 v2.1 (2024); Estonian Weather Service; World Bank CCKP Estonia; PMC4447695 (2015)",
        "source_url": "https://climateknowledgeportal.worldbank.org/country/estonia/climate-data-projections",
        "gaps": "Estonia is low-altitude with no mountain buffering; dossier does not give an altitude range.",
        "region_id": "estonia-rural"
      }
    },
    {
      "type": "Feature",
      "geometry": {
        "type": "Point",
        "coordinates": [
          -5.1,
          57.8
        ]
      },
      "properties": {
        "primary_buffering_features": [
          "coastal_moderation",
          "altitude",
          "peat_water_storage"
        ],
        "altitude_range_m": "4-883 m (339 sampled points)",
        "buffering_strength": "high",
        "buffering_notes": "WorldClim 17-GCM SSP2-4.5 mean annual temperature 8.6 C for 2041-2060 over the footprint (7.2 C in 1970-2000), cool and oceanic with a 4-883 m elevation spread; blanket peat covers much of the ground (SoilGrids 0-30 cm carbon mean 305 g/kg), though its water-storage role was not measured here.",
        "primary_vulnerability_signal": "heavier winter rain on steep, peaty ground (flood and landslip), drier summers and more frequent drought, and wildfire; magnitudes for this footprint not opened",
        "trajectory_under_warming": "volatile",
        "trajectory_notes": "Adaptation Scotland's UKCP18 summary (RCP-based, August 2025): Scottish winter rainfall +11 percent by 2050 on a high pathway (10th-90th percentile -19 to +44), larger in the west; summer rainfall -8 percent; snow losses smaller in the mountains than low ground. About +1.4 C in the WorldClim ensemble against 1970-2000.",
        "data_confidence": "medium",
        "source": "WorldClim CMIP6 v2.1; Adaptation Scotland, Climate Projections for Scotland - Summary (Met Office UKCP18, August 2025)",
        "source_url": "https://adaptation.scot/app/uploads/2025/08/low-res-6440-climate-projections-report-aug-25.pdf",
        "gaps": "Flood, landslip and wildfire magnitudes for the footprint, peat depth and Highland-specific UKCP18 values were not opened.",
        "region_id": "scottish-highlands"
      }
    },
    {
      "type": "Feature",
      "geometry": {
        "type": "Point",
        "coordinates": [
          29.7,
          63.3
        ]
      },
      "properties": {
        "primary_buffering_features": [
          "lake_effect",
          "forest_canopy",
          "peat_water_storage"
        ],
        "altitude_range_m": "72-296 (Global Solar Atlas elevation at 318 sample points; summits and fells are higher)",
        "buffering_strength": "moderate",
        "buffering_notes": "FMI describes North Karelia as a continental province split between a thermally favourable lake region (Höytiäinen, Pyhäselkä, Pielinen valley) and barren watershed uplands, and Kainuu as typically continental: annual mean 1991-2020 about +2 to +4 C in North Karelia, large seasonal swings, harsh frosts and heat spells under Russian high pressure. Lakes and the peat that covers 32 to 45 percent of forestry land store water and moderate local temperature.",
        "primary_vulnerability_signal": "shorter snow season and milder, wetter winters",
        "trajectory_under_warming": "worsening",
        "trajectory_notes": "FMI (CMIP5 RCP scenarios, context only): warming of about 1.8-5.6 C in North Karelia and 1.9-5.8 C in Kainuu this century against 1981-2010, largest from November to March; precipitation +6 to +16% (North Karelia) and +6 to +17% (Kainuu); 1991-2020 already about 0.6 C warmer than 1981-2010. Snow depth in mid-March is 50-70 cm now (70-80 cm on the uplands). WorldClim SSP2-4.5 2041-2060 footprint mean is 5.4 C.",
        "data_confidence": "medium",
        "source": "Finnish Meteorological Institute ilmasto-opas: Pohjois-Karjala and Kainuu regional climate articles (updated 2022); WorldClim CMIP6 v2.1",
        "source_url": "https://www.ilmasto-opas.fi/artikkelit/pohjois-karjala-mantereinen-maakunta",
        "gaps": "Spruce bark-beetle and forest-damage stress named in pre-research was not verified; FMI scenarios are CMIP5-based and cannot be relabelled SSP2-4.5.",
        "region_id": "north-karelia-kainuu"
      }
    },
    {
      "type": "Feature",
      "geometry": {
        "type": "Point",
        "coordinates": [
          2.0,
          45.65
        ]
      },
      "properties": {
        "primary_buffering_features": [
          "altitude",
          "forest_canopy",
          "peat_water_storage"
        ],
        "altitude_range_m": "300-1000 m",
        "buffering_strength": "moderate",
        "buffering_notes": "Plateau of 300 to 1,000 m (Parc); about 20% of the Parc is wetland and 3.4% peatland (Parc), rainfall 800 to 1,600 mm a year, forest about half the area. Footprint mean temperature in the 1970-2000 normal was 9.7 C (cells 8.4 to 11.3).",
        "primary_vulnerability_signal": "repeated summer droughts (named by the Parc) and the climate risks its forest charter lists: water resource, fire access, dieback",
        "trajectory_under_warming": "worsening",
        "trajectory_notes": "WorldClim 17-GCM mean for 2041-2060 under SSP2-4.5 is 12.0 C against 9.7 C in 1970-2000: +2.3 C (individual GCMs +1.4 to +3.6). Rainfall projections were not opened.",
        "data_confidence": "medium",
        "source": "WorldClim 2.1 (historical and CMIP6) zonal means; Parc naturel régional de Millevaches (aquatic milieux; forest charter)",
        "source_url": "https://www.worldclim.org/data/cmip6/cmip6climate.html",
        "gaps": "No precipitation or drought-index projection opened; fire and dieback risk named by the Parc but not quantified.",
        "region_id": "millevaches"
      }
    },
    {
      "type": "Feature",
      "geometry": {
        "type": "Point",
        "coordinates": [
          -1.2,
          40.5
        ]
      },
      "properties": {
        "primary_buffering_features": [
          "altitude"
        ],
        "altitude_range_m": "643-1,695 m (municipal seats); sampled terrain 677-1,936 m",
        "buffering_strength": "moderate",
        "buffering_notes": "Mean temperature in the footprint is about 10.3 C (1970-2000) against warmer lowlands within 120-150 km (Zaragoza, Valencia); the 640-1,700 m relief gives cold winters and cooler summers than the Ebro valley and the coast. Altitude is the only buffer named here: the interior has no sea or lake influence, and it swings between cold winters and hot dry summers.",
        "primary_vulnerability_signal": "drought and wildfire on a water-short, warming upland (WorldClim +2.5 C by 2041-2060 on 1970-2000; Aqueduct 2050 extremely high; Aliaga fire 2009: 7,301 ha)",
        "trajectory_under_warming": "worsening",
        "trajectory_notes": "Footprint mean 10.3 C (1970-2000) to 12.7 C (2041-2060, SSP2-4.5, 17 GCMs; range 11.9-13.7); the marker cell goes from 11.1 to 13.6 C. The altitude margin against the hot Ebro and Valencian lowlands persists but erodes, and water and fire are the binding limits, not heat.",
        "data_confidence": "medium",
        "source": "WorldClim 2.1 (1970-2000) and CMIP6 SSP2-4.5 2041-2060, computed 2026-10-04; WRI Aqueduct 4.0; Hansen GFC v1.11",
        "source_url": "https://www.worldclim.org/data/cmip6/cmip6climate.html",
        "gaps": "AEMET and AdapteCCa regional scenarios not opened; no frost-day or heat-day indices; altitude as the only named buffering feature (no coast, lake or large forest-canopy claim verified).",
        "region_id": "teruel-uplands"
      }
    },
    {
      "type": "Feature",
      "geometry": {
        "type": "Point",
        "coordinates": [
          7.1,
          44.45
        ]
      },
      "properties": {
        "primary_buffering_features": [
          "altitude",
          "mountain_shelter"
        ],
        "altitude_range_m": "543-2,923 m (sampled at 107 grid points; summits are higher)",
        "buffering_strength": "high",
        "buffering_notes": "Lapse rate about 0.59 C per 100 m in WorldClim 2041-2060 cells: the 500-1,500 m band where people live is about 11.9 C against 8.2 C for the whole valley, and 3.8 C above 2,200 m. Newcomers in Pettenati's study settled sunny-slope borgate (solana) away from the main road.",
        "primary_vulnerability_signal": "Summer drought, heavy-rain flooding and heat are the local risks to watch; ARPA Piemonte calls the Alps a climate-change 'hotspot' (warming above the global trend) and its scenarios show wetter winters and drier summers",
        "trajectory_under_warming": "worsening",
        "trajectory_notes": "WorldClim 17-GCM SSP2-4.5: +2.5 C between 1970-2000 and 2041-2060 over the footprint (settlement band 9.3 to 11.9 C). ARPA Piemonte scenarios: about +2 C by 2100 under RCP4.5, more above 700 m; winter precipitation +10-15 percent, summer drying up to 30 percent under RCP8.5. Recent local flood and landslide events (including October 2020) not verified.",
        "data_confidence": "medium",
        "source": "WorldClim CMIP6 v2.1 (computed); ARPA Piemonte, Scenari climatici futuri in Piemonte and Impatti del cambiamento climatico; Pettenati 2013",
        "source_url": "https://www.arpa.piemonte.it/scheda-informativa/scenari-climatici-futuri-piemonte",
        "gaps": "Aspect (solana versus ombra) and valley-inversion frequency not quantified; observed Maira discharge and snow-line trend not opened; Oct 2020 event not verified.",
        "region_id": "valle-maira"
      }
    },
    {
      "type": "Feature",
      "geometry": {
        "type": "Point",
        "coordinates": [
          -123.0,
          44.5
        ]
      },
      "properties": {
        "primary_buffering_features": [
          "coastal_moderation"
        ],
        "altitude_range_m": null,
        "buffering_strength": "high",
        "buffering_notes": "Climate.md cites an NCA5 projection that the Pacific Northwest will have the fewest very-hot days of any contiguous US region through 2060, because marine airflow in western Cascadia buffers inland heat; this was not checked against the chapter text (not verified).",
        "primary_vulnerability_signal": "late-summer wildfire smoke and heat-dome tail risk",
        "trajectory_under_warming": "worsening",
        "trajectory_notes": "Projected +1.5 to 2.0C by mid-century; 2021 heat dome (Portland 46.7C) attribution studies indicate such events become 2-3x more likely by 2060; AQI above 150 days increasing.",
        "data_confidence": "medium",
        "source": "WorldClim CMIP6 v2.1 (2024); NCA5 Chapter 27; PRISM 1991-2020; Philip et al. WWA 2022",
        "source_url": "https://nca5.climate.us/chapter/27/",
        "gaps": "Willamette Valley altitude band not given numerically.",
        "region_id": "cascadia"
      }
    },
    {
      "type": "Feature",
      "geometry": {
        "type": "Point",
        "coordinates": [
          -72.7,
          44.0
        ]
      },
      "properties": {
        "primary_buffering_features": [
          "forest_canopy"
        ],
        "altitude_range_m": null,
        "buffering_strength": "moderate",
        "buffering_notes": "Climate.md describes Vermont as wet, green, and free of heat-stress extremes; the design-relevant risk is precipitation intensity rather than thermal collapse.",
        "primary_vulnerability_signal": "flash flooding on river-bottomlands per Irene 2011 and 2023 events",
        "trajectory_under_warming": "worsening",
        "trajectory_notes": "NCA5 names the Northeast as the fastest-warming region in the contiguous US; +1.7 to 2.5C by mid-century with heat-index above 38C tripling by mid-century.",
        "data_confidence": "medium",
        "source": "NOAA NCEI 1991-2020; Vermont Climate Assessment 2021 (UVM Gund); NCA5 Chapter 21; WorldClim CMIP6 v2.1",
        "source_url": "https://nca5.climate.us/chapter/21/",
        "gaps": "Specific altitude buffering bands for the Green Mountains not enumerated in climate.md.",
        "region_id": "vermont"
      }
    },
    {
      "type": "Feature",
      "geometry": {
        "type": "Point",
        "coordinates": [
          -82.6,
          35.6
        ]
      },
      "properties": {
        "primary_buffering_features": [
          "altitude",
          "forest_canopy",
          "mountain_shelter"
        ],
        "altitude_range_m": "~670 m and above",
        "buffering_strength": "high",
        "buffering_notes": "Climate.md credits Asheville's ~670 m elevation for holding the baseline MAT to 13.5C and notes Appalachian highland zones track the lower end of the regional warming range due to elevation buffering; ridges shelter from Gulf tropical systems.",
        "primary_vulnerability_signal": "extreme-precipitation flash flooding per Tropical Storm Helene 2024",
        "trajectory_under_warming": "volatile",
        "trajectory_notes": "Projected +1.5 to 2.0C mean warming by mid-century; extreme-heat days above 31.8C projected to rise from ~7/yr to ~45/yr by 2050; annual precipitation rising from ~940 to ~1215 mm.",
        "data_confidence": "medium",
        "source": "WorldClim CMIP6 v2.1 (2024); NCA5 Chapter 22; NOAA NCEI; NC Climate Office; ClimateCheck 2025",
        "source_url": "https://nca5.climate.us/chapter/22/",
        "gaps": "Upper altitude range and ridge-specific buffering not quantified.",
        "region_id": "southern-appalachians"
      }
    },
    {
      "type": "Feature",
      "geometry": {
        "type": "Point",
        "coordinates": [
          -90.8,
          43.5
        ]
      },
      "properties": {
        "primary_buffering_features": [
          "forest_canopy",
          "valley_inversion"
        ],
        "altitude_range_m": null,
        "buffering_strength": "moderate",
        "buffering_notes": "Climate.md notes the karst and deep-coulee topography handles intense rain events better than flat tilled land but does not describe explicit thermal-buffering features.",
        "primary_vulnerability_signal": "precipitation volatility with more intense rain interspersed with dry spells",
        "trajectory_under_warming": "worsening",
        "trajectory_notes": "WICCI projects +2.3C statewide warming by 2041-2060 with 90F+ days rising from 9 to 26 per year; trajectory called the most benign in the framework but still substantial.",
        "data_confidence": "high",
        "source": "Wisconsin State Climatology Office; WICCI 2024; NCA5 Great Lakes Chapter; WorldClim CMIP6 v2.1",
        "source_url": "https://wicci.wisc.edu/the-future-of-wisconsin-climate/",
        "gaps": "Coulee-versus-ridge thermal differential not quantified; no altitude range given.",
        "region_id": "driftless"
      }
    },
    {
      "type": "Feature",
      "geometry": {
        "type": "Point",
        "coordinates": [
          -92.8,
          36.3
        ]
      },
      "properties": {
        "primary_buffering_features": [
          "altitude",
          "forest_canopy"
        ],
        "altitude_range_m": "300-700 m",
        "buffering_strength": "moderate",
        "buffering_notes": "Climate.md states ridgeline and plateau sites at 500-700 m run 3-5C cooler than valley floors in summer, extending the comfortable working season.",
        "primary_vulnerability_signal": "intensifying dry-spell to flood cycle with diminishing summer baseflow",
        "trajectory_under_warming": "worsening",
        "trajectory_notes": "Projected +2.0 to 2.5C above 1991-2020 by mid-century, pushing the region firmly into humid subtropical territory; days above 38C roughly doubling.",
        "data_confidence": "medium",
        "source": "NOAA NCEI 1991-2020; NWS Tulsa; NOAA NCICS Arkansas 2022; NCA5 Chapter 22; KSMU 2025",
        "source_url": "https://nca5.climate.us/chapter/22/",
        "gaps": "Specific ridge versus valley microclimate maps not in dossier.",
        "region_id": "ozarks"
      }
    },
    {
      "type": "Feature",
      "geometry": {
        "type": "Point",
        "coordinates": [
          -105.6,
          36.4
        ]
      },
      "properties": {
        "primary_buffering_features": [
          "altitude",
          "mountain_shelter"
        ],
        "altitude_range_m": "2100-2400 m",
        "buffering_strength": "moderate",
        "buffering_notes": "Climate.md frames the 2100 m elevation as the region's greatest climate asset and also its greatest illusion, currently below physiological heat danger but eroding fast.",
        "primary_vulnerability_signal": "landscape-scale wildfire per Hermits Peak/Calf Canyon 2022",
        "trajectory_under_warming": "worsening",
        "trajectory_notes": "New Mexico warmed 1.85C between 1970 and 2018, the fastest of any contiguous US state; the NOAA State Climate Summary for New Mexico (2022) says annual average temperatures are projected to most likely exceed historical record levels by the middle of this century even under a lower emissions pathway.",
        "data_confidence": "medium",
        "source": "WorldClim CMIP6 v2.1 (2024); NOAA NCEI State Climate Summary, New Mexico (2022); Sillmann et al. ESEv 2022; 350newmexico.org",
        "source_url": "https://statesummaries.ncics.org/chapter/nm/",
        "gaps": "Sangre de Cristo upper altitude limits for habitable buffering not exhaustively given.",
        "region_id": "northern-new-mexico"
      }
    },
    {
      "type": "Feature",
      "geometry": {
        "type": "Point",
        "coordinates": [
          -63.0,
          45.4
        ]
      },
      "properties": {
        "primary_buffering_features": [
          "coastal_moderation"
        ],
        "altitude_range_m": null,
        "buffering_strength": "very_high",
        "buffering_notes": "Climate.md identifies the Atlantic Ocean as regulating temperature year-round, keeping the feels-like summer ceiling substantially lower than continental interior comparators like Ottawa or Montreal.",
        "primary_vulnerability_signal": "intensifying noreasters, ice storms, and emerging wildfire risk",
        "trajectory_under_warming": "worsening",
        "trajectory_notes": "Provincial projection of +2.6C by mid-century lifting MAT toward 9.3C; 2023 Upper Tantallon and 2025 fires were the province's most destructive on record; the +2.6C figure behind the 9.3C mean annual temperature could not be read on the replacement source (not verified).",
        "data_confidence": "medium",
        "source": "ClimateData.ca (replaces the provincial Changing Climate page, which blocks scripted requests); WorldClim CMIP6 v2.1; ECCC normals",
        "source_url": "https://climatedata.ca/",
        "gaps": "Cape Breton Highlands altitude band quantified only as 1-2C colder than provincial mean.",
        "region_id": "nova-scotia"
      }
    },
    {
      "type": "Feature",
      "geometry": {
        "type": "Point",
        "coordinates": [
          -117.0,
          49.5
        ]
      },
      "properties": {
        "primary_buffering_features": [
          "altitude",
          "mountain_shelter"
        ],
        "altitude_range_m": "540-1200 m",
        "buffering_strength": "high",
        "buffering_notes": "Climate.md calls the altitudinal gradient the region's most valuable climate-adaptation lever; a settlement at 900 m today experiences roughly what the valley floor experienced in the 1970s.",
        "primary_vulnerability_signal": "mega-fire season and shrinking glacial summer baseflow",
        "trajectory_under_warming": "worsening",
        "trajectory_notes": "Columbia Basin projected 2.5 to 3.5C warmer than 1960s by 2050s; 2023 BC fire season burned over 2.84 million ha (more than double any prior year) with Drought Level 5 in the Kootenays.",
        "data_confidence": "high",
        "source": "ClimateNA / AdaptWest CMIP6 SSP2-4.5; Nelson Climate Profile 2022; ClimateData.ca; BC Wildfire Service 2023",
        "source_url": "https://nelson.bc.libraries.coop/files/2022/09/ClimateProfile_Nelson.pdf",
        "gaps": "Glacier-loss timing relative to settlement horizons not fully resolved.",
        "region_id": "kootenays"
      }
    },
    {
      "type": "Feature",
      "geometry": {
        "type": "Point",
        "coordinates": [
          -72.0,
          45.4
        ]
      },
      "properties": {
        "primary_buffering_features": [
          "forest_canopy"
        ],
        "altitude_range_m": null,
        "buffering_strength": "moderate",
        "buffering_notes": "Climate.md describes Estrie as a moderate climate zone with reliable snowpack feeding spring soil moisture across rolling Appalachian terrain, but no explicit mountain-shelter or coastal-moderation feature.",
        "primary_vulnerability_signal": "rising flash-flood risk from precipitation intensity",
        "trajectory_under_warming": "stable",
        "trajectory_notes": "Ouranos projects +2 to 3C for southern Quebec under SSP3-7.0 with SSP2-4.5 at the low end (~2C); frost-free period lengthens 2 to 3 weeks; growing season net-positive for regen operations.",
        "data_confidence": "medium",
        "source": "Environment Canada 1981-2010 Normals; Ouranos CMIP6 / ESPO-G6-R2; WorldClim CMIP6 v2.1",
        "source_url": "https://www.ouranos.ca/en/climate-phenomena/temperatures-projected-changes",
        "gaps": "Altitude band of the southern Appalachian foothills not numerically given.",
        "region_id": "quebec-eastern-townships"
      }
    },
    {
      "type": "Feature",
      "geometry": {
        "type": "Point",
        "coordinates": [
          -96.7,
          17.1
        ]
      },
      "properties": {
        "primary_buffering_features": [
          "altitude",
          "mountain_shelter"
        ],
        "altitude_range_m": "1550-2500 m",
        "buffering_strength": "very_high",
        "buffering_notes": "Climate.md calls altitude the primary site-selection variable; a Sierra Norte settlement at 1800-2500 m gains 2-4C of thermal buffer and remains temperate through 2050 under SSP2-4.5, arguably the most climate-resilient band in the North American regen landscape.",
        "primary_vulnerability_signal": "intensifying dry season requiring storage and fog-harvest",
        "trajectory_under_warming": "worsening",
        "trajectory_notes": "South-southeast Mexico projected +1.5 to 2.0C by 2041-2060 with dry-season (March-May) temperatures warming fastest at +1.8C; Oaxaca named among states with most high-exposure municipalities.",
        "data_confidence": "medium",
        "source": "Vazquez-Aguirre et al. MDPI Climate 11(5):111 (2023); WorldClim CMIP6 v2.1; World Bank CCKP Mexico",
        "source_url": "https://www.mdpi.com/2225-1154/11/5/111",
        "gaps": "Cloud-forest fog-belt elevation not quantified beyond night-frost above 2500 m.",
        "region_id": "oaxaca"
      }
    },
    {
      "type": "Feature",
      "geometry": {
        "type": "Point",
        "coordinates": [
          -76.75,
          42.55
        ]
      },
      "properties": {
        "primary_buffering_features": [
          "lake_effect",
          "forest_canopy"
        ],
        "altitude_range_m": "73-607",
        "buffering_strength": "moderate",
        "buffering_notes": "Cayuga (133 m) and Seneca (188 m) lakes are among the deepest in the US; per Wikipedia their lake effect retains summer warmth in winter and winter cold in spring. Footprint elevation 73-607 m (Global Solar Atlas sample). Forest cover is 42 percent of the footprint (Hansen, canopy 30 percent or more). Pre-research claim tested: water stress is very low (0.015) but 2041-2060 mean temperature (11.2 C) is mid-slate and no drought or heat-day dataset was opened, so 'less heat-and-drought-exposed' is only partly supported.",
        "primary_vulnerability_signal": "heavy rain and flash flooding: NCA5 reports Northeast extreme precipitation events up about 60 percent, the largest increase in the US",
        "trajectory_under_warming": "worsening",
        "trajectory_notes": "WorldClim mean annual temperature 8.1 C (1970-2000) to 11.2 C (2041-2060, SSP2-4.5 17-GCM mean), +3.1 C; Aqueduct 2050 BAU stress 0.0149 vs baseline 0.0127.",
        "data_confidence": "medium",
        "source": "WorldClim CMIP6 v2.1 and WorldClim 2.1 historical; NCA5 Chapter 21; Wikipedia, Finger Lakes; Hansen GFC v1.11",
        "source_url": "https://nca5.climate.us/chapter/21/",
        "gaps": "Heat-day and drought indices; flood-zone mapping; lake-effect quantification (4 km grid cannot resolve it).",
        "region_id": "finger-lakes"
      }
    },
    {
      "type": "Feature",
      "geometry": {
        "type": "Point",
        "coordinates": [
          -78.2,
          38.0
        ]
      },
      "properties": {
        "primary_buffering_features": [
          "forest_canopy"
        ],
        "altitude_range_m": "68-171 (Global Solar Atlas elevation at 59 footprint points)",
        "buffering_strength": "low",
        "buffering_notes": "Low, rolling Piedmont with 70% tree cover (Hansen year-2000 canopy 30% or more); no altitude, coastal or lake moderation of note. The Blue Ridge lies to the west, outside the footprint.",
        "primary_vulnerability_signal": "heat and extreme rainfall; NOAA names severe thunderstorms, tropical storms, hurricanes, drought and heat waves for Virginia; the 2011 M5.8 earthquake was centred in Louisa County (not a climate signal)",
        "trajectory_under_warming": "worsening",
        "trajectory_notes": "WorldClim SSP2-4.5 ensemble 16.1 C by 2041-2060 against about 14.3 C today; NOAA State Climate Summary 2022: more intense droughts and more frequent extreme heat and extreme precipitation projected; cold waves less intense.",
        "data_confidence": "medium",
        "source": "WorldClim CMIP6 v2.1; NOAA NCEI State Climate Summaries 2022, Virginia; Global Solar Atlas",
        "source_url": "https://statesummaries.ncics.org/chapter/va/",
        "gaps": "No hurricane-remnant or flood-zone analysis; Virginia Climate Center not opened.",
        "region_id": "virginia-piedmont"
      }
    },
    {
      "type": "Feature",
      "geometry": {
        "type": "Point",
        "coordinates": [
          -68.9,
          47.9
        ]
      },
      "properties": {
        "primary_buffering_features": [
          "altitude",
          "forest_canopy"
        ],
        "altitude_range_m": "0 to about 930 (Global Solar Atlas elevations at 315 sample points; p10-p90 134-484 m)",
        "buffering_strength": "moderate",
        "buffering_notes": "84% of the footprint was forest of 30% canopy or more in 2000 (Hansen) and the foothill ridges rise to about 930 m. Coastal moderation by the estuary is plausible but was not measured or sourced, so it is not listed as a feature.",
        "primary_vulnerability_signal": "Warming of about 3.3 °C from the 1970-2000 baseline (2.0 °C) to 2041-2060 (5.3 °C, SSP2-4.5 ensemble), and a spruce-budworm outbreak mapped here from 2012 (9,436 ha) and 2013 (61,184 ha) alongside canopy loss that rose about 60% after 2013",
        "trajectory_under_warming": "worsening",
        "trajectory_notes": "Observed state plus trajectory: Hansen forest loss 0.37-0.84% a year in 2001-2012 and 0.51-1.03% a year in 2013-2023 (net -3.4 %/decade); Ouranos gives +2 to 3 °C by 2050 for southern Québec under SSP3-7.0 relative to 1991-2020. Winter warming, freeze-thaw, estuary ice-cover loss and coastal erosion (an expectation from pre-research) were not verified from an opened source and are left out.",
        "data_confidence": "medium",
        "source": "WorldClim CMIP6 v2.1; Hansen GFC v1.11; MRNF Québec spruce budworm aerial survey; Ouranos",
        "source_url": "https://www.ouranos.ca/en/climate-phenomena/temperatures-projected-changes",
        "gaps": "Estuary ice-cover, coastal erosion and winter-warming figures for Bas-Saint-Laurent not sourced; WorldClim baseline period (1970-2000) differs from Ouranos' (1991-2020).",
        "region_id": "bas-saint-laurent"
      }
    },
    {
      "type": "Feature",
      "geometry": {
        "type": "Point",
        "coordinates": [
          -92.0,
          40.5
        ]
      },
      "properties": {
        "primary_buffering_features": [
          "forest_canopy"
        ],
        "altitude_range_m": "150-325",
        "buffering_strength": "low",
        "buffering_notes": "Continental interior, 150 to 325 m (Global Solar Atlas elevation at 179 footprint points; mean 235 m), with no coast, mountains or large lake. Tree cover is only 23.5 percent of the footprint (Hansen, year 2000), so canopy buffering is patchy.",
        "primary_vulnerability_signal": "mean annual temperature rising about 3.3 C by 2041-2060 on a flat-to-dissected continental landscape; precipitation baseline 940 mm per year (WorldClim 1970-2000)",
        "trajectory_under_warming": "worsening",
        "trajectory_notes": "WorldClim 1970-2000 baseline BIO1 10.7 C over the footprint; CMIP6 SSP2-4.5 2041-2060 17-model mean 13.9 C (models 12.4 to 15.3). Rainfall extremes, flood and drought swings are the pre-research expectation and were not verified here.",
        "data_confidence": "medium",
        "source": "WorldClim v2.1 baseline and CMIP6 SSP2-4.5 (computed); Global Solar Atlas elevation; Hansen GFC v1.11",
        "source_url": "https://www.worldclim.org/data/cmip6/cmip6climate.html",
        "gaps": "Heavy-rain, flood and drought statistics from state climatologists not retrieved; NCA5 Midwest chapter host did not resolve.",
        "region_id": "ne-missouri-se-iowa"
      }
    },
    {
      "type": "Feature",
      "geometry": {
        "type": "Point",
        "coordinates": [
          -67.6,
          44.9
        ]
      },
      "properties": {
        "primary_buffering_features": [
          "coastal_moderation",
          "forest_canopy"
        ],
        "altitude_range_m": "5-222 (Global Solar Atlas elevation at 160 land sample points)",
        "buffering_strength": "moderate",
        "buffering_notes": "A cold-water coast (Gulf of Maine and Bay of Fundy) and a county that is about 93% forest by area (Hansen year-2000 canopy of 30% or more) hold WorldClim's 2041-2060 mean annual temperature to 9.0 C (17-GCM mean, range 7.8 to 10.7). The coastal-versus-inland gradient (fog, summer highs) was not quantified from a primary source, so strength is rated moderate.",
        "primary_vulnerability_signal": "sea-level rise and storm-surge flooding on the coast (Machias tide gauge during the 10 and 13 January 2024 storms), a Gulf of Maine warming nearly three times faster than the world ocean, hydrologic drought and well stress, and rising tick-borne disease",
        "trajectory_under_warming": "worsening",
        "trajectory_notes": "Maine has warmed about 3.5 F since the late 1800s and the 10 warmest years on record have all occurred since 1998; annual precipitation +15% over the last century; sea level rise rate along four tide gauges (including Eastport) is 75% faster in 1996-2025 than over the long record; Lyme disease, anaplasmosis and babesiosis cases have risen in Maine (Maine had the third-highest Lyme rate in 2023 per US CDC). The Gulf of Maine has cooled somewhat in the past couple of years: STS calls this a pause in warming, not a reversal. GMRI: 0.84 F per decade 1982-2024 against 0.3 F for the world ocean.",
        "data_confidence": "medium",
        "source": "Maine Climate Council Scientific and Technical Subcommittee, 2026 Interim Climate Science Report; Gulf of Maine Research Institute, 2024 Gulf of Maine Warming Update; WorldClim CMIP6 v2.1",
        "source_url": "https://www.maine.gov/future/sites/maine.gov.future/files/2026-04/STS-Report-2026-v2.pdf",
        "gaps": "No county-scale projection from the Maine Climate Council; coastal-versus-inland temperature gradient and fog frequency not quantified; Eastport and Lubec surge exposure maps not opened.",
        "region_id": "downeast-maine"
      }
    }
  ]
}