{"type":"FeatureCollection","features":[{"type":"Feature","properties":{"n":"Jänisjoki","r":9},"geometry":{"type":"LineString","coordinates":[[30.782,62.095],[30.874,62.069]]}},{"type":"Feature","properties":{"n":"Jänisjoki","r":9},"geometry":{"type":"LineString","coordinates":[[31.083,62.396],[31.038,62.398],[30.948,62.456],[30.827,62.472],[30.796,62.504],[30.741,62.522],[30.672,62.504],[30.606,62.464],[30.43,62.45],[30.469,62.348],[30.47,62.313],[30.453,62.287],[30.484,62.263],[30.498,62.222],[30.572,62.195],[30.684,62.181],[30.782,62.095]]}},{"type":"Feature","properties":{"n":"Vienne","r":9},"geometry":{"type":"LineString","coordinates":[[1.98,45.704],[1.894,45.696],[1.871,45.71],[1.846,45.694],[1.831,45.716],[1.681,45.765],[1.557,45.783],[1.497,45.809],[1.397,45.902],[1.175,45.792],[1.054,45.876],[0.881,45.896],[0.751,45.884],[0.653,45.917],[0.688,46.089],[0.672,46.197],[0.692,46.231],[0.689,46.328],[0.705,46.385],[0.696,46.43],[0.639,46.513],[0.644,46.56],[0.612,46.593]]}},{"type":"Feature","properties":{"n":"Mio","r":9},"geometry":{"type":"LineString","coordinates":[[-7.258,43.194],[-7.377,43.261],[-7.417,43.247],[-7.46,43.179],[-7.536,43.177],[-7.607,43.127],[-7.623,43.087],[-7.617,43.055],[-7.522,42.965],[-7.517,42.93],[-7.569,42.844],[-7.679,42.736],[-7.685,42.711],[-7.723,42.691],[-7.705,42.615],[-7.717,42.574],[-7.694,42.553],[-7.713,42.491],[-7.852,42.359],[-8.046,42.339],[-8.141,42.269],[-8.189,42.206],[-8.163,42.175],[-8.188,42.162]]}},{"type":"Feature","properties":{"n":"Dora Baltea","r":9},"geometry":{"type":"MultiLineString","coordinates":[[[6.993,45.796],[7.105,45.746],[7.231,45.729],[7.303,45.749],[7.408,45.745],[7.523,45.765]],[[7.655,45.741],[7.673,45.686],[7.823,45.591],[7.842,45.516],[7.907,45.467],[7.948,45.37],[7.957,45.326],[7.946,45.313],[8.036,45.213]]]}},{"type":"Feature","properties":{"n":"Durance","r":9},"geometry":{"type":"MultiLineString","coordinates":[[[6.681,44.922],[6.581,44.84],[6.574,44.766],[6.603,44.681],[6.505,44.568],[6.391,44.549],[6.325,44.494],[6.259,44.468],[6.073,44.468],[5.956,44.396],[5.904,44.325],[5.92,44.306],[5.923,44.247],[5.955,44.222],[6.01,44.079],[5.924,43.993],[5.871,43.863],[5.759,43.736],[5.711,43.706],[5.577,43.666]],[[5.566,43.667],[5.414,43.695],[5.337,43.74],[5.193,43.749],[5.087,43.787],[4.906,43.895],[4.763,43.932]]]}},{"type":"Feature","properties":{"n":"Tarn","r":9},"geometry":{"type":"LineString","coordinates":[[3.585,44.219],[3.598,44.313],[3.557,44.373],[3.515,44.37],[3.478,44.347],[3.421,44.368],[3.313,44.324],[3.239,44.315],[3.219,44.231],[3.124,44.178],[3.077,44.109],[2.919,44.089],[2.905,44.075],[2.82,44.087],[2.715,44.019],[2.576,44.011],[2.467,43.951],[2.018,43.922]]}},{"type":"Feature","properties":{"n":"Ialomița","r":9},"geometry":{"type":"LineString","coordinates":[[25.43,45.338],[25.406,45.28],[25.443,45.213],[25.45,45.166],[25.427,45.111],[25.434,45.063],[25.402,45.024],[25.401,44.985],[25.431,44.955],[25.552,44.906],[25.695,44.816],[25.789,44.804],[25.823,44.783]]}},{"type":"Feature","properties":{"n":"Minho","r":9},"geometry":{"type":"LineString","coordinates":[[-8.751,41.969],[-8.671,42.0],[-8.628,42.051],[-8.347,42.102],[-8.188,42.162]]}},{"type":"Feature","properties":{"n":"Dordogne","r":8},"geometry":{"type":"MultiLineString","coordinates":[[[1.809,44.909],[1.673,44.935],[1.535,44.855],[1.502,44.855],[1.47,44.887],[1.448,44.888],[1.292,44.84],[1.254,44.847],[1.24,44.827],[1.192,44.813],[1.172,44.834],[1.154,44.821],[1.139,44.834],[1.103,44.827],[1.028,44.861],[1.004,44.834],[0.959,44.834],[0.91,44.861],[0.89,44.855],[0.865,44.886],[0.849,44.861],[0.805,44.887],[0.789,44.881],[0.791,44.852],[0.752,44.843],[0.456,44.857]],[[2.755,45.594],[2.64,45.618],[2.589,45.61],[2.523,45.564],[2.521,45.486],[2.496,45.405],[2.44,45.395],[2.353,45.42],[2.37,45.384],[2.36,45.359],[2.305,45.297],[2.248,45.279],[2.225,45.241],[2.038,45.221],[1.992,45.144],[1.9,45.077],[1.913,45.059],[1.857,45.056],[1.836,45.039],[1.843,44.967],[1.809,44.915]]]}},{"type":"Feature","properties":{"n":"Shannon","r":8},"geometry":{"type":"MultiLineString","coordinates":[[[-7.94,53.84],[-7.983,53.88]],[[-7.958,53.454],[-7.965,53.529],[-8.032,53.631],[-8.004,53.667]],[[-8.199,53.079],[-8.3,53.002],[-8.326,52.926],[-8.397,52.9],[-8.449,52.817]]]}},{"type":"Feature","properties":{"n":"Shannon","r":8},"geometry":{"type":"MultiLineString","coordinates":[[[-8.004,53.667],[-7.95,53.735],[-7.922,53.742],[-7.929,53.755],[-7.887,53.77],[-7.888,53.789],[-7.916,53.799],[-7.94,53.84]],[[-7.983,53.879],[-8.024,53.941],[-8.059,53.913],[-8.093,53.92],[-8.107,53.953],[-8.068,53.99],[-8.091,54.039],[-8.068,54.064]],[[-8.199,53.079],[-8.138,53.153],[-7.977,53.207],[-7.978,53.237],[-8.048,53.282],[-8.013,53.324],[-7.933,53.376],[-7.958,53.454]],[[-8.739,52.673],[-8.708,52.672],[-8.683,52.651],[-8.638,52.659],[-8.627,52.68],[-8.558,52.68],[-8.508,52.71],[-8.509,52.744],[-8.46,52.771],[-8.449,52.817]]]}},{"type":"Feature","properties":{"n":"Ness","r":8},"geometry":{"type":"LineString","coordinates":[[-4.676,57.148],[-4.51,57.252],[-4.344,57.394]]}},{"type":"Feature","properties":{"n":"Ness","r":8},"geometry":{"type":"LineString","coordinates":[[-4.226,57.494],[-4.23,57.465],[-4.344,57.394]]}},{"type":"Feature","properties":{"n":"Oich","r":8},"geometry":{"type":"LineString","coordinates":[[-4.969,56.928],[-4.836,57.01]]}},{"type":"Feature","properties":{"n":"Oich","r":8},"geometry":{"type":"LineString","coordinates":[[-4.836,57.01],[-4.675,57.148]]}},{"type":"Feature","properties":{"n":"Olt","r":8},"geometry":{"type":"LineString","coordinates":[[25.784,46.684],[25.801,46.622],[25.753,46.529],[25.76,46.384],[25.781,46.341],[25.855,46.303],[25.901,46.185],[25.825,46.022],[25.863,45.971],[25.855,45.923],[25.807,45.872],[25.805,45.833],[25.763,45.759],[25.671,45.752],[25.669,45.785],[25.567,45.841],[25.552,45.935],[25.567,46.039],[25.514,46.049],[25.488,46.02],[25.362,46.012],[25.369,45.985],[25.331,46.004],[25.258,45.975],[25.225,45.93],[25.206,45.928],[25.211,45.902],[25.192,45.897],[25.197,45.882],[25.149,45.858],[24.945,45.845],[24.415,45.765],[24.356,45.727],[24.354,45.71],[24.261,45.622],[24.249,45.563],[24.308,45.481],[24.3,45.457],[24.312,45.443],[24.31,45.378],[24.278,45.35],[24.283,45.321],[24.382,45.14],[24.375,45.094],[24.309,45.036],[24.245,44.915],[24.26,44.894],[24.254,44.861],[24.286,44.84],[24.286,44.748]]}},{"type":"Feature","properties":{"n":"Inn","r":8},"geometry":{"type":"LineString","coordinates":[[9.746,46.403],[9.756,46.438],[10.096,46.706],[10.09,46.748],[10.105,46.768],[10.299,46.807],[10.392,46.841],[10.461,46.89],[10.514,46.96],[10.654,47.062],[10.661,47.079],[10.639,47.117],[10.572,47.138],[10.57,47.158],[10.588,47.174],[10.703,47.219],[10.83,47.237],[10.876,47.269],[11.027,47.311],[11.369,47.275],[11.609,47.318],[11.822,47.417],[11.904,47.472],[12.044,47.511],[12.141,47.578],[12.206,47.646],[12.202,47.678],[12.143,47.735]]}},{"type":"Feature","properties":{"n":"Adige","r":8},"geometry":{"type":"LineString","coordinates":[[10.711,46.827],[10.645,46.845],[10.539,46.813],[10.53,46.712],[10.615,46.651],[10.714,46.633],[10.909,46.631],[11.118,46.687],[11.176,46.629],[11.203,46.568],[11.307,46.485],[11.312,46.439],[11.24,46.28],[11.146,46.221],[11.082,46.157],[11.115,46.082],[11.119,46.005],[11.089,45.94],[11.053,45.93],[11.002,45.878],[10.995,45.859],[11.019,45.792],[11.009,45.773],[10.888,45.676],[10.896,45.669],[10.821,45.584],[10.802,45.515],[10.827,45.491],[10.875,45.477],[10.944,45.481],[11.006,45.443],[10.998,45.43],[11.032,45.436],[11.04,45.401],[11.074,45.382],[11.074,45.395],[11.252,45.348],[11.259,45.313],[11.273,45.313],[11.252,45.279],[11.28,45.265],[11.277,45.248],[11.331,45.186],[11.395,45.152]]}},{"type":"Feature","properties":{"n":"Severn","r":8},"geometry":{"type":"LineString","coordinates":[[-3.691,52.529],[-3.645,52.519],[-3.587,52.474],[-3.465,52.455],[-3.397,52.524],[-3.278,52.526],[-3.228,52.545],[-3.131,52.646]]}},{"type":"Feature","properties":{"n":"Mureș","r":8},"geometry":{"type":"LineString","coordinates":[[25.673,46.635],[25.517,46.67],[25.457,46.709],[25.447,46.751],[25.466,46.809],[25.461,46.854],[25.407,46.906],[25.176,46.968],[25.067,46.964],[24.958,46.985],[24.819,46.912],[24.707,46.786],[24.611,46.635],[24.545,46.561],[24.455,46.506],[24.355,46.473],[24.26,46.462],[24.158,46.488],[24.111,46.454],[24.108,46.477],[24.091,46.481],[24.049,46.448],[24.031,46.46],[23.991,46.432],[23.74,46.362],[23.731,46.354],[23.753,46.329],[23.714,46.255],[23.73,46.241],[23.695,46.139],[23.649,46.113],[23.587,46.039],[23.493,46.022],[23.377,45.963],[23.32,45.963],[23.208,45.905],[23.076,45.87]]}},{"type":"Feature","properties":{"n":"Esla","r":8},"geometry":{"type":"LineString","coordinates":[[-5.077,42.956],[-5.146,42.897],[-5.129,42.826],[-5.141,42.759],[-5.221,42.635],[-5.338,42.542],[-5.521,42.46],[-5.552,42.416],[-5.563,42.364],[-5.533,42.271],[-5.574,42.155],[-5.598,42.021],[-5.654,41.958]]}},{"type":"Feature","properties":{"n":"Caledonian Canal","r":8},"geometry":{"type":"LineString","coordinates":[[-5.12,56.818],[-4.969,56.928]]}},{"type":"Feature","properties":{"n":"Guadiana","r":7},"geometry":{"type":"LineString","coordinates":[[-6.218,38.894],[-6.264,38.851],[-6.303,38.86],[-6.387,38.947],[-6.424,38.955],[-6.518,38.892],[-6.63,38.871],[-6.728,38.894],[-6.806,38.933],[-6.88,38.925],[-6.972,38.907],[-7.089,38.834],[-7.152,38.82],[-7.271,38.738],[-7.294,38.657],[-7.271,38.618],[-7.346,38.494],[-7.336,38.47],[-7.393,38.415],[-7.404,38.364],[-7.435,38.354],[-7.446,38.247],[-7.491,38.222],[-7.515,38.17],[-7.603,38.164],[-7.668,38.09],[-7.65,38.059],[-7.681,37.953],[-7.641,37.881],[-7.634,37.802],[-7.66,37.644],[-7.642,37.61],[-7.605,37.599],[-7.565,37.563],[-7.524,37.556],[-7.477,37.494],[-7.436,37.3]]}},{"type":"Feature","properties":{"n":"Narva","r":7},"geometry":{"type":"MultiLineString","coordinates":[[[27.484,58.264],[27.494,58.32],[27.519,58.337]],[[27.546,58.413],[27.419,58.736],[27.413,58.784],[27.527,58.889]]]}},{"type":"Feature","properties":{"n":"Zncara","r":7},"geometry":{"type":"LineString","coordinates":[[-2.386,40.04],[-2.463,40.016],[-2.513,39.923],[-2.556,39.899],[-2.569,39.828],[-2.625,39.769],[-2.618,39.703]]}},{"type":"Feature","properties":{"n":"Weser","r":7},"geometry":{"type":"MultiLineString","coordinates":[[[10.096,50.983],[10.121,51.015],[10.136,51.0],[10.211,50.998],[10.228,51.018],[10.223,51.046],[10.252,51.063],[10.266,51.055],[10.266,51.076],[10.34,51.083],[10.275,51.089],[10.294,51.11],[10.237,51.138],[10.194,51.126],[10.152,51.19],[10.06,51.192],[9.996,51.218],[9.998,51.241],[9.984,51.248],[10.011,51.261],[9.985,51.27],[9.962,51.308],[9.943,51.302],[9.95,51.323],[9.892,51.323],[9.8,51.385],[9.642,51.425],[9.628,51.467],[9.642,51.474],[9.587,51.522],[9.608,51.525],[9.616,51.551],[9.58,51.597],[9.539,51.611],[9.56,51.645],[9.507,51.632],[9.477,51.659]],[[9.432,51.826],[9.46,51.884],[9.424,51.894]],[[9.421,51.912],[9.47,51.906],[9.457,51.925],[9.512,51.933],[9.515,51.983],[9.495,52.001],[9.443,51.994],[9.422,52.042]]]}},{"type":"Feature","properties":{"n":"Mincio","r":7},"geometry":{"type":"LineString","coordinates":[[10.677,45.237],[10.715,45.293],[10.697,45.313],[10.718,45.367],[10.702,45.382],[10.69,45.45]]}},{"type":"Feature","properties":{"n":"Kem","r":6},"geometry":{"type":"LineString","coordinates":[[31.57,63.869],[31.618,63.836],[31.714,63.819],[31.748,63.79],[31.83,63.761],[31.913,63.752],[32.06,63.828],[32.157,63.823],[32.211,63.858],[32.262,63.863],[32.274,63.898],[32.34,63.954]]}},{"type":"Feature","properties":{"n":"Po","r":6},"geometry":{"type":"MultiLineString","coordinates":[[[8.802,45.04],[8.669,45.025],[8.57,45.142],[8.392,45.163],[8.29,45.218],[8.064,45.218],[7.977,45.204],[7.871,45.22],[7.762,45.159],[7.751,45.13],[7.684,45.099],[7.669,45.073],[7.671,45.007],[7.697,44.962],[7.672,44.939],[7.683,44.914],[7.647,44.839]],[[7.647,44.839],[7.564,44.812],[7.451,44.739],[7.444,44.658],[7.407,44.632],[7.353,44.639],[7.274,44.682],[7.104,44.701]]]}},{"type":"Feature","properties":{"n":"Rhône","r":6},"geometry":{"type":"MultiLineString","coordinates":[[[4.763,45.382],[4.776,45.337],[4.812,45.299],[4.823,45.111],[4.845,45.101],[4.858,45.066],[4.851,45.022],[4.893,44.95],[4.862,44.875],[4.771,44.779],[4.796,44.696],[4.789,44.658],[4.721,44.573],[4.703,44.475],[4.67,44.421],[4.658,44.276],[4.716,44.194],[4.729,44.086],[4.771,44.088],[4.851,44.014],[4.817,44.001],[4.821,43.973],[4.771,43.937],[4.647,43.884],[4.647,43.812],[4.611,43.737],[4.616,43.709]],[[4.616,43.709],[4.61,43.659],[4.695,43.579]],[[4.396,43.468],[4.351,43.545],[4.461,43.606],[4.464,43.618],[4.427,43.634],[4.48,43.7],[4.616,43.709]],[[4.616,43.709],[4.617,43.71]]]}},{"type":"Feature","properties":{"n":"Ebro","r":5},"geometry":{"type":"MultiLineString","coordinates":[[[-4.309,43.017],[-4.228,43.027],[-4.176,43.009],[-4.1,43.009],[-4.061,42.98]],[[-1.217,41.85],[-1.152,41.832],[-1.138,41.808],[-1.062,41.797],[-0.905,41.701],[-0.905,41.674],[-0.839,41.661],[-0.796,41.619],[-0.567,41.531],[-0.531,41.489],[-0.489,41.475],[-0.494,41.448],[-0.461,41.443],[-0.456,41.405],[-0.414,41.366],[-0.403,41.322],[-0.274,41.32],[0.005,41.272],[0.015,41.316],[0.055,41.307],[0.128,41.347],[0.133,41.393]]]}},{"type":"Feature","properties":{"n":"Elbe","r":5},"geometry":{"type":"MultiLineString","coordinates":[[[13.407,51.21],[13.416,51.233],[13.4,51.277],[13.367,51.307],[13.299,51.313],[13.284,51.347],[13.24,51.352],[13.233,51.364],[13.256,51.381],[13.208,51.408],[13.198,51.466],[13.184,51.474]],[[13.191,51.474],[13.185,51.492],[13.15,51.48],[13.061,51.508],[13.059,51.528],[13.009,51.564],[13.027,51.597],[12.891,51.67],[12.849,51.672],[12.815,51.733],[12.809,51.788],[12.835,51.824],[12.653,51.864],[12.507,51.864],[12.502,51.879]],[[12.502,51.879],[12.501,51.88],[12.499,51.885],[12.507,51.878],[12.502,51.879]],[[12.502,51.879],[12.465,51.857],[12.446,51.866],[12.451,51.885],[12.373,51.851],[12.307,51.892],[12.241,51.88],[12.227,51.862],[12.201,51.878],[12.021,51.872],[11.89,51.974],[11.89,52.024],[11.842,52.015],[11.781,52.04],[11.746,52.029],[11.691,52.063],[11.66,52.112],[11.676,52.175],[11.718,52.207],[11.704,52.238],[11.786,52.331],[11.865,52.343],[11.94,52.379],[11.937,52.399],[11.989,52.436],[12.0,52.464],[11.971,52.508],[11.973,52.536],[12.042,52.757],[12.026,52.796],[12.04,52.851],[12.019,52.875],[11.832,52.928],[11.851,52.955],[11.807,52.96],[11.763,52.995],[11.694,52.984],[11.68,53.012],[11.622,53.022],[11.636,53.037],[11.625,53.05],[11.581,53.043],[11.438,53.084],[11.344,53.066],[11.225,53.153],[11.194,53.141],[11.156,53.174],[11.089,53.144],[10.92,53.232]]]}},{"type":"Feature","properties":{"n":"Tajo","r":5},"geometry":{"type":"LineString","coordinates":[[-2.734,40.528],[-2.707,40.552],[-2.709,40.601],[-2.65,40.674],[-2.577,40.724]]}},{"type":"Feature","properties":{"n":"Tajo","r":5},"geometry":{"type":"MultiLineString","coordinates":[[[-1.66,40.556],[-1.636,40.588],[-1.629,40.66],[-1.683,40.763],[-1.742,40.795],[-1.849,40.817],[-1.91,40.862],[-1.988,40.833],[-2.328,40.802],[-2.451,40.733],[-2.577,40.724]],[[-2.945,40.297],[-2.894,40.32],[-2.886,40.362],[-2.82,40.388],[-2.802,40.463],[-2.767,40.521],[-2.733,40.528]],[[-7.118,39.682],[-6.987,39.694],[-6.93,39.72]]]}},{"type":"Feature","properties":{"n":"Loire","r":5},"geometry":{"type":"LineString","coordinates":[[4.25,45.519],[4.24,45.422],[4.178,45.347],[4.138,45.322],[4.124,45.265],[4.05,45.218],[3.938,45.203],[3.903,45.125],[3.929,45.028],[3.89,44.996],[3.917,44.966],[3.909,44.945],[3.939,44.877],[4.148,44.782],[4.173,44.783],[4.191,44.827]]}},{"type":"Feature","properties":{"n":"Tejo","r":5},"geometry":{"type":"LineString","coordinates":[[-7.118,39.682],[-7.566,39.68],[-7.639,39.642],[-7.696,39.653],[-7.805,39.557],[-7.915,39.495],[-8.079,39.481],[-8.151,39.495],[-8.211,39.475],[-8.355,39.484],[-8.416,39.471],[-8.439,39.462],[-8.491,39.385],[-8.625,39.306],[-8.683,39.242],[-8.765,39.098]]}},{"type":"Feature","properties":{"n":"Rhein","r":4},"geometry":{"type":"LineString","coordinates":[[9.524,46.994],[9.553,46.931],[9.532,46.887],[9.459,46.851]]}},{"type":"Feature","properties":{"n":"Drau","r":7},"geometry":{"type":"LineString","coordinates":[[13.27,46.764],[13.139,46.744],[13.025,46.748],[12.772,46.838],[12.755,46.813],[12.692,46.784],[12.478,46.746],[12.295,46.733]]}},{"type":"Feature","properties":{"n":"Narcea","r":10},"geometry":{"type":"LineString","coordinates":[[-5.281,43.158],[-5.426,43.232],[-5.549,43.252],[-5.61,43.29],[-5.735,43.332],[-5.831,43.316],[-5.918,43.326],[-5.99,43.393],[-6.052,43.417],[-6.094,43.473],[-6.069,43.57]]}},{"type":"Feature","properties":{"n":"Salzach","r":11},"geometry":{"type":"LineString","coordinates":[[12.267,47.101],[12.198,47.133],[12.179,47.217],[12.208,47.247],[12.471,47.29],[12.934,47.299]]}},{"type":"Feature","properties":{"n":"Ialomița","r":10},"geometry":{"type":"LineString","coordinates":[[25.678,45.519],[25.65,45.52],[25.638,45.464],[25.548,45.439],[25.558,45.338],[25.75,45.102],[25.856,44.905],[25.901,44.863],[25.981,44.842]]}},{"type":"Feature","properties":{"n":"Esla","r":10},"geometry":{"type":"LineString","coordinates":[[-4.857,43.082],[-4.86,43.047],[-4.882,43.019],[-4.95,42.978],[-4.983,42.976]]}},{"type":"Feature","properties":{"n":"Charente","r":10},"geometry":{"type":"MultiLineString","coordinates":[[[0.748,45.795],[0.621,45.872],[0.541,45.964],[0.511,46.025],[0.451,46.067],[0.403,46.135],[0.367,46.159],[0.299,46.16],[0.243,46.137],[0.249,46.072],[0.225,46.02],[0.244,45.94],[0.222,45.903],[0.102,45.887]],[[0.085,45.79],[0.105,45.785],[0.151,45.701],[0.148,45.678],[0.077,45.65]]]}},{"type":"Feature","properties":{"n":"Mijares","r":10},"geometry":{"type":"LineString","coordinates":[[-0.834,40.442],[-0.866,40.434],[-0.897,40.344],[-0.793,40.188],[-0.718,40.15],[-0.598,40.127],[-0.518,40.082],[-0.415,40.066],[-0.292,40.018],[-0.241,40.02],[-0.013,39.92]]}},{"type":"Feature","properties":{"n":"Zêzere","r":11},"geometry":{"type":"LineString","coordinates":[[-8.106,39.94],[-8.146,39.892],[-8.206,39.854],[-8.26,39.845],[-8.284,39.811],[-8.273,39.779],[-8.229,39.757],[-8.23,39.67],[-8.257,39.621],[-8.253,39.599],[-8.334,39.484]]}},{"type":"Feature","properties":{"n":"Weisse Elster","r":12},"geometry":{"type":"LineString","coordinates":[[12.187,50.654],[12.17,50.713],[12.09,50.8],[12.07,50.885],[11.989,50.997],[12.132,51.065],[12.246,51.147],[12.292,51.197],[12.276,51.24],[12.324,51.291],[12.341,51.344],[12.284,51.387],[12.067,51.406],[11.954,51.44]]}},{"type":"Feature","properties":{"n":"Sado","r":11},"geometry":{"type":"LineString","coordinates":[[-8.14,37.838],[-8.045,37.846],[-8.024,37.887],[-8.071,37.934],[-8.193,37.942],[-8.316,37.976],[-8.377,38.01],[-8.379,38.046],[-8.401,38.076],[-8.386,38.111],[-8.359,38.112],[-8.313,38.208],[-8.338,38.25],[-8.427,38.306],[-8.479,38.315],[-8.496,38.37],[-8.568,38.416],[-8.607,38.419]]}},{"type":"Feature","properties":{"n":"Adige","r":10},"geometry":{"type":"LineString","coordinates":[[12.18,47.078],[11.938,46.977],[11.932,46.958],[11.954,46.925],[11.948,46.857],[11.907,46.798],[11.76,46.819],[11.678,46.81],[11.684,46.761],[11.661,46.725],[11.544,46.631],[11.496,46.541],[11.45,46.51],[11.35,46.499],[11.306,46.477]]}},{"type":"Feature","properties":{"n":"Unstrut","r":12},"geometry":{"type":"LineString","coordinates":[[10.647,50.759],[10.627,50.812],[10.637,50.826],[10.748,50.895],[10.88,50.909],[10.987,50.939],[11.018,51.003],[10.962,51.057],[10.942,51.137],[10.981,51.158],[11.106,51.163],[11.141,51.258],[11.196,51.325],[11.289,51.389],[11.367,51.357],[11.452,51.271],[11.602,51.3],[11.627,51.291],[11.644,51.259],[11.762,51.216],[11.802,51.184]]}},{"type":"Feature","properties":{"n":"Cabriel","r":12},"geometry":{"type":"LineString","coordinates":[[-1.551,40.227],[-1.509,40.149],[-1.517,40.027],[-1.592,39.979],[-1.664,39.975],[-1.708,39.946],[-1.729,39.909],[-1.709,39.855],[-1.65,39.824],[-1.609,39.702],[-1.498,39.563],[-1.498,39.496],[-1.517,39.441],[-1.455,39.394],[-1.446,39.367],[-1.406,39.371],[-1.178,39.304],[-1.152,39.31],[-1.054,39.244]]}},{"type":"Feature","properties":{"n":"Sil","r":10},"geometry":{"type":"LineString","coordinates":[[-6.312,42.94],[-6.438,42.882],[-6.518,42.812],[-6.529,42.782],[-6.514,42.678],[-6.573,42.573],[-6.688,42.526],[-6.806,42.53],[-6.821,42.511],[-6.813,42.439],[-6.839,42.41],[-6.955,42.425],[-7.196,42.398],[-7.249,42.461],[-7.288,42.47],[-7.39,42.454],[-7.521,42.395],[-7.617,42.402],[-7.715,42.451],[-7.751,42.452]]}},{"type":"Feature","properties":{"n":"Zwickauer Mulde","r":11},"geometry":{"type":"LineString","coordinates":[[12.499,50.727],[12.497,50.788],[12.52,50.823],[12.739,50.952],[12.789,51.04],[12.808,51.122],[12.787,51.192],[12.737,51.231],[12.767,51.278],[12.756,51.317],[12.652,51.438],[12.602,51.562],[12.544,51.609],[12.448,51.621],[12.316,51.684],[12.297,51.721],[12.299,51.766],[12.255,51.851],[12.232,51.867]]}},{"type":"Feature","properties":{"n":"Buzău","r":11},"geometry":{"type":"LineString","coordinates":[[26.351,45.864],[26.289,45.778],[26.292,45.721],[26.254,45.671],[26.266,45.642],[26.43,45.521],[26.397,45.476],[26.308,45.443],[26.36,45.329],[26.366,45.28],[26.398,45.254],[26.459,45.247],[26.577,45.295],[26.643,45.301]]}},{"type":"Feature","properties":{"n":"Schwarze Elster","r":11},"geometry":{"type":"LineString","coordinates":[[13.625,51.469],[13.505,51.469],[13.424,51.506],[13.205,51.732],[13.042,51.792],[12.835,51.824]]}},{"type":"Feature","properties":{"n":"Tanaro","r":10},"geometry":{"type":"LineString","coordinates":[[7.681,44.145],[7.887,44.142],[7.991,44.195],[8.05,44.315],[8.031,44.386],[7.898,44.455],[7.908,44.513],[7.884,44.654],[7.904,44.684],[8.055,44.727],[8.215,44.894],[8.394,44.881],[8.468,44.903],[8.497,44.898],[8.673,44.946],[8.774,45.027]]}},{"type":"Feature","properties":{"n":"Júcar","r":10},"geometry":{"type":"MultiLineString","coordinates":[[[-2.122,39.585],[-2.065,39.527],[-2.096,39.385],[-2.077,39.332]],[[-1.55,39.177],[-1.343,39.211],[-1.11,39.204],[-1.037,39.243],[-0.94,39.258],[-0.882,39.286],[-0.793,39.269],[-0.7,39.205]],[[-1.806,40.3],[-1.876,40.221],[-1.932,40.22],[-2.02,40.258],[-2.052,40.255],[-2.103,40.214],[-2.136,40.088],[-2.19,40.08],[-2.26,39.991],[-2.248,39.932],[-2.269,39.898],[-2.294,39.777],[-2.27,39.718]]]}},{"type":"Feature","properties":{"n":"Auvézère","r":11},"geometry":{"type":"LineString","coordinates":[[1.444,45.584],[1.407,45.528],[1.281,45.478],[1.234,45.387],[1.157,45.348],[1.109,45.298],[0.882,45.197],[0.815,45.209],[0.613,45.184],[0.395,45.072],[0.291,45.045]]}},{"type":"Feature","properties":{"n":"Aveyron","r":11},"geometry":{"type":"LineString","coordinates":[[3.123,44.308],[2.813,44.41],[2.737,44.413],[2.661,44.371],[2.516,44.343],[2.332,44.392],[2.169,44.378],[2.048,44.355],[2.02,44.336],[1.975,44.169]]}},{"type":"Feature","properties":{"n":"Arc","r":11},"geometry":{"type":"MultiLineString","coordinates":[[[7.119,45.407],[6.973,45.322],[6.825,45.289],[6.742,45.224],[6.639,45.206],[6.524,45.218],[6.423,45.249],[6.303,45.348],[6.277,45.432],[6.314,45.54],[6.274,45.567],[6.208,45.569],[6.138,45.548],[6.036,45.484],[5.941,45.313],[5.823,45.221],[5.781,45.206],[5.712,45.21],[5.618,45.293]],[[5.263,45.094],[5.191,45.087],[5.118,45.05],[4.965,45.045],[4.857,45.002]]]}},{"type":"Feature","properties":{"n":"Wye","r":11},"geometry":{"type":"LineString","coordinates":[[-3.39,52.443],[-3.332,52.395],[-3.31,52.274],[-3.319,52.255],[-3.366,52.264],[-3.407,52.238],[-3.436,52.202],[-3.43,52.177],[-3.368,52.149],[-3.347,52.107],[-3.269,52.051],[-3.222,52.048],[-3.131,52.088],[-3.091,52.127],[-2.746,52.057]]}},{"type":"Feature","properties":{"n":"Lot","r":10},"geometry":{"type":"LineString","coordinates":[[3.395,44.501],[3.343,44.485],[3.227,44.494],[3.17,44.446],[3.042,44.481],[2.956,44.478],[2.878,44.519],[2.794,44.524],[2.673,44.559],[2.562,44.649],[2.455,44.662],[2.361,44.659],[2.141,44.581],[2.063,44.587],[1.795,44.476],[1.691,44.473],[1.623,44.488],[1.5,44.473],[1.406,44.495],[1.312,44.498],[1.289,44.484],[1.116,44.51],[1.021,44.494]]}},{"type":"Feature","properties":{"n":"Oglio","r":10},"geometry":{"type":"MultiLineString","coordinates":[[[9.972,45.674],[9.929,45.665],[9.887,45.616]],[[10.444,46.342],[10.494,46.316],[10.506,46.279],[10.386,46.238],[10.343,46.204],[10.319,46.109],[10.346,46.072],[10.33,45.995],[10.089,45.823]]]}},{"type":"Feature","properties":{"n":"Luna","r":11},"geometry":{"type":"LineString","coordinates":[[-6.134,42.974],[-6.061,42.983],[-5.996,42.966],[-5.875,42.882],[-5.862,42.843],[-5.808,42.798],[-5.795,42.768],[-5.819,42.707],[-5.813,42.624],[-5.879,42.485],[-5.872,42.305],[-5.826,42.264],[-5.823,42.17],[-5.804,42.135],[-5.734,42.035],[-5.653,41.958]]}},{"type":"Feature","properties":{"n":"Someşul Cald","r":10},"geometry":{"type":"LineString","coordinates":[[23.387,46.757],[23.532,46.768],[23.733,46.818],[23.794,46.875],[23.814,46.98],[23.898,47.044],[23.918,47.08],[23.912,47.121]]}},{"type":"Feature","properties":{"n":"Argeș","r":11},"geometry":{"type":"LineString","coordinates":[[24.814,45.608],[24.788,45.57],[24.837,45.537],[24.859,45.49],[24.813,45.425],[24.804,45.301],[24.847,45.207],[24.857,45.081],[24.894,45.001],[24.891,44.866],[25.363,44.675]]}},{"type":"Feature","properties":{"n":"Someșul Mare","r":12},"geometry":{"type":"LineString","coordinates":[[25.029,47.185],[24.842,47.183],[24.697,47.228],[24.543,47.177],[24.41,47.08],[24.312,47.108],[24.283,47.176],[24.256,47.192],[24.075,47.189]]}},{"type":"Feature","properties":{"n":"Pärnu","r":10},"geometry":{"type":"LineString","coordinates":[[25.898,59.08],[25.843,59.034],[25.872,58.975],[25.709,58.861],[25.301,58.757],[25.273,58.744],[25.27,58.688],[25.248,58.67],[25.015,58.592],[24.899,58.513],[24.837,58.506],[24.621,58.398],[24.588,58.386],[24.49,58.393],[24.466,58.377]]}},{"type":"Feature","properties":{"n":"Trotuș","r":10},"geometry":{"type":"LineString","coordinates":[[25.989,46.686],[26.0,46.663],[25.961,46.63],[25.981,46.607],[26.078,46.582],[26.266,46.469],[26.456,46.421],[26.593,46.3],[26.669,46.275],[26.83,46.272],[26.915,46.207]]}},{"type":"Feature","properties":{"n":"Bistrița","r":11},"geometry":{"type":"MultiLineString","coordinates":[[[26.101,46.947],[26.104,46.913],[26.142,46.897],[26.226,46.939],[26.356,46.933],[26.424,46.875],[26.553,46.814]],[[25.684,47.263],[25.805,47.18],[25.917,47.128],[25.99,47.058]]]}},{"type":"Feature","properties":{"n":"Chavanon","r":10},"geometry":{"type":"LineString","coordinates":[[2.367,45.79],[2.422,45.794],[2.439,45.762],[2.515,45.714],[2.521,45.644],[2.481,45.624],[2.465,45.585],[2.522,45.544]]}},{"type":"Feature","properties":{"n":"Vedea","r":12},"geometry":{"type":"LineString","coordinates":[[24.595,45.015],[24.645,44.878],[24.751,44.737],[24.761,44.693],[24.751,44.663]]}},{"type":"Feature","properties":{"n":"Spree","r":10},"geometry":{"type":"MultiLineString","coordinates":[[[13.103,52.433],[13.003,52.372],[12.966,52.364]],[[12.89,52.433],[12.844,52.471],[12.786,52.475],[12.494,52.402]],[[13.628,52.45],[13.53,52.465],[13.404,52.524],[13.251,52.542],[13.203,52.513]],[[12.451,52.406],[12.423,52.435],[12.438,52.498],[12.322,52.546],[12.326,52.662],[12.228,52.69],[12.193,52.728],[12.209,52.752],[12.195,52.779],[12.213,52.79],[12.04,52.851]]]}},{"type":"Feature","properties":{"n":"Gauja","r":10},"geometry":{"type":"LineString","coordinates":[[26.354,57.462],[26.393,57.529],[26.379,57.57],[26.262,57.621],[26.168,57.704],[26.081,57.71],[25.995,57.678],[25.929,57.628],[25.679,57.63],[25.531,57.589],[25.386,57.519],[25.405,57.435],[25.387,57.386],[25.259,57.372],[25.192,57.289],[24.968,57.254]]}},{"type":"Feature","properties":{"n":"Piave","r":10},"geometry":{"type":"LineString","coordinates":[[12.72,46.604],[12.696,46.576],[12.612,46.579],[12.466,46.515],[12.361,46.405],[12.323,46.324],[12.29,46.193],[12.197,46.127],[12.002,46.05],[11.928,45.951],[11.962,45.891],[11.987,45.878],[12.095,45.848],[12.155,45.86],[12.238,45.832],[12.48,45.708],[12.546,45.641],[12.727,45.552]]}},{"type":"Feature","properties":{"n":"Aude","r":10},"geometry":{"type":"LineString","coordinates":[[2.584,43.212],[2.734,43.266],[2.774,43.249],[2.907,43.244],[3.153,43.253],[3.244,43.219]]}},{"type":"Feature","properties":{"n":"Turia","r":11},"geometry":{"type":"LineString","coordinates":[[-0.718,40.439],[-0.826,40.631],[-0.887,40.657],[-0.956,40.633],[-1.021,40.554],[-1.026,40.501],[-1.25,40.139],[-1.277,40.067],[-1.264,40.036],[-1.272,39.998],[-1.18,39.904],[-1.148,39.824],[-1.074,39.723],[-0.948,39.711],[-0.894,39.68],[-0.853,39.616],[-0.667,39.608],[-0.476,39.517],[-0.403,39.459],[-0.328,39.431]]}},{"type":"Feature","properties":{"n":"Shannon","r":10},"geometry":{"type":"LineString","coordinates":[[-8.757,53.895],[-8.619,53.852],[-8.525,53.922],[-8.241,54.006],[-8.188,53.997],[-8.107,53.953]]}},{"type":"Feature","properties":{"n":"Creuse","r":10},"geometry":{"type":"LineString","coordinates":[[2.17,45.85],[2.163,45.971],[2.114,46.042],[1.869,46.274],[1.622,46.414],[1.575,46.547],[1.489,46.62],[1.436,46.642],[1.064,46.645],[0.977,46.693],[0.913,46.768]]}},{"type":"Feature","properties":{"n":"Suir","r":10},"geometry":{"type":"LineString","coordinates":[[-7.845,52.875],[-7.813,52.87],[-7.799,52.848],[-7.821,52.782],[-7.812,52.681],[-7.884,52.639],[-7.944,52.539],[-7.993,52.498],[-7.929,52.41],[-7.913,52.356],[-7.852,52.304],[-7.817,52.299],[-7.791,52.301],[-7.789,52.332],[-7.766,52.343],[-7.591,52.36],[-7.464,52.344]]}},{"type":"Feature","properties":{"n":"Saale","r":10},"geometry":{"type":"LineString","coordinates":[[11.64,50.603],[11.622,50.615],[11.389,50.629],[11.327,50.703],[11.49,50.753],[11.588,50.812],[11.61,50.869],[11.587,50.932],[11.674,51.003],[11.73,51.15],[11.803,51.177],[11.849,51.171],[11.866,51.189],[11.979,51.222],[12.045,51.275],[12.054,51.302],[12.042,51.324],[11.945,51.44],[11.954,51.508],[11.941,51.526],[11.832,51.549],[11.818,51.576],[11.767,51.604],[11.743,51.673],[11.683,51.724],[11.702,51.777],[11.785,51.824],[11.77,51.87],[11.79,51.918],[11.87,51.94],[11.9,51.967]]}},{"type":"Feature","properties":{"n":"Aller","r":10},"geometry":{"type":"LineString","coordinates":[[10.323,51.406],[10.282,51.394],[10.185,51.402],[10.064,51.378],[10.016,51.38],[9.939,51.412],[9.923,51.434],[9.915,51.573],[9.92,51.628],[9.959,51.691],[9.924,51.808],[9.943,51.86],[9.936,51.89],[9.807,52.004],[9.766,52.064],[9.759,52.158],[9.81,52.239],[9.81,52.275],[9.729,52.376],[9.646,52.413],[9.547,52.422]]}},{"type":"Feature","properties":{"n":"Jiloca","r":10},"geometry":{"type":"LineString","coordinates":[[-1.38,40.485],[-1.308,40.46],[-1.277,40.484],[-1.304,40.596],[-1.352,40.686],[-1.348,40.788],[-1.305,40.958],[-1.381,41.068],[-1.528,41.219],[-1.604,41.276],[-1.652,41.351],[-1.606,41.388],[-1.559,41.479],[-1.474,41.492],[-1.344,41.543],[-1.232,41.696],[-1.079,41.791]]}},{"type":"Feature","properties":{"n":"Barrow","r":11},"geometry":{"type":"LineString","coordinates":[[-7.474,53.166],[-7.436,53.186],[-7.406,53.183],[-7.285,53.134],[-7.179,53.153]]}},{"type":"Feature","properties":{"n":"Pisuerga","r":11},"geometry":{"type":"LineString","coordinates":[[-4.451,42.997],[-4.478,42.984],[-4.516,42.914],[-4.511,42.895],[-4.255,42.789],[-4.322,42.645],[-4.303,42.573]]}},{"type":"Feature","properties":{"n":"Sorraia","r":10},"geometry":{"type":"LineString","coordinates":[[-7.299,38.928],[-7.404,38.944],[-7.501,39.039],[-7.614,39.076],[-7.68,39.078],[-7.774,39.05],[-7.881,39.072],[-8.003,39.02],[-8.013,38.963],[-8.032,38.954],[-8.123,38.97],[-8.172,38.963],[-8.24,39.001],[-8.346,39.016],[-8.436,39.003],[-8.558,38.952],[-8.828,38.989],[-8.886,38.95],[-8.963,38.851]]}},{"type":"Feature","properties":{"n":"Jiu","r":11},"geometry":{"type":"LineString","coordinates":[[23.288,45.384],[23.373,45.372],[23.392,45.261]]}},{"type":"Feature","properties":{"n":"Vuoksi","r":10},"geometry":{"type":"MultiLineString","coordinates":[[[30.049,62.719],[29.998,62.697],[29.859,62.706],[29.842,62.696],[29.846,62.678],[29.889,62.635],[29.749,62.597]],[[31.206,63.466],[31.23,63.413],[31.217,63.398],[31.005,63.402],[30.94,63.378],[30.864,63.375],[30.537,63.421],[30.479,63.409],[30.444,63.354],[30.426,63.349],[30.126,63.473],[30.113,63.466],[30.178,63.383],[30.17,63.35],[30.054,63.335],[29.969,63.305]],[[31.159,63.596],[31.16,63.542]],[[31.007,63.971],[30.97,63.942],[30.907,63.933],[30.892,63.911]],[[30.699,64.306],[30.874,64.258],[30.833,64.147],[30.834,64.104]]]}},{"type":"Feature","properties":{"n":"Cher","r":11},"geometry":{"type":"LineString","coordinates":[[2.293,45.925],[2.326,46.007],[2.312,46.106],[2.337,46.147],[2.407,46.191],[2.473,46.201],[2.582,46.297],[2.618,46.561],[2.585,46.601],[2.593,46.629],[2.581,46.66],[2.344,46.833],[2.25,46.987]]}},{"type":"Feature","properties":{"n":"Henares","r":10},"geometry":{"type":"LineString","coordinates":[[-2.773,41.13],[-2.794,41.066],[-2.786,41.021],[-2.803,40.993],[-2.869,40.957]]}},{"type":"Feature","properties":{"n":"Jalón","r":12},"geometry":{"type":"LineString","coordinates":[[-1.915,41.05],[-1.917,41.019],[-1.864,40.954],[-1.807,40.951],[-1.692,40.982],[-1.708,41.045],[-1.779,41.12],[-1.788,41.263],[-1.81,41.303],[-1.788,41.33],[-1.732,41.328],[-1.654,41.35]]}},{"type":"Feature","properties":{"n":"Emajõgi","r":10},"geometry":{"type":"LineString","coordinates":[[26.367,59.185],[26.328,59.149],[26.25,59.12],[26.257,59.075],[26.212,59.021],[26.212,58.958],[26.16,58.917],[26.154,58.887],[26.116,58.868],[26.114,58.835],[25.977,58.817],[25.956,58.774],[25.927,58.761],[25.924,58.704],[25.991,58.639],[25.961,58.596],[25.981,58.557],[26.013,58.557],[26.199,58.426],[26.403,58.408],[26.552,58.454],[26.622,58.46],[26.762,58.355],[26.807,58.347],[26.97,58.383],[27.127,58.393],[27.232,58.44]]}},{"type":"Feature","properties":{"n":"Aller","r":12},"geometry":{"type":"LineString","coordinates":[[10.516,51.81],[10.458,51.84],[10.46,51.86],[10.521,51.954],[10.59,51.975],[10.547,52.031],[10.569,52.114],[10.514,52.21],[10.506,52.293],[10.436,52.352],[10.393,52.43],[10.349,52.471],[10.357,52.528],[10.261,52.585],[10.145,52.597],[10.097,52.628],[9.936,52.675],[9.836,52.69],[9.751,52.679]]}},{"type":"Feature","properties":{"n":"Adda","r":11},"geometry":{"type":"LineString","coordinates":[[10.147,46.444],[10.173,46.438],[10.286,46.491],[10.343,46.486],[10.357,46.468],[10.353,46.351],[10.29,46.316],[10.228,46.25],[10.065,46.175],[9.706,46.178],[9.588,46.151],[9.469,46.156]]}},{"type":"Feature","properties":{"n":"Maulde","r":12},"geometry":{"type":"LineString","coordinates":[[2.038,45.811],[1.975,45.835],[1.945,45.87],[1.957,45.935],[1.934,45.963],[1.84,46.0],[1.778,46.007],[1.746,45.972],[1.647,46.017],[1.62,46.013],[1.542,45.961],[1.397,45.902]]}},{"type":"Feature","properties":{"n":"Isar","r":10},"geometry":{"type":"LineString","coordinates":[[11.414,47.374],[11.271,47.385],[11.255,47.431],[11.29,47.513],[11.32,47.534],[11.529,47.58],[11.583,47.629],[11.528,47.843]]}},{"type":"Feature","properties":{"n":"Fulda","r":12},"geometry":{"type":"LineString","coordinates":[[9.621,51.4],[9.636,51.404],[9.635,51.43]]}},{"type":"Feature","properties":{"n":"Tay","r":10},"geometry":{"type":"MultiLineString","coordinates":[[[-4.774,56.614],[-4.58,56.687],[-4.43,56.692]],[[-4.194,56.704],[-3.797,56.729],[-3.685,56.694]]]}},{"type":"Feature","properties":{"n":"Spree","r":10},"geometry":{"type":"LineString","coordinates":[[13.639,52.448],[13.628,52.45]]}},{"type":"Feature","properties":{"n":"Spree","r":10},"geometry":{"type":"LineString","coordinates":[[12.966,52.364],[12.93,52.412],[12.89,52.433]]}},{"type":"Feature","properties":{"n":"Spree","r":10},"geometry":{"type":"LineString","coordinates":[[12.494,52.402],[12.451,52.406]]}},{"type":"Feature","properties":{"n":"Spree","r":10},"geometry":{"type":"LineString","coordinates":[[13.203,52.513],[13.164,52.447],[13.103,52.433]]}},{"type":"Feature","properties":{"n":"Vuoksi","r":10},"geometry":{"type":"LineString","coordinates":[[31.16,63.542],[31.213,63.495],[31.206,63.466]]}},{"type":"Feature","properties":{"n":"Vuoksi","r":10},"geometry":{"type":"LineString","coordinates":[[30.892,63.911],[30.845,63.896],[30.84,63.849],[30.893,63.807],[30.968,63.777],[30.981,63.729],[31.012,63.695],[31.159,63.596]]}},{"type":"Feature","properties":{"n":"Vuoksi","r":10},"geometry":{"type":"MultiLineString","coordinates":[[[30.236,62.848],[30.209,62.805],[30.146,62.787],[30.136,62.745],[30.049,62.719]],[[29.877,63.223],[29.917,63.099],[30.255,62.884],[30.262,62.867],[30.236,62.848]],[[29.969,63.305],[29.883,63.253],[29.877,63.223]]]}},{"type":"Feature","properties":{"n":"Vuoksi","r":10},"geometry":{"type":"LineString","coordinates":[[29.749,62.597],[29.713,62.582],[29.763,62.505],[29.765,62.462],[29.737,62.398],[29.709,62.372],[29.643,62.361],[29.55,62.401],[29.438,62.408],[29.392,62.403],[29.332,62.367],[29.317,62.323],[29.436,62.227],[29.436,62.195],[29.373,62.154],[29.021,62.137],[28.818,62.1],[28.686,62.118],[28.48,62.201],[28.415,62.184],[28.556,62.112],[28.625,62.049]]}},{"type":"Feature","properties":{"n":"Emajõgi","r":10},"geometry":{"type":"LineString","coordinates":[[27.232,58.44],[27.402,58.509],[27.441,58.551],[27.449,58.659]]}},{"type":"Feature","properties":{"n":"Esla","r":10},"geometry":{"type":"LineString","coordinates":[[-4.983,42.976],[-5.033,42.984],[-5.077,42.956]]}},{"type":"Feature","properties":{"n":"Júcar","r":10},"geometry":{"type":"LineString","coordinates":[[-2.27,39.718],[-2.122,39.585]]}},{"type":"Feature","properties":{"n":"Oglio","r":10},"geometry":{"type":"LineString","coordinates":[[10.089,45.823],[10.062,45.784],[10.064,45.697],[9.972,45.674]]}},{"type":"Feature","properties":{"n":"Bistrita","r":11},"geometry":{"type":"LineString","coordinates":[[25.99,47.058],[26.058,47.029],[26.101,46.947]]}},{"type":"Feature","properties":{"n":"Vuoksi","r":10},"geometry":{"type":"LineString","coordinates":[[30.834,64.104],[30.871,64.068],[31.018,64.022],[31.036,63.991],[31.007,63.971]]}},{"type":"Feature","properties":{"n":"Tay","r":10},"geometry":{"type":"LineString","coordinates":[[-4.43,56.692],[-4.194,56.704]]}},{"type":"Feature","properties":{"n":"Varaita","r":10},"geometry":{"type":"LineString","coordinates":[[7.074,44.496],[7.24,44.514],[7.321,44.478],[7.373,44.473],[7.461,44.504],[7.604,44.599],[7.646,44.649],[7.671,44.733],[7.647,44.839]]}},{"type":"Feature","properties":{"n":"Varaita","r":10},"geometry":{"type":"LineString","coordinates":[[6.918,44.52],[6.993,44.484],[7.074,44.496]]}},{"type":"Feature","properties":{"n":"Allier","r":11},"geometry":{"type":"LineString","coordinates":[[3.881,44.583],[3.903,44.618],[3.902,44.665],[3.875,44.703],[3.868,44.755],[3.748,44.821],[3.748,44.84],[3.666,44.912],[3.688,44.966],[3.634,44.994]]}},{"type":"Feature","properties":{"n":"Allier","r":11},"geometry":{"type":"LineString","coordinates":[[3.634,44.994],[3.612,45.043],[3.423,45.168],[3.395,45.313],[3.323,45.445],[3.263,45.48],[3.271,45.558],[3.201,45.633],[3.206,45.748],[3.276,45.803],[3.36,45.943],[3.379,45.936],[3.447,45.985],[3.458,46.02],[3.416,46.13],[3.419,46.238],[3.365,46.328],[3.31,46.378],[3.327,46.558],[3.179,46.684],[3.047,46.76],[3.03,46.793]]}}]}