{"type":"FeatureCollection","features":[{"type":"Feature","properties":{"n":"Canadian","r":8},"geometry":{"type":"LineString","coordinates":[[-104.51,36.418],[-104.416,36.228],[-104.353,36.045],[-104.303,35.987],[-104.329,35.965],[-104.321,35.928],[-104.366,35.893],[-104.357,35.828],[-104.398,35.721],[-104.35,35.689],[-104.341,35.666],[-104.291,35.651],[-104.254,35.608]]}},{"type":"Feature","properties":{"n":"New","r":8},"geometry":{"type":"LineString","coordinates":[[-81.498,36.316],[-81.41,36.384],[-81.4,36.422],[-81.358,36.446],[-81.339,36.48]]}},{"type":"Feature","properties":{"n":"Des Moines","r":8},"geometry":{"type":"LineString","coordinates":[[-93.238,41.47],[-93.065,41.412],[-92.923,41.338],[-92.915,41.318],[-92.874,41.318],[-92.852,41.276],[-92.737,41.233],[-92.648,41.153],[-92.507,41.078],[-92.44,41.016],[-92.367,40.996],[-92.344,40.965],[-92.224,40.914],[-92.128,40.845],[-91.974,40.794],[-91.968,40.774],[-91.998,40.749],[-91.989,40.725],[-91.902,40.762],[-91.881,40.735],[-91.778,40.691],[-91.682,40.551],[-91.627,40.53],[-91.617,40.506],[-91.546,40.468],[-91.53,40.431],[-91.442,40.379]]}},{"type":"Feature","properties":{"n":"Black","r":8},"geometry":{"type":"MultiLineString","coordinates":[[[-91.174,36.005],[-91.23,35.945],[-91.21,35.915],[-91.23,35.884],[-91.222,35.872]],[[-91.226,35.862],[-91.258,35.836],[-91.258,35.815],[-91.342,35.763],[-91.34,35.732],[-91.367,35.709],[-91.342,35.65]]]}},{"type":"Feature","properties":{"n":"Broad","r":8},"geometry":{"type":"LineString","coordinates":[[-82.383,35.253],[-82.311,35.278],[-82.216,35.347],[-82.075,35.332],[-82.009,35.275],[-81.894,35.213],[-81.724,35.219],[-81.643,35.198],[-81.473,35.004],[-81.486,34.945],[-81.465,34.921],[-81.451,34.855],[-81.473,34.808],[-81.451,34.773],[-81.479,34.74],[-81.448,34.709],[-81.429,34.651]]}},{"type":"Feature","properties":{"n":"Cowpasture","r":8},"geometry":{"type":"LineString","coordinates":[[-79.656,38.0],[-79.635,38.014],[-79.639,38.098],[-79.382,38.396]]}},{"type":"Feature","properties":{"n":"Cowpasture","r":8},"geometry":{"type":"LineString","coordinates":[[-77.251,37.35],[-77.346,37.381],[-77.406,37.423],[-77.418,37.511],[-77.456,37.535],[-77.635,37.556],[-77.758,37.611],[-77.803,37.603],[-77.921,37.691],[-77.939,37.683],[-77.952,37.628],[-77.977,37.624],[-78.066,37.655],[-78.107,37.692],[-78.087,37.707],[-78.131,37.729],[-78.179,37.733],[-78.244,37.7],[-78.439,37.753],[-78.471,37.789],[-78.501,37.764],[-78.634,37.737],[-78.655,37.715],[-78.655,37.685],[-78.681,37.699],[-78.738,37.631],[-78.813,37.639],[-78.837,37.545],[-78.938,37.496],[-78.992,37.439],[-79.059,37.418],[-79.039,37.405],[-79.059,37.393],[-79.203,37.5],[-79.323,37.528],[-79.368,37.59],[-79.435,37.623],[-79.512,37.617],[-79.625,37.574],[-79.652,37.537],[-79.687,37.535],[-79.73,37.565],[-79.738,37.617],[-79.766,37.611],[-79.789,37.642],[-79.784,37.676],[-79.821,37.729],[-79.766,37.789],[-79.725,37.806],[-79.717,37.861],[-79.738,37.892],[-79.734,37.935],[-79.656,38.0]]}},{"type":"Feature","properties":{"n":"W. Branch Susquehanna","r":8},"geometry":{"type":"LineString","coordinates":[[-77.135,41.232],[-76.941,41.265],[-76.904,41.243],[-76.812,41.229],[-76.802,41.201]]}},{"type":"Feature","properties":{"n":"Delaware","r":8},"geometry":{"type":"LineString","coordinates":[[-74.989,42.211],[-75.058,42.167],[-75.15,42.171],[-75.196,42.109],[-75.23,42.106],[-75.271,42.125],[-75.369,42.085],[-75.407,42.088],[-75.418,42.052],[-75.404,42.03],[-75.344,42.007],[-75.34,41.984],[-75.263,41.948],[-75.249,41.882],[-75.175,41.879]]}},{"type":"Feature","properties":{"n":"Merrimack","r":8},"geometry":{"type":"LineString","coordinates":[[-71.412,44.134],[-71.528,44.124],[-71.668,44.024],[-71.645,43.871],[-71.66,43.764],[-71.639,43.652],[-71.654,43.623],[-71.72,43.596],[-71.705,43.555],[-71.641,43.486],[-71.631,43.38],[-71.584,43.332],[-71.459,43.137],[-71.445,43.07],[-71.471,43.017],[-71.467,42.994]]}},{"type":"Feature","properties":{"n":"Mohawk","r":8},"geometry":{"type":"LineString","coordinates":[[-75.469,43.483],[-75.466,43.383],[-75.377,43.353],[-75.438,43.268],[-75.438,43.207],[-75.344,43.182],[-75.291,43.134],[-75.171,43.12],[-75.054,43.063]]}},{"type":"Feature","properties":{"n":"White","r":8},"geometry":{"type":"MultiLineString","coordinates":[[[-93.909,35.874],[-94.004,35.987],[-94.02,36.041],[-94.068,36.085],[-94.061,36.107],[-94.024,36.114],[-94.045,36.146],[-94.004,36.172],[-94.017,36.222],[-94.005,36.247],[-94.052,36.281],[-94.018,36.319],[-94.03,36.357],[-93.896,36.364],[-93.88,36.382],[-93.893,36.402],[-93.844,36.449],[-93.786,36.473],[-93.793,36.487],[-93.621,36.61],[-93.564,36.595],[-93.547,36.614],[-93.53,36.592],[-93.504,36.617],[-93.474,36.599],[-93.415,36.621],[-93.402,36.618],[-93.402,36.593],[-93.372,36.583],[-93.35,36.602],[-93.266,36.616],[-93.198,36.693],[-93.151,36.703],[-93.147,36.67],[-93.098,36.686],[-93.068,36.631],[-93.109,36.593],[-93.08,36.574],[-93.068,36.528],[-92.989,36.489],[-92.859,36.459],[-92.786,36.488],[-92.747,36.475],[-92.732,36.437],[-92.685,36.452],[-92.666,36.423],[-92.574,36.394],[-92.58,36.349],[-92.541,36.348],[-92.564,36.32],[-92.542,36.315],[-92.528,36.267],[-92.498,36.278],[-92.484,36.267],[-92.474,36.206],[-92.441,36.179]],[[-92.441,36.179],[-92.436,36.178],[-92.443,36.178],[-92.441,36.179]],[[-92.441,36.179],[-92.312,36.233],[-92.303,36.172],[-92.248,36.169],[-92.196,36.117],[-92.152,36.12],[-92.122,36.072],[-92.072,36.048],[-92.1,36.017],[-92.107,35.933],[-92.056,35.945],[-92.019,35.931],[-91.984,35.945],[-91.928,35.899],[-91.868,35.881],[-91.854,35.843],[-91.874,35.802],[-91.838,35.759],[-91.64,35.754],[-91.518,35.695],[-91.513,35.67],[-91.478,35.646],[-91.346,35.644]]]}},{"type":"Feature","properties":{"n":"Cedar","r":8},"geometry":{"type":"LineString","coordinates":[[-91.195,41.704],[-91.155,41.677],[-91.159,41.62],[-91.124,41.599],[-91.113,41.554],[-91.278,41.441],[-91.354,41.318],[-91.333,41.284],[-91.269,41.238],[-91.189,41.208],[-91.194,41.181],[-91.173,41.154],[-91.091,41.099],[-91.031,41.167]]}},{"type":"Feature","properties":{"n":"Atoyac","r":8},"geometry":{"type":"LineString","coordinates":[[-96.918,17.301],[-96.831,17.204],[-96.761,17.084],[-96.735,16.998],[-96.742,16.929],[-96.785,16.822],[-96.844,16.735],[-96.884,16.586],[-96.872,16.548],[-96.823,16.553],[-96.795,16.531],[-96.806,16.495],[-96.852,16.47],[-96.875,16.427],[-96.888,16.318],[-96.92,16.314],[-96.992,16.342],[-97.076,16.339],[-97.139,16.373],[-97.2,16.364],[-97.256,16.384],[-97.294,16.38],[-97.399,16.455],[-97.452,16.444],[-97.517,16.496],[-97.573,16.479],[-97.606,16.376]]}},{"type":"Feature","properties":{"n":"Illinois","r":8},"geometry":{"type":"LineString","coordinates":[[-90.298,40.15],[-90.394,40.112],[-90.442,40.057],[-90.435,40.041],[-90.517,39.979],[-90.597,39.872],[-90.587,39.83],[-90.651,39.698],[-90.633,39.651]]}},{"type":"Feature","properties":{"n":"Richelieu","r":8},"geometry":{"type":"LineString","coordinates":[[-73.109,46.063],[-73.15,45.989],[-73.153,45.855],[-73.202,45.737],[-73.207,45.663],[-73.195,45.624],[-73.221,45.547],[-73.269,45.491],[-73.255,45.413],[-73.269,45.354],[-73.241,45.289],[-73.256,45.149],[-73.325,45.078]]}},{"type":"Feature","properties":{"n":"Saint Mary's","r":8},"geometry":{"type":"LineString","coordinates":[[-61.884,45.05],[-61.964,45.105],[-61.982,45.177],[-62.004,45.188],[-62.017,45.231],[-62.036,45.244],[-62.407,45.292],[-62.572,45.277],[-62.771,45.306]]}},{"type":"Feature","properties":{"n":"St.-Maurice","r":8},"geometry":{"type":"LineString","coordinates":[[-72.696,46.658],[-72.679,46.623],[-72.685,46.6],[-72.773,46.536],[-72.788,46.496],[-72.688,46.411],[-72.588,46.39],[-72.525,46.358]]}},{"type":"Feature","properties":{"n":"Verde","r":8},"geometry":{"type":"LineString","coordinates":[[-97.704,16.152],[-97.65,16.185],[-97.589,16.265],[-97.622,16.335],[-97.606,16.376]]}},{"type":"Feature","properties":{"n":"Wisconsin","r":7},"geometry":{"type":"LineString","coordinates":[[-89.913,44.245],[-89.933,44.18],[-90.011,44.082],[-90.0,44.015],[-89.973,43.993],[-89.966,43.962],[-89.972,43.901],[-89.944,43.855]]}},{"type":"Feature","properties":{"n":"Wisconsin","r":7},"geometry":{"type":"MultiLineString","coordinates":[[[-89.913,44.245],[-89.899,44.301],[-89.794,44.439],[-89.565,44.477],[-89.607,44.53],[-89.653,44.548],[-89.66,44.569]],[[-89.944,43.855],[-89.879,43.792],[-89.791,43.65],[-89.787,43.617],[-89.716,43.573],[-89.676,43.581],[-89.578,43.551],[-89.472,43.542],[-89.458,43.499],[-89.575,43.405],[-89.726,43.353],[-89.741,43.278],[-89.762,43.254],[-89.893,43.209],[-90.028,43.2],[-90.073,43.166],[-90.189,43.176],[-90.315,43.213],[-90.613,43.21],[-90.872,43.082],[-91.096,43.006],[-91.154,43.004]]]}},{"type":"Feature","properties":{"n":"Pecos","r":7},"geometry":{"type":"LineString","coordinates":[[-105.635,35.85],[-105.688,35.813],[-105.719,35.681],[-105.664,35.638],[-105.664,35.559],[-105.631,35.516],[-105.481,35.429],[-105.473,35.352],[-105.379,35.311],[-105.338,35.271],[-105.283,35.279],[-105.154,35.251],[-105.138,35.243],[-105.138,35.215],[-105.086,35.191],[-105.046,35.182],[-104.971,35.203],[-104.892,35.179]]}},{"type":"Feature","properties":{"n":"Roanoke","r":7},"geometry":{"type":"LineString","coordinates":[[-78.645,36.697],[-78.678,36.747],[-78.676,36.8]]}},{"type":"Feature","properties":{"n":"Roanoke","r":7},"geometry":{"type":"LineString","coordinates":[[-78.675,36.799],[-78.684,36.808],[-78.663,36.85],[-78.742,36.922],[-78.724,36.939],[-78.742,37.009],[-78.778,36.967],[-78.806,36.994],[-78.888,36.997],[-78.896,37.02],[-78.94,37.045],[-79.042,37.042],[-79.101,37.09],[-79.175,37.07],[-79.197,37.083],[-79.183,37.11],[-79.203,37.124],[-79.218,37.11],[-79.245,37.14],[-79.272,37.11],[-79.311,37.14],[-79.342,37.142],[-79.388,37.083],[-79.431,37.072]]}},{"type":"Feature","properties":{"n":"Susquehanna","r":7},"geometry":{"type":"LineString","coordinates":[[-74.939,42.725],[-74.969,42.657],[-74.942,42.579],[-74.974,42.534],[-74.984,42.489],[-75.146,42.435],[-75.195,42.393],[-75.262,42.377],[-75.281,42.349],[-75.49,42.301],[-75.482,42.271],[-75.51,42.243],[-75.586,42.215],[-75.606,42.181],[-75.599,42.159],[-75.647,42.13],[-75.603,41.984],[-75.608,41.961],[-75.757,41.983],[-75.752,42.006],[-75.804,42.044],[-75.847,42.116],[-75.873,42.106],[-76.014,42.119],[-76.123,42.079],[-76.166,42.111],[-76.275,42.109],[-76.353,42.052],[-76.463,42.041],[-76.509,41.948],[-76.511,41.904],[-76.483,41.819],[-76.442,41.797],[-76.43,41.767],[-76.388,41.78],[-76.356,41.753],[-76.325,41.75],[-76.319,41.709],[-76.277,41.698],[-76.268,41.678],[-76.21,41.674],[-76.188,41.646],[-76.103,41.62],[-76.058,41.633],[-76.065,41.599],[-76.034,41.553],[-75.996,41.571],[-75.911,41.515],[-75.902,41.477],[-75.858,41.465],[-75.839,41.421],[-75.81,41.398]]}},{"type":"Feature","properties":{"n":"Connecticut","r":7},"geometry":{"type":"LineString","coordinates":[[-71.18,45.162],[-71.201,45.14],[-71.289,45.108],[-71.316,45.059],[-71.433,45.059],[-71.532,45.0],[-71.528,44.951],[-71.506,44.92],[-71.515,44.895],[-71.606,44.801],[-71.635,44.74],[-71.55,44.596],[-71.559,44.576],[-71.594,44.57],[-71.598,44.515],[-71.678,44.446],[-71.792,44.398],[-71.841,44.357],[-71.983,44.339],[-72.02,44.318],[-72.042,44.282],[-72.055,44.104],[-72.118,44.001],[-72.101,43.973],[-72.181,43.885],[-72.214,43.784],[-72.306,43.72],[-72.333,43.613],[-72.392,43.558],[-72.404,43.3],[-72.439,43.253],[-72.471,43.006],[-72.522,42.975],[-72.556,42.878],[-72.544,42.823],[-72.473,42.758],[-72.48,42.661]]}},{"type":"Feature","properties":{"n":"Clark Fork","r":7},"geometry":{"type":"LineString","coordinates":[[-116.568,48.251],[-116.483,48.298],[-116.36,48.259],[-116.336,48.226]]}},{"type":"Feature","properties":{"n":"Papaloapan","r":7},"geometry":{"type":"LineString","coordinates":[[-96.398,18.236],[-96.347,18.287],[-96.321,18.293],[-96.278,18.271],[-96.216,18.192],[-96.17,18.186],[-96.16,18.15],[-96.122,18.14],[-96.083,18.172],[-96.033,18.165],[-96.022,18.221],[-95.997,18.186],[-95.98,18.251],[-95.963,18.225],[-95.943,18.243]]}},{"type":"Feature","properties":{"n":"Chattahoochee","r":6},"geometry":{"type":"LineString","coordinates":[[-83.627,34.544],[-83.633,34.601],[-83.673,34.695],[-83.746,34.716]]}},{"type":"Feature","properties":{"n":"Tugaloo","r":6},"geometry":{"type":"LineString","coordinates":[[-82.819,34.366],[-82.857,34.461],[-82.9,34.483],[-83.015,34.482],[-83.166,34.599]]}},{"type":"Feature","properties":{"n":"Tugaloo","r":6},"geometry":{"type":"LineString","coordinates":[[-83.167,34.6],[-83.168,34.613],[-83.199,34.609],[-83.324,34.672],[-83.356,34.708]]}},{"type":"Feature","properties":{"n":"Chattooga","r":6},"geometry":{"type":"LineString","coordinates":[[-83.356,34.708],[-83.308,34.82],[-83.134,34.942],[-83.114,34.999],[-83.134,35.037],[-83.121,35.076]]}},{"type":"Feature","properties":{"n":"Savannah","r":6},"geometry":{"type":"LineString","coordinates":[[-82.75,34.254],[-82.762,34.293],[-82.819,34.366]]}},{"type":"Feature","properties":{"n":"S. Branch Potomac","r":6},"geometry":{"type":"MultiLineString","coordinates":[[[-79.342,38.625],[-79.391,38.597],[-79.507,38.484],[-79.552,38.497],[-79.621,38.441]],[[-79.342,38.625],[-79.287,38.747],[-79.283,38.852],[-79.23,38.926],[-79.22,38.978],[-79.18,39.005],[-79.04,39.015],[-78.973,39.077],[-78.935,39.165],[-78.868,39.201],[-78.828,39.257]]]}},{"type":"Feature","properties":{"n":"Hudson","r":6},"geometry":{"type":"LineString","coordinates":[[-74.075,44.1],[-74.06,43.987],[-74.139,43.967],[-74.189,43.87],[-74.185,43.843],[-74.071,43.806],[-74.052,43.759],[-74.02,43.73],[-73.913,43.703],[-73.872,43.594],[-73.812,43.523],[-73.815,43.494],[-73.861,43.46],[-73.878,43.423],[-73.878,43.373],[-73.836,43.262],[-73.766,43.251],[-73.735,43.278],[-73.669,43.283],[-73.641,43.311],[-73.612,43.301],[-73.584,43.086],[-73.629,42.967],[-73.689,42.897],[-73.681,42.856]]}},{"type":"Feature","properties":{"n":"Saint John","r":6},"geometry":{"type":"MultiLineString","coordinates":[[[-69.75,46.683],[-69.678,46.719],[-69.599,46.786],[-69.569,46.841],[-69.532,46.837],[-69.523,46.862],[-69.49,46.879],[-69.442,46.969],[-69.401,46.977],[-69.377,47.026],[-69.309,47.064],[-69.198,47.102],[-69.157,47.095],[-69.119,47.129],[-69.027,47.102],[-68.962,47.125],[-68.933,47.172],[-68.897,47.191],[-68.763,47.237],[-68.645,47.246],[-68.519,47.305],[-68.436,47.292],[-68.386,47.302],[-68.383,47.328],[-68.349,47.359],[-68.3,47.368],[-68.198,47.342],[-67.994,47.223],[-67.871,47.108],[-67.746,47.054],[-67.684,46.954],[-67.712,46.927],[-67.705,46.865],[-67.719,46.817]],[[-67.524,46.247],[-67.565,46.18],[-67.569,46.087],[-67.523,46.022],[-67.478,46.005],[-67.28,45.971],[-67.175,45.988],[-66.968,45.889],[-66.912,45.9],[-66.833,45.982],[-66.778,45.995],[-66.684,45.985],[-66.47,45.87],[-66.376,45.889],[-66.272,45.871]],[[-66.145,45.775],[-66.101,45.726],[-66.1,45.702],[-66.083,45.692],[-66.087,45.655],[-66.032,45.563],[-66.227,45.392],[-66.223,45.352],[-66.191,45.339]]]}},{"type":"Feature","properties":{"n":"Yadkin","r":6},"geometry":{"type":"LineString","coordinates":[[-81.576,36.074],[-81.556,36.049],[-81.504,36.038],[-81.442,36.078],[-81.313,36.124],[-81.092,36.162]]}},{"type":"Feature","properties":{"n":"Willamette","r":6},"geometry":{"type":"LineString","coordinates":[[-122.095,43.422],[-122.16,43.443],[-122.265,43.511],[-122.422,43.525],[-122.452,43.57],[-122.46,43.614],[-122.428,43.698],[-122.439,43.741],[-122.517,43.769],[-122.546,43.819],[-122.698,43.908],[-122.802,43.934],[-122.928,44.034],[-122.999,44.039],[-123.085,44.081],[-123.103,44.103],[-123.087,44.113],[-123.15,44.272],[-123.212,44.352],[-123.204,44.374],[-123.218,44.381],[-123.19,44.452],[-123.189,44.496],[-123.204,44.545],[-123.232,44.576],[-123.178,44.598],[-123.164,44.642],[-123.06,44.666],[-123.061,44.683],[-123.129,44.72],[-123.115,44.753],[-123.081,44.771],[-123.122,44.783],[-123.078,44.81],[-123.077,44.829],[-123.161,44.856],[-123.081,44.937],[-123.013,44.977],[-123.061,45.025],[-123.057,45.063],[-123.041,45.094],[-122.972,45.135],[-122.992,45.166],[-122.985,45.19],[-123.034,45.224],[-122.974,45.242],[-122.963,45.281],[-122.85,45.27],[-122.668,45.308],[-122.588,45.389],[-122.628,45.439],[-122.65,45.539],[-122.734,45.591],[-122.76,45.624],[-122.734,45.657]]}},{"type":"Feature","properties":{"n":"Pend Orielle","r":6},"geometry":{"type":"MultiLineString","coordinates":[[[-116.57,48.25],[-116.677,48.256],[-116.757,48.162]],[[-116.812,48.157],[-116.855,48.183],[-117.0,48.19],[-117.075,48.241],[-117.233,48.271],[-117.276,48.369],[-117.285,48.472],[-117.255,48.506],[-117.348,48.59],[-117.348,48.627],[-117.389,48.703],[-117.406,48.808],[-117.317,48.937],[-117.343,49.03],[-117.399,49.053],[-117.471,49.055],[-117.626,49.018]]]}},{"type":"Feature","properties":{"n":"Potomac","r":6},"geometry":{"type":"LineString","coordinates":[[-77.458,39.218],[-77.515,39.152],[-77.496,39.124],[-77.422,39.074],[-77.272,39.048],[-77.234,38.987],[-77.147,38.965],[-77.097,38.908],[-77.068,38.902]]}},{"type":"Feature","properties":{"n":"Mississippi","r":5},"geometry":{"type":"MultiLineString","coordinates":[[[-92.134,44.445],[-91.95,44.336],[-91.817,44.163],[-91.65,44.068],[-91.541,44.065],[-91.471,44.026],[-91.414,44.018],[-91.361,43.945],[-91.295,43.919],[-91.279,43.804],[-91.243,43.74],[-91.255,43.667],[-91.248,43.463],[-91.209,43.373],[-91.111,43.34],[-91.087,43.317],[-91.085,43.28],[-91.157,43.195],[-91.168,43.16],[-91.142,42.928],[-91.092,42.871],[-91.08,42.792],[-91.011,42.716],[-90.703,42.655],[-90.626,42.544],[-90.654,42.49],[-90.432,42.352],[-90.403,42.245],[-90.319,42.198]],[[-90.732,41.449],[-90.992,41.434],[-91.055,41.383],[-91.091,41.3],[-91.094,41.211],[-90.969,41.116],[-90.952,41.075],[-90.949,40.982],[-90.967,40.946],[-91.083,40.839],[-91.108,40.742],[-91.153,40.672],[-91.343,40.618],[-91.401,40.581],[-91.415,40.554],[-91.375,40.51],[-91.374,40.403],[-91.473,40.358],[-91.518,40.221],[-91.493,40.009],[-91.446,39.948],[-91.449,39.866],[-91.392,39.803],[-91.375,39.736],[-91.104,39.533],[-91.066,39.464],[-90.972,39.407]]]}},{"type":"Feature","properties":{"n":"Tennessee","r":5},"geometry":{"type":"LineString","coordinates":[[-83.969,35.87],[-83.995,35.884],[-84.032,35.858],[-84.115,35.849],[-84.199,35.771],[-84.24,35.782]]}},{"type":"Feature","properties":{"n":"Holston","r":5},"geometry":{"type":"LineString","coordinates":[[-81.924,36.835],[-82.565,36.621],[-82.608,36.59],[-82.628,36.546],[-82.691,36.514],[-82.691,36.493],[-82.745,36.5],[-82.815,36.48],[-82.797,36.46],[-82.856,36.467],[-82.887,36.429],[-82.981,36.377],[-83.046,36.365],[-83.082,36.377],[-83.165,36.351],[-83.182,36.325],[-83.283,36.273],[-83.363,36.275],[-83.502,36.167],[-83.557,36.181],[-83.583,36.172],[-83.591,36.155],[-83.634,36.142],[-83.634,36.103],[-83.671,36.125],[-83.665,36.096],[-83.696,36.104],[-83.712,36.065],[-83.789,36.051],[-83.853,35.999],[-83.873,35.961],[-83.968,35.936],[-83.98,35.925],[-83.969,35.87]]}},{"type":"Feature","properties":{"n":"Rio Grande","r":4},"geometry":{"type":"LineString","coordinates":[[-106.233,37.652],[-106.134,37.598],[-105.912,37.553],[-105.859,37.524],[-105.755,37.399],[-105.721,37.278],[-105.744,37.244],[-105.729,37.204],[-105.763,37.058],[-105.724,37.011],[-105.728,36.94],[-105.695,36.872],[-105.683,36.786],[-105.692,36.637],[-105.733,36.491],[-105.73,36.378],[-105.754,36.314],[-105.786,36.281],[-105.899,36.212],[-105.942,36.202],[-106.058,36.097],[-106.067,36.017],[-106.115,35.903],[-106.176,35.821],[-106.325,35.704],[-106.316,35.656],[-106.393,35.536],[-106.43,35.438],[-106.583,35.312]]}},{"type":"Feature","properties":{"n":"Arkansas","r":4},"geometry":{"type":"LineString","coordinates":[[-94.1,35.46],[-94.048,35.489],[-93.943,35.491],[-93.897,35.508],[-93.825,35.477],[-93.8,35.418],[-93.763,35.392],[-93.629,35.39],[-93.556,35.42],[-93.442,35.428],[-93.387,35.357],[-93.305,35.353],[-93.186,35.267],[-93.11,35.185],[-92.87,35.184],[-92.796,35.135],[-92.747,35.13],[-92.72,35.097],[-92.664,35.089],[-92.555,35.127],[-92.547,35.11],[-92.584,35.004],[-92.495,34.972]]}},{"type":"Feature","properties":{"n":"Columbia","r":3},"geometry":{"type":"MultiLineString","coordinates":[[[-117.88,50.103],[-117.827,50.132],[-117.81,50.178],[-117.92,50.392],[-117.926,50.585],[-117.906,50.682]],[[-117.907,49.342],[-118.027,49.407],[-118.123,49.506],[-118.143,49.622],[-118.092,49.802]],[[-118.207,48.412],[-118.209,48.462],[-118.134,48.599],[-118.072,48.664]]]}},{"type":"Feature","properties":{"n":"Columbia","r":3},"geometry":{"type":"MultiLineString","coordinates":[[[-116.223,50.752],[-116.137,50.672],[-115.991,50.455],[-115.896,50.368],[-115.872,50.335],[-115.865,50.287]],[[-117.906,50.683],[-117.937,50.705]],[[-118.092,49.802],[-118.085,49.883],[-118.068,49.908],[-117.91,49.992],[-117.9,50.017],[-117.93,50.089],[-117.88,50.103]],[[-118.074,48.664],[-118.042,48.679],[-118.062,48.746],[-118.003,48.8],[-117.937,48.816],[-117.739,48.952],[-117.647,48.988],[-117.621,49.033],[-117.647,49.085],[-117.728,49.12],[-117.722,49.167],[-117.663,49.228],[-117.659,49.327],[-117.715,49.346],[-117.907,49.342]],[[-121.982,45.639],[-122.15,45.594]],[[-122.781,45.84],[-122.753,45.782],[-122.748,45.679],[-122.673,45.626],[-122.54,45.622],[-122.426,45.588],[-122.342,45.587],[-122.261,45.566],[-122.15,45.594]]]}},{"type":"Feature","properties":{"n":"Allegheny","r":3},"geometry":{"type":"MultiLineString","coordinates":[[[-77.86,41.832],[-77.977,41.824],[-78.045,41.764],[-78.256,41.797]],[[-78.385,41.964],[-78.378,41.993],[-78.327,42.014],[-78.333,42.038],[-78.383,42.074],[-78.453,42.079]]]}},{"type":"Feature","properties":{"n":"North Fork Salt","r":12},"geometry":{"type":"LineString","coordinates":[[-92.551,40.404],[-92.53,40.382],[-92.545,40.322],[-92.431,40.202]]}},{"type":"Feature","properties":{"n":"North Fork Salt","r":12},"geometry":{"type":"LineString","coordinates":[[-92.431,40.202],[-92.334,40.077],[-92.276,39.964],[-92.255,39.857],[-92.224,39.809],[-92.069,39.747],[-92.009,39.752],[-91.945,39.69],[-91.916,39.682],[-91.918,39.6],[-91.84,39.511]]}},{"type":"Feature","properties":{"n":"Salt","r":12},"geometry":{"type":"LineString","coordinates":[[-91.069,39.474],[-91.125,39.506],[-91.212,39.525],[-91.219,39.552],[-91.271,39.542],[-91.308,39.565],[-91.343,39.563],[-91.393,39.615],[-91.43,39.603],[-91.462,39.616],[-91.531,39.586],[-91.557,39.602],[-91.58,39.562],[-91.625,39.555],[-91.612,39.533],[-91.674,39.531]]}},{"type":"Feature","properties":{"n":"Spring","r":12},"geometry":{"type":"LineString","coordinates":[[-93.731,36.937],[-93.797,36.952],[-93.831,37.045],[-93.901,37.124]]}},{"type":"Feature","properties":{"n":"Spring","r":12},"geometry":{"type":"LineString","coordinates":[[-93.901,37.124],[-93.95,37.143],[-94.104,37.151]]}},{"type":"Feature","properties":{"n":"Illinois","r":12},"geometry":{"type":"LineString","coordinates":[[-94.317,35.866],[-94.25,35.953],[-94.319,36.028],[-94.341,36.101]]}},{"type":"Feature","properties":{"n":"Illinois","r":12},"geometry":{"type":"LineString","coordinates":[[-94.341,36.101],[-94.375,36.174],[-94.459,36.154]]}},{"type":"Feature","properties":{"n":"Bryant","r":12},"geometry":{"type":"LineString","coordinates":[[-92.669,37.076],[-92.585,37.022],[-92.532,37.009],[-92.496,36.911]]}},{"type":"Feature","properties":{"n":"Bryant","r":12},"geometry":{"type":"LineString","coordinates":[[-92.496,36.911],[-92.466,36.858],[-92.386,36.817],[-92.283,36.729],[-92.27,36.692],[-92.312,36.626],[-92.286,36.581]]}},{"type":"Feature","properties":{"n":"North Fork White","r":12},"geometry":{"type":"LineString","coordinates":[[-92.226,36.247],[-92.3,36.216]]}},{"type":"Feature","properties":{"n":"Nehalem","r":12},"geometry":{"type":"MultiLineString","coordinates":[[[-123.871,45.698],[-123.868,45.7]],[[-123.86,45.703],[-123.77,45.696],[-123.757,45.729],[-123.678,45.741],[-123.64,45.77]]]}},{"type":"Feature","properties":{"n":"Clackamas","r":12},"geometry":{"type":"LineString","coordinates":[[-122.597,45.373],[-122.517,45.402],[-122.417,45.384],[-122.388,45.361],[-122.374,45.312],[-122.292,45.248],[-122.214,45.193],[-122.088,45.14],[-122.058,45.079],[-122.062,45.039],[-121.999,45.019],[-121.922,45.017]]}},{"type":"Feature","properties":{"n":"Clackamas","r":12},"geometry":{"type":"LineString","coordinates":[[-121.922,45.017],[-121.885,44.989],[-121.895,44.855]]}},{"type":"Feature","properties":{"n":"Zumbro","r":12},"geometry":{"type":"LineString","coordinates":[[-92.367,44.232],[-92.301,44.243],[-92.229,44.3],[-92.134,44.311],[-92.101,44.342],[-91.924,44.303]]}},{"type":"Feature","properties":{"n":"Sac","r":12},"geometry":{"type":"LineString","coordinates":[[-93.424,37.194],[-93.515,37.202],[-93.605,37.252],[-93.626,37.284],[-93.614,37.318]]}},{"type":"Feature","properties":{"n":"Sac","r":12},"geometry":{"type":"LineString","coordinates":[[-93.614,37.318],[-93.619,37.372],[-93.689,37.446]]}},{"type":"Feature","properties":{"n":"Middle Fork Little Red","r":12},"geometry":{"type":"LineString","coordinates":[[-92.777,35.714],[-92.774,35.732],[-92.714,35.769],[-92.658,35.773],[-92.646,35.801],[-92.601,35.795],[-92.576,35.815],[-92.499,35.79]]}},{"type":"Feature","properties":{"n":"Middle Fork Little Red","r":12},"geometry":{"type":"LineString","coordinates":[[-92.499,35.79],[-92.465,35.775],[-92.412,35.781],[-92.388,35.737],[-92.345,35.752],[-92.314,35.703],[-92.309,35.65],[-92.267,35.659],[-92.204,35.626]]}},{"type":"Feature","properties":{"n":"Little Red","r":12},"geometry":{"type":"LineString","coordinates":[[-92.013,35.524],[-91.98,35.51],[-91.937,35.52],[-91.94,35.501],[-91.977,35.488],[-91.945,35.458],[-91.847,35.439],[-91.775,35.454],[-91.739,35.438],[-91.705,35.41],[-91.714,35.335],[-91.741,35.317],[-91.712,35.281]]}},{"type":"Feature","properties":{"n":"Duncan","r":11},"geometry":{"type":"MultiLineString","coordinates":[[[-116.954,50.235],[-116.943,50.261]]]}},{"type":"Feature","properties":{"n":"Kootenay","r":10},"geometry":{"type":"LineString","coordinates":[[-116.945,49.624],[-117.173,49.594],[-117.239,49.558],[-117.3,49.498],[-117.455,49.481],[-117.517,49.448],[-117.573,49.355],[-117.658,49.319]]}},{"type":"Feature","properties":{"n":"Mixteco","r":12},"geometry":{"type":"LineString","coordinates":[[-97.838,17.325],[-97.753,17.219],[-97.714,17.221],[-97.636,17.257]]}},{"type":"Feature","properties":{"n":"Salado","r":12},"geometry":{"type":"LineString","coordinates":[[-97.606,17.979],[-97.665,17.971],[-97.676,17.91],[-97.738,17.818]]}},{"type":"Feature","properties":{"n":"Atoyaquillo","r":12},"geometry":{"type":"LineString","coordinates":[[-97.935,17.0],[-97.957,17.033],[-97.97,17.104],[-97.959,17.181],[-97.984,17.219]]}},{"type":"Feature","properties":{"n":"Colorado","r":10},"geometry":{"type":"LineString","coordinates":[[-97.278,17.522],[-97.251,17.382],[-97.269,17.315]]}},{"type":"Feature","properties":{"n":"Grande","r":11},"geometry":{"type":"LineString","coordinates":[[-96.56,17.344],[-96.524,17.304],[-96.448,17.271],[-96.407,17.212]]}},{"type":"Feature","properties":{"n":"Salado","r":12},"geometry":{"type":"LineString","coordinates":[[-97.254,18.347],[-97.209,18.293]]}},{"type":"Feature","properties":{"n":"Cajones","r":12},"geometry":{"type":"LineString","coordinates":[[-96.198,17.333],[-96.173,17.221],[-96.185,17.161],[-96.164,17.094]]}},{"type":"Feature","properties":{"n":"Colotepec","r":12},"geometry":{"type":"LineString","coordinates":[[-96.578,16.147],[-96.625,16.124],[-96.68,16.02],[-96.72,16.004]]}},{"type":"Feature","properties":{"n":"Quiechapa","r":10},"geometry":{"type":"LineString","coordinates":[[-96.384,16.218],[-96.387,16.243],[-96.473,16.348],[-96.437,16.381],[-96.405,16.5],[-96.341,16.576],[-96.316,16.647],[-96.275,16.664],[-96.207,16.646],[-96.144,16.674],[-96.022,16.62],[-95.954,16.63]]}},{"type":"Feature","properties":{"n":"Trapiche","r":10},"geometry":{"type":"LineString","coordinates":[[-95.547,16.792],[-95.564,16.824],[-95.566,16.894],[-95.547,16.984]]}},{"type":"Feature","properties":{"n":"Trinidad","r":11},"geometry":{"type":"LineString","coordinates":[[-95.69,17.254],[-95.721,17.217],[-95.717,17.188],[-95.75,17.175],[-95.802,17.098],[-95.826,17.025]]}},{"type":"Feature","properties":{"n":"Batten Kill","r":10},"geometry":{"type":"LineString","coordinates":[[-73.587,43.119],[-73.541,43.118],[-73.488,43.093],[-73.429,43.11],[-73.429,43.135],[-73.385,43.14],[-73.361,43.131],[-73.342,43.083],[-73.274,43.102],[-73.174,43.079],[-73.138,43.099]]}},{"type":"Feature","properties":{"n":"West Branch Ausable","r":10},"geometry":{"type":"LineString","coordinates":[[-73.922,44.312],[-73.972,44.233],[-73.946,44.187]]}},{"type":"Feature","properties":{"n":"East Branch Sacandaga","r":10},"geometry":{"type":"LineString","coordinates":[[-74.186,43.495],[-74.119,43.567],[-74.125,43.603],[-74.151,43.618],[-74.139,43.662]]}},{"type":"Feature","properties":{"n":"Nolichucky","r":11},"geometry":{"type":"LineString","coordinates":[[-82.12,35.931],[-82.056,35.906],[-81.994,35.924],[-81.988,35.94],[-82.028,35.958],[-82.01,35.981],[-82.014,36.061],[-81.978,36.097],[-81.913,36.074],[-81.883,36.102]]}},{"type":"Feature","properties":{"n":"Pigeon","r":12},"geometry":{"type":"LineString","coordinates":[[-82.993,35.644],[-82.953,35.595],[-82.943,35.549],[-82.844,35.535],[-82.884,35.479]]}},{"type":"Feature","properties":{"n":"French Broad","r":11},"geometry":{"type":"LineString","coordinates":[[-82.602,35.3],[-82.641,35.265],[-82.69,35.252],[-82.724,35.192],[-82.789,35.168],[-82.81,35.139]]}},{"type":"Feature","properties":{"n":"Powell","r":11},"geometry":{"type":"LineString","coordinates":[[-82.635,36.95],[-82.655,36.931],[-82.772,36.908],[-82.783,36.867],[-82.827,36.84]]}},{"type":"Feature","properties":{"n":"North Fork New","r":12},"geometry":{"type":"LineString","coordinates":[[-81.379,36.517],[-81.419,36.507],[-81.449,36.479],[-81.486,36.48],[-81.659,36.427],[-81.703,36.385]]}},{"type":"Feature","properties":{"n":"S.  Br.  Penobscot","r":10},"geometry":{"type":"LineString","coordinates":[[-70.221,45.912],[-70.219,45.911]]}},{"type":"Feature","properties":{"n":"Mattawamkeag","r":12},"geometry":{"type":"LineString","coordinates":[[-68.091,45.622],[-67.996,45.728],[-67.966,45.741],[-67.958,45.789],[-67.987,45.825]]}},{"type":"Feature","properties":{"n":"Moose","r":11},"geometry":{"type":"LineString","coordinates":[[-70.15,45.637],[-70.273,45.622],[-70.269,45.564],[-70.237,45.527],[-70.244,45.513],[-70.408,45.548],[-70.466,45.515],[-70.457,45.477]]}},{"type":"Feature","properties":{"n":"North Branch Dead","r":12},"geometry":{"type":"LineString","coordinates":[[-70.451,45.191],[-70.5,45.244],[-70.557,45.26],[-70.723,45.366],[-70.798,45.377],[-70.782,45.329],[-70.792,45.306]]}},{"type":"Feature","properties":{"n":"Saco","r":12},"geometry":{"type":"LineString","coordinates":[[-71.142,44.041],[-71.185,44.102],[-71.35,44.085],[-71.368,44.145],[-71.409,44.182],[-71.412,44.209]]}},{"type":"Feature","properties":{"n":"Winooski","r":10},"geometry":{"type":"LineString","coordinates":[[-72.415,44.071],[-72.438,44.101],[-72.433,44.135],[-72.447,44.155],[-72.558,44.23]]}},{"type":"Feature","properties":{"n":"Winooski","r":10},"geometry":{"type":"MultiLineString","coordinates":[[[-72.558,44.23],[-72.579,44.255],[-72.654,44.271],[-72.8,44.354],[-72.997,44.397],[-73.042,44.466],[-73.191,44.487],[-73.27,44.526]],[[-73.325,45.076],[-73.325,45.078]]]}},{"type":"Feature","properties":{"n":"Lamoille","r":12},"geometry":{"type":"LineString","coordinates":[[-72.267,44.618],[-72.243,44.582],[-72.271,44.542],[-72.33,44.502],[-72.42,44.52],[-72.488,44.552]]}},{"type":"Feature","properties":{"n":"Lamoille","r":12},"geometry":{"type":"LineString","coordinates":[[-72.488,44.552],[-72.534,44.568],[-72.606,44.564],[-72.678,44.621],[-72.781,44.664],[-72.856,44.643],[-73.09,44.678],[-73.115,44.648],[-73.203,44.606],[-73.23,44.61]]}},{"type":"Feature","properties":{"n":"Raquette","r":11},"geometry":{"type":"LineString","coordinates":[[-74.545,44.233],[-74.472,44.211],[-74.396,44.232],[-74.331,44.193],[-74.327,44.156],[-74.351,44.128],[-74.332,44.084],[-74.451,43.959]]}},{"type":"Feature","properties":{"n":"Raquette","r":11},"geometry":{"type":"MultiLineString","coordinates":[[[-74.451,43.959],[-74.485,43.924],[-74.562,43.901]],[[-74.536,43.766],[-74.507,43.769]]]}},{"type":"Feature","properties":{"n":"Tonawanda Cr.","r":12},"geometry":{"type":"LineString","coordinates":[[-78.344,42.674],[-78.347,42.701],[-78.305,42.729],[-78.308,42.802],[-78.236,42.914]]}},{"type":"Feature","properties":{"n":"Genesee","r":10},"geometry":{"type":"LineString","coordinates":[[-78.001,42.193],[-77.927,42.098],[-77.918,42.049],[-77.817,41.956],[-77.799,41.907]]}},{"type":"Feature","properties":{"n":"Cohocton","r":12},"geometry":{"type":"LineString","coordinates":[[-77.526,42.648],[-77.53,42.56],[-77.472,42.55],[-77.498,42.492],[-77.463,42.443],[-77.344,42.345]]}},{"type":"Feature","properties":{"n":"Tioga","r":12},"geometry":{"type":"LineString","coordinates":[[-77.124,41.869],[-77.084,41.807],[-77.09,41.722],[-77.058,41.665],[-76.946,41.678],[-76.884,41.756]]}},{"type":"Feature","properties":{"n":"N. Fk. S. Br. Potomac","r":12},"geometry":{"type":"LineString","coordinates":[[-79.677,38.45],[-79.673,38.478],[-79.607,38.564],[-79.561,38.579]]}},{"type":"Feature","properties":{"n":"S.  Fk.  S.  Br.  Potomac","r":12},"geometry":{"type":"LineString","coordinates":[[-79.326,38.485],[-79.195,38.675]]}},{"type":"Feature","properties":{"n":"North","r":12},"geometry":{"type":"LineString","coordinates":[[-79.267,38.413],[-79.28,38.385],[-79.229,38.329],[-79.166,38.358],[-79.102,38.348],[-79.068,38.386],[-79.045,38.39]]}},{"type":"Feature","properties":{"n":"South","r":10},"geometry":{"type":"LineString","coordinates":[[-78.881,38.071],[-78.998,38.017],[-79.083,38.025],[-79.211,37.983]]}},{"type":"Feature","properties":{"n":"Rapidan","r":10},"geometry":{"type":"LineString","coordinates":[[-78.156,38.277],[-78.235,38.234],[-78.28,38.268],[-78.345,38.278],[-78.373,38.345],[-78.355,38.403],[-78.366,38.453],[-78.416,38.493]]}},{"type":"Feature","properties":{"n":"Rappahannock","r":12},"geometry":{"type":"LineString","coordinates":[[-78.112,38.878],[-78.12,38.854],[-78.025,38.787],[-77.998,38.716],[-77.917,38.698],[-77.877,38.657]]}},{"type":"Feature","properties":{"n":"Calfpasture","r":12},"geometry":{"type":"LineString","coordinates":[[-79.286,38.341],[-79.299,38.271],[-79.383,38.182]]}},{"type":"Feature","properties":{"n":"Jackson","r":12},"geometry":{"type":"LineString","coordinates":[[-79.611,38.411],[-79.6,38.389],[-79.652,38.313],[-79.674,38.25],[-79.723,38.192]]}},{"type":"Feature","properties":{"n":"Nottoway","r":11},"geometry":{"type":"LineString","coordinates":[[-77.968,36.988],[-77.831,36.993],[-77.774,36.975],[-77.673,36.898]]}},{"type":"Feature","properties":{"n":"Meherrin","r":11},"geometry":{"type":"LineString","coordinates":[[-78.275,36.821],[-77.998,36.774],[-77.924,36.718],[-77.834,36.718]]}},{"type":"Feature","properties":{"n":"Catawba","r":10},"geometry":{"type":"LineString","coordinates":[[-81.843,35.745],[-81.825,35.732],[-81.791,35.748],[-81.731,35.742],[-81.629,35.787],[-81.517,35.779]]}},{"type":"Feature","properties":{"n":"Saluda","r":11},"geometry":{"type":"LineString","coordinates":[[-82.761,35.06],[-82.575,35.071],[-82.592,35.053],[-82.593,35.016],[-82.547,35.01],[-82.519,34.931]]}},{"type":"Feature","properties":{"n":"Fox","r":10},"geometry":{"type":"LineString","coordinates":[[-89.032,43.918],[-89.101,43.89],[-89.129,43.832],[-89.2,43.818],[-89.24,43.885],[-89.305,43.916],[-89.361,43.992]]}},{"type":"Feature","properties":{"n":"Current","r":11},"geometry":{"type":"LineString","coordinates":[[-91.893,37.225],[-91.822,37.25],[-91.791,37.288],[-91.722,37.304],[-91.71,37.328]]}},{"type":"Feature","properties":{"n":"Osage Fork Gasconade","r":11},"geometry":{"type":"LineString","coordinates":[[-92.588,37.55],[-92.621,37.536],[-92.646,37.497],[-92.705,37.488],[-92.77,37.431],[-92.756,37.41],[-92.826,37.332],[-92.767,37.279]]}},{"type":"Feature","properties":{"n":"Wapsipinicon","r":10},"geometry":{"type":"LineString","coordinates":[[-92.654,43.487],[-92.615,43.449],[-92.603,43.399],[-92.572,43.374],[-92.516,43.152]]}},{"type":"Feature","properties":{"n":"Turkey","r":11},"geometry":{"type":"LineString","coordinates":[[-91.966,43.214],[-92.085,43.333],[-92.311,43.336]]}},{"type":"Feature","properties":{"n":"Chariton","r":11},"geometry":{"type":"LineString","coordinates":[[-93.683,40.924],[-93.565,40.939],[-93.515,40.959],[-93.422,40.951]]}},{"type":"Feature","properties":{"n":"Canadian","r":10},"geometry":{"type":"LineString","coordinates":[[-105.033,36.99],[-104.622,36.913]]}},{"type":"Feature","properties":{"n":"Canadian","r":10},"geometry":{"type":"LineString","coordinates":[[-104.622,36.913],[-104.53,36.862],[-104.46,36.85],[-104.448,36.827],[-104.463,36.713],[-104.523,36.591],[-104.547,36.474],[-104.546,36.453],[-104.51,36.418]]}},{"type":"Feature","properties":{"n":"Cimarron","r":10},"geometry":{"type":"LineString","coordinates":[[-104.029,36.868],[-104.164,36.904]]}},{"type":"Feature","properties":{"n":"Purgatoire","r":11},"geometry":{"type":"LineString","coordinates":[[-105.128,37.285],[-105.092,37.244],[-105.04,37.233],[-104.897,37.144],[-104.704,37.115],[-104.589,37.126]]}},{"type":"Feature","properties":{"n":"Rio Chama","r":12},"geometry":{"type":"LineString","coordinates":[[-106.727,36.596],[-106.713,36.553],[-106.722,36.496],[-106.673,36.361],[-106.575,36.318],[-106.543,36.274],[-106.474,36.28]]}},{"type":"Feature","properties":{"n":"North Umpqua","r":11},"geometry":{"type":"LineString","coordinates":[[-122.122,43.309],[-122.164,43.308],[-122.242,43.353],[-122.353,43.308]]}},{"type":"Feature","properties":{"n":"South Santium","r":12},"geometry":{"type":"LineString","coordinates":[[-122.463,44.478],[-122.363,44.525],[-122.182,44.511],[-122.114,44.534],[-122.022,44.529]]}},{"type":"Feature","properties":{"n":"North Santium","r":11},"geometry":{"type":"LineString","coordinates":[[-121.817,44.739],[-121.838,44.775],[-121.878,44.799],[-122.108,44.765],[-122.194,44.703],[-122.244,44.716]]}},{"type":"Feature","properties":{"n":"Duncan","r":11},"geometry":{"type":"LineString","coordinates":[[-117.101,50.701],[-117.192,50.772],[-117.18,50.843]]}},{"type":"Feature","properties":{"n":"Kettle","r":11},"geometry":{"type":"LineString","coordinates":[[-118.296,50.099],[-118.324,50.122],[-118.37,50.129],[-118.45,50.104],[-118.684,49.948]]}},{"type":"Feature","properties":{"n":"Chaudière","r":10},"geometry":{"type":"LineString","coordinates":[[-70.891,45.538],[-70.86,45.365],[-70.9,45.333],[-70.89,45.267]]}},{"type":"Feature","properties":{"n":"Yamaska","r":12},"geometry":{"type":"LineString","coordinates":[[-72.811,45.275],[-72.736,45.278],[-72.658,45.327],[-72.509,45.277]]}},{"type":"Feature","properties":{"n":"Nicolet","r":11},"geometry":{"type":"LineString","coordinates":[[-71.883,45.997],[-71.775,45.909],[-71.707,45.891],[-71.645,45.824],[-71.597,45.822]]}},{"type":"Feature","properties":{"n":"St. Francis","r":12},"geometry":{"type":"LineString","coordinates":[[-69.184,47.453],[-69.249,47.473],[-69.304,47.549],[-69.288,47.734]]}},{"type":"Feature","properties":{"n":"Restigouche","r":12},"geometry":{"type":"LineString","coordinates":[[-67.579,47.586],[-67.631,47.523],[-67.728,47.472],[-67.8,47.405]]}},{"type":"Feature","properties":{"n":"Patapédia","r":11},"geometry":{"type":"LineString","coordinates":[[-67.959,48.258],[-67.869,48.214],[-67.81,48.165],[-67.787,48.109],[-67.668,48.067]]}},{"type":"Feature","properties":{"n":"Tobique","r":11},"geometry":{"type":"LineString","coordinates":[[-67.179,47.298],[-67.185,47.334],[-67.17,47.365],[-67.073,47.446],[-67.007,47.471]]}},{"type":"Feature","properties":{"n":"Saint Croix","r":11},"geometry":{"type":"LineString","coordinates":[[-67.811,45.767],[-67.773,45.828],[-67.799,45.876],[-67.758,45.919],[-67.785,45.96]]}},{"type":"Feature","properties":{"n":"Annapolis","r":10},"geometry":{"type":"LineString","coordinates":[[-64.74,44.913],[-64.787,44.944],[-64.799,44.997],[-64.825,45.005]]}},{"type":"Feature","properties":{"n":"Salmon","r":12},"geometry":{"type":"LineString","coordinates":[[-62.966,45.468],[-63.208,45.375],[-63.311,45.377],[-63.36,45.361]]}},{"type":"Feature","properties":{"n":"Portneuf","r":11},"geometry":{"type":"LineString","coordinates":[[-70.145,48.963],[-70.181,48.917],[-70.171,48.899],[-70.114,48.888]]}},{"type":"Feature","properties":{"n":"Mixteco","r":12},"geometry":{"type":"LineString","coordinates":[[-98.015,17.589],[-97.974,17.544],[-97.965,17.468],[-97.922,17.452],[-97.861,17.391],[-97.838,17.325]]}},{"type":"Feature","properties":{"n":"Salado","r":12},"geometry":{"type":"LineString","coordinates":[[-97.738,17.818],[-97.771,17.797],[-97.812,17.731],[-97.977,17.674]]}},{"type":"Feature","properties":{"n":"Verde","r":10},"geometry":{"type":"LineString","coordinates":[[-98.097,16.935],[-98.075,16.89]]}},{"type":"Feature","properties":{"n":"La Mariscala","r":10},"geometry":{"type":"LineString","coordinates":[[-98.075,16.89],[-98.082,16.84]]}},{"type":"Feature","properties":{"n":"Atoyaquillo","r":12},"geometry":{"type":"LineString","coordinates":[[-97.551,16.494],[-97.582,16.573],[-97.672,16.649],[-97.703,16.735],[-97.786,16.784],[-97.8,16.821],[-97.839,16.833],[-97.895,16.961],[-97.935,17.0]]}},{"type":"Feature","properties":{"n":"Colorado","r":12},"geometry":{"type":"LineString","coordinates":[[-97.269,17.315],[-97.231,17.19],[-97.263,17.117],[-97.283,17.078],[-97.338,17.07],[-97.375,16.99],[-97.456,16.924],[-97.468,16.858],[-97.512,16.804],[-97.564,16.674],[-97.61,16.627],[-97.614,16.59]]}},{"type":"Feature","properties":{"n":"Santo Domingo","r":10},"geometry":{"type":"MultiLineString","coordinates":[[[-96.132,18.141],[-96.119,18.079],[-96.251,18.001],[-96.293,18.011]],[[-96.425,18.027],[-96.506,18.063],[-96.551,18.038],[-96.622,18.036],[-96.703,18.01],[-96.82,18.029],[-96.881,18.0],[-96.921,17.949],[-96.974,17.92]]]}},{"type":"Feature","properties":{"n":"Grande","r":11},"geometry":{"type":"LineString","coordinates":[[-96.974,17.92],[-97.012,17.846],[-96.932,17.723],[-96.826,17.67],[-96.729,17.684],[-96.631,17.595],[-96.568,17.405],[-96.583,17.371],[-96.56,17.344]]}},{"type":"Feature","properties":{"n":"Salado","r":11},"geometry":{"type":"LineString","coordinates":[[-97.209,18.293],[-97.118,18.118],[-97.105,18.038],[-97.051,17.992],[-97.022,17.941],[-96.974,17.92]]}},{"type":"Feature","properties":{"n":"Tesechoacan","r":12},"geometry":{"type":"LineString","coordinates":[[-95.703,18.06],[-95.692,18.002],[-95.705,17.952],[-95.801,17.842],[-95.856,17.837],[-95.874,17.771]]}},{"type":"Feature","properties":{"n":"Cajones","r":12},"geometry":{"type":"LineString","coordinates":[[-95.874,17.771],[-95.907,17.77],[-95.974,17.804],[-96.065,17.767],[-96.181,17.577],[-96.218,17.568],[-96.277,17.523],[-96.275,17.494],[-96.191,17.381],[-96.198,17.333]]}},{"type":"Feature","properties":{"n":"Colotepec","r":12},"geometry":{"type":"LineString","coordinates":[[-96.72,16.004],[-96.865,15.932],[-96.91,15.894],[-96.969,15.886],[-97.045,15.832]]}},{"type":"Feature","properties":{"n":"Tehuantepec","r":10},"geometry":{"type":"LineString","coordinates":[[-95.449,16.481],[-95.455,16.524],[-95.501,16.596],[-95.553,16.618],[-95.621,16.678],[-95.748,16.724],[-95.833,16.775],[-95.884,16.778],[-95.936,16.643],[-95.954,16.63]]}},{"type":"Feature","properties":{"n":"San Andres","r":12},"geometry":{"type":"LineString","coordinates":[[-95.547,16.984],[-95.512,17.028],[-95.494,17.095],[-95.411,17.213]]}},{"type":"Feature","properties":{"n":"Jaltepec","r":12},"geometry":{"type":"LineString","coordinates":[[-95.411,17.213],[-95.392,17.269],[-95.41,17.338],[-95.401,17.351],[-95.316,17.36]]}},{"type":"Feature","properties":{"n":"Trinidad","r":12},"geometry":{"type":"LineString","coordinates":[[-95.347,17.482],[-95.425,17.439],[-95.571,17.408],[-95.576,17.384],[-95.678,17.294],[-95.69,17.254]]}},{"type":"Feature","properties":{"n":"Batten Kill","r":10},"geometry":{"type":"LineString","coordinates":[[-73.138,43.099],[-73.089,43.123],[-73.03,43.18],[-73.013,43.247]]}},{"type":"Feature","properties":{"n":"Ausable","r":10},"geometry":{"type":"LineString","coordinates":[[-73.432,44.557],[-73.462,44.552],[-73.49,44.495],[-73.753,44.429]]}},{"type":"Feature","properties":{"n":"West Branch Ausable","r":10},"geometry":{"type":"LineString","coordinates":[[-73.753,44.429],[-73.922,44.312]]}},{"type":"Feature","properties":{"n":"Sacandaga","r":10},"geometry":{"type":"LineString","coordinates":[[-74.195,43.242],[-74.227,43.259],[-74.292,43.37],[-74.295,43.395],[-74.248,43.447]]}},{"type":"Feature","properties":{"n":"East Branch Sacandaga","r":10},"geometry":{"type":"LineString","coordinates":[[-74.248,43.447],[-74.186,43.495]]}},{"type":"Feature","properties":{"n":"Sacandaga","r":12},"geometry":{"type":"LineString","coordinates":[[-73.855,43.316],[-73.94,43.304]]}},{"type":"Feature","properties":{"n":"La Chute","r":10},"geometry":{"type":"LineString","coordinates":[[-73.403,43.823],[-73.437,43.819]]}},{"type":"Feature","properties":{"n":"Nolichucky","r":10},"geometry":{"type":"LineString","coordinates":[[-83.241,36.065],[-83.219,36.146],[-83.186,36.131],[-83.175,36.17],[-83.138,36.13],[-83.077,36.098],[-82.919,36.072],[-82.894,36.055],[-82.762,36.129],[-82.672,36.21],[-82.579,36.151],[-82.516,36.192],[-82.459,36.204],[-82.439,36.15],[-82.448,36.117],[-82.408,36.073],[-82.35,36.08],[-82.331,36.029],[-82.302,36.037],[-82.266,36.005],[-82.206,36.015],[-82.178,35.936],[-82.12,35.931]]}},{"type":"Feature","properties":{"n":"Pigeon","r":12},"geometry":{"type":"LineString","coordinates":[[-83.192,36.029],[-83.171,35.922],[-83.194,35.879],[-83.177,35.82],[-83.148,35.819],[-83.067,35.755],[-83.044,35.755],[-83.029,35.731],[-83.042,35.697],[-82.994,35.665],[-82.993,35.644]]}},{"type":"Feature","properties":{"n":"French Broad","r":10},"geometry":{"type":"LineString","coordinates":[[-83.26,36.044],[-83.229,36.07],[-83.162,35.99],[-83.087,35.939],[-83.049,35.943],[-82.993,35.917],[-82.891,35.939],[-82.819,35.883],[-82.773,35.87],[-82.714,35.79],[-82.655,35.777],[-82.669,35.741],[-82.621,35.708],[-82.618,35.667],[-82.577,35.62],[-82.566,35.577],[-82.584,35.553],[-82.559,35.526],[-82.59,35.493],[-82.561,35.477],[-82.528,35.393],[-82.576,35.327],[-82.578,35.301],[-82.602,35.3]]}},{"type":"Feature","properties":{"n":"French Broad","r":10},"geometry":{"type":"LineString","coordinates":[[-83.547,35.947],[-83.625,35.93],[-83.659,35.946],[-83.657,35.961],[-83.73,35.966],[-83.738,35.943],[-83.769,35.96],[-83.788,35.942],[-83.802,35.958],[-83.834,35.942],[-83.873,35.961]]}},{"type":"Feature","properties":{"n":"Powell","r":11},"geometry":{"type":"LineString","coordinates":[[-82.827,36.84],[-82.915,36.789],[-82.924,36.764],[-83.008,36.732],[-83.029,36.686],[-83.175,36.641],[-83.227,36.641],[-83.408,36.552],[-83.478,36.545],[-83.503,36.533],[-83.504,36.512],[-83.553,36.55],[-83.571,36.536],[-83.613,36.554],[-83.642,36.543],[-83.657,36.51],[-83.751,36.469],[-83.784,36.419],[-83.851,36.403]]}},{"type":"Feature","properties":{"n":"Clinch","r":11},"geometry":{"type":"LineString","coordinates":[[-83.487,36.372],[-83.459,36.372],[-83.442,36.406],[-83.367,36.423],[-83.214,36.517],[-83.05,36.556],[-83.018,36.583],[-82.93,36.576],[-82.757,36.648],[-82.732,36.681],[-82.652,36.707],[-82.609,36.753],[-82.468,36.82],[-82.377,36.891],[-82.257,36.899],[-82.222,36.915]]}},{"type":"Feature","properties":{"n":"Clinch","r":11},"geometry":{"type":"MultiLineString","coordinates":[[[-84.189,35.989],[-84.161,35.996],[-84.174,36.024]],[[-84.149,36.085],[-84.116,36.104],[-84.107,36.088],[-84.097,36.097],[-84.121,36.139]],[[-84.083,36.209],[-84.08,36.213]]]}},{"type":"Feature","properties":{"n":"S.  Fk.  Holston","r":12},"geometry":{"type":"LineString","coordinates":[[-82.094,36.512],[-82.14,36.518],[-82.225,36.471],[-82.341,36.482],[-82.432,36.453],[-82.451,36.455],[-82.483,36.501],[-82.517,36.503],[-82.586,36.554],[-82.622,36.558]]}},{"type":"Feature","properties":{"n":"Middle Fk.  Holston","r":12},"geometry":{"type":"LineString","coordinates":[[-81.947,36.643],[-81.915,36.652],[-81.904,36.681],[-81.852,36.711],[-81.741,36.757]]}},{"type":"Feature","properties":{"n":"Fish","r":12},"geometry":{"type":"LineString","coordinates":[[-68.598,47.276],[-68.579,47.243],[-68.585,47.183],[-68.569,47.151],[-68.586,47.055],[-68.506,47.043]]}},{"type":"Feature","properties":{"n":"Fish","r":12},"geometry":{"type":"LineString","coordinates":[[-68.455,47.05],[-68.416,47.082]]}},{"type":"Feature","properties":{"n":"Aroostook","r":10},"geometry":{"type":"MultiLineString","coordinates":[[[-67.719,46.818],[-67.833,46.776],[-67.985,46.867],[-68.0,46.844],[-67.966,46.794],[-67.958,46.713]],[[-67.997,46.699],[-68.056,46.746],[-68.197,46.77],[-68.255,46.734],[-68.295,46.733],[-68.414,46.655],[-68.431,46.591]]]}},{"type":"Feature","properties":{"n":"Allagash","r":12},"geometry":{"type":"LineString","coordinates":[[-69.027,47.102],[-69.072,47.062],[-69.085,46.974],[-69.131,46.952],[-69.199,46.945],[-69.25,46.87],[-69.248,46.811],[-69.274,46.808],[-69.287,46.761],[-69.332,46.774],[-69.367,46.752],[-69.389,46.68],[-69.386,46.594]]}},{"type":"Feature","properties":{"n":"W.  Br.  Penobscot","r":10},"geometry":{"type":"LineString","coordinates":[[-68.548,45.607],[-68.638,45.64],[-68.812,45.632]]}},{"type":"Feature","properties":{"n":"W.  Br.  Penobscot","r":10},"geometry":{"type":"LineString","coordinates":[[-68.979,45.836],[-68.939,45.796],[-68.951,45.768]]}},{"type":"Feature","properties":{"n":"E.  Br.  Penobscot","r":12},"geometry":{"type":"LineString","coordinates":[[-68.709,46.0],[-68.629,45.92],[-68.622,45.856],[-68.583,45.76],[-68.598,45.703],[-68.548,45.607]]}},{"type":"Feature","properties":{"n":"Mattawamkeag","r":12},"geometry":{"type":"LineString","coordinates":[[-68.371,45.527],[-68.305,45.499],[-68.234,45.544],[-68.119,45.564],[-68.091,45.622]]}},{"type":"Feature","properties":{"n":"Penobscot","r":12},"geometry":{"type":"LineString","coordinates":[[-68.548,45.607],[-68.41,45.565],[-68.371,45.527],[-68.372,45.498],[-68.641,45.298],[-68.655,45.23],[-68.625,45.196],[-68.631,45.139],[-68.667,45.083],[-68.658,45.028]]}},{"type":"Feature","properties":{"n":"Moose","r":11},"geometry":{"type":"LineString","coordinates":[[-70.109,45.625],[-70.15,45.637]]}},{"type":"Feature","properties":{"n":"Dead","r":12},"geometry":{"type":"LineString","coordinates":[[-70.199,45.213],[-70.23,45.26],[-70.214,45.301],[-70.09,45.334]]}},{"type":"Feature","properties":{"n":"Androscoggin","r":10},"geometry":{"type":"LineString","coordinates":[[-70.911,44.772],[-70.956,44.765],[-71.024,44.796],[-71.129,44.785],[-71.176,44.716],[-71.186,44.674],[-71.248,44.634],[-71.195,44.578],[-71.168,44.514],[-71.198,44.396],[-71.173,44.388],[-71.101,44.406],[-71.021,44.384],[-70.868,44.406],[-70.803,44.417],[-70.803,44.456],[-70.769,44.483],[-70.715,44.478],[-70.683,44.495],[-70.576,44.507]]}},{"type":"Feature","properties":{"n":"Saco","r":12},"geometry":{"type":"LineString","coordinates":[[-70.836,43.922],[-70.866,43.962],[-70.919,43.986],[-70.905,44.059],[-70.923,44.067],[-70.966,44.063],[-71.004,44.006],[-71.068,44.007],[-71.102,43.989],[-71.142,44.041]]}},{"type":"Feature","properties":{"n":"Winnipesaukee","r":12},"geometry":{"type":"LineString","coordinates":[[-71.437,43.617],[-71.48,43.531],[-71.516,43.515],[-71.557,43.458],[-71.636,43.445]]}},{"type":"Feature","properties":{"n":"Oneida River - Erie Canal","r":10},"geometry":{"type":"LineString","coordinates":[[-76.279,43.211],[-76.212,43.217],[-76.168,43.261],[-76.12,43.264]]}},{"type":"Feature","properties":{"n":"Erie Canal","r":10},"geometry":{"type":"MultiLineString","coordinates":[[[-75.732,43.206],[-75.44,43.209]]]}},{"type":"Feature","properties":{"n":"Erie Canal","r":10},"geometry":{"type":"LineString","coordinates":[[-78.329,43.236],[-78.245,43.251],[-78.053,43.249],[-77.962,43.216],[-77.708,43.185],[-77.596,43.097],[-77.476,43.067],[-77.43,43.094],[-77.357,43.072],[-77.195,43.06],[-77.142,43.039],[-77.029,43.064],[-76.951,43.041],[-76.927,43.074],[-76.887,43.084],[-76.79,43.012],[-76.735,43.007]]}},{"type":"Feature","properties":{"n":"Genesee","r":10},"geometry":{"type":"LineString","coordinates":[[-77.597,43.261],[-77.618,43.196],[-77.61,43.143],[-77.718,43.037],[-77.719,42.964],[-77.757,42.937],[-77.754,42.916],[-77.819,42.885],[-77.822,42.825],[-77.844,42.807],[-77.837,42.759],[-77.894,42.735],[-77.981,42.625],[-78.018,42.605],[-78.066,42.48],[-78.151,42.41],[-78.001,42.193]]}},{"type":"Feature","properties":{"n":"Canandaigua Outlet","r":12},"geometry":{"type":"LineString","coordinates":[[-77.254,42.879],[-77.217,42.919],[-77.214,42.966],[-77.187,42.978],[-77.1,42.981],[-76.996,42.955],[-76.984,42.991],[-76.996,43.039],[-76.981,43.058]]}},{"type":"Feature","properties":{"n":"Tonawanda Cr.","r":12},"geometry":{"type":"LineString","coordinates":[[-78.236,42.914],[-78.195,42.955],[-78.19,42.995],[-78.308,42.998],[-78.401,43.028],[-78.437,43.077]]}},{"type":"Feature","properties":{"n":"Cohocton","r":12},"geometry":{"type":"LineString","coordinates":[[-77.344,42.345],[-77.23,42.295],[-77.201,42.232],[-77.093,42.153]]}},{"type":"Feature","properties":{"n":"Tioga","r":12},"geometry":{"type":"LineString","coordinates":[[-77.093,42.153],[-77.136,42.112],[-77.145,42.079],[-77.118,42.01],[-77.117,41.938],[-77.145,41.897],[-77.124,41.869]]}},{"type":"Feature","properties":{"n":"Chemung","r":12},"geometry":{"type":"LineString","coordinates":[[-76.509,41.948],[-76.562,42.006],[-76.625,41.998],[-76.648,42.025],[-76.726,42.023],[-76.793,42.087],[-76.851,42.076],[-76.95,42.124],[-77.009,42.119],[-77.045,42.146],[-77.093,42.153]]}},{"type":"Feature","properties":{"n":"N. Fk. S. Br. Potomac","r":12},"geometry":{"type":"LineString","coordinates":[[-79.18,39.005],[-79.229,39.003],[-79.283,38.974],[-79.31,38.907],[-79.37,38.855],[-79.438,38.735],[-79.487,38.697],[-79.561,38.579]]}},{"type":"Feature","properties":{"n":"S.  Fk.  S.  Br.  Potomac","r":12},"geometry":{"type":"LineString","coordinates":[[-79.195,38.675],[-79.134,38.787],[-79.048,38.871],[-78.949,39.022],[-78.97,39.082]]}},{"type":"Feature","properties":{"n":"S.  Fk.  Shenandoah","r":10},"geometry":{"type":"LineString","coordinates":[[-78.854,38.277],[-78.841,38.301],[-78.805,38.299]]}},{"type":"Feature","properties":{"n":"Shenandoah","r":10},"geometry":{"type":"LineString","coordinates":[[-77.768,39.306],[-77.866,39.147],[-77.913,39.108],[-77.969,39.099],[-77.969,39.082],[-77.987,39.083],[-77.985,39.059],[-78.029,39.022],[-78.057,39.022],[-78.1,38.965],[-78.165,38.967],[-78.219,38.932],[-78.221,38.907],[-78.346,38.838],[-78.383,38.779],[-78.489,38.702],[-78.532,38.659],[-78.537,38.63],[-78.573,38.611],[-78.567,38.586],[-78.587,38.569],[-78.586,38.531],[-78.632,38.522],[-78.631,38.393],[-78.73,38.338],[-78.734,38.322],[-78.805,38.299]]}},{"type":"Feature","properties":{"n":"North","r":12},"geometry":{"type":"LineString","coordinates":[[-79.045,38.39],[-78.987,38.396],[-78.911,38.314],[-78.854,38.277]]}},{"type":"Feature","properties":{"n":"South","r":10},"geometry":{"type":"LineString","coordinates":[[-78.805,38.299],[-78.833,38.273],[-78.854,38.136],[-78.881,38.071]]}},{"type":"Feature","properties":{"n":"Rapidan","r":10},"geometry":{"type":"LineString","coordinates":[[-77.616,38.369],[-77.661,38.374],[-77.688,38.359],[-77.771,38.39],[-77.803,38.379],[-77.899,38.386],[-78.156,38.277]]}},{"type":"Feature","properties":{"n":"Rappahannock","r":10},"geometry":{"type":"LineString","coordinates":[[-77.877,38.657],[-77.862,38.569],[-77.738,38.419],[-77.645,38.413],[-77.61,38.358],[-77.538,38.324],[-77.472,38.316],[-77.411,38.254],[-77.332,38.248],[-77.285,38.224],[-77.264,38.248],[-77.239,38.243],[-77.252,38.191],[-77.126,38.176]]}},{"type":"Feature","properties":{"n":"Maury","r":12},"geometry":{"type":"LineString","coordinates":[[-79.455,37.624],[-79.439,37.666],[-79.382,37.711],[-79.368,37.744],[-79.452,37.808],[-79.417,37.831],[-79.394,37.885],[-79.462,37.956],[-79.504,37.974]]}},{"type":"Feature","properties":{"n":"Calfpasture","r":12},"geometry":{"type":"LineString","coordinates":[[-79.383,38.182],[-79.496,38.021],[-79.504,37.974]]}},{"type":"Feature","properties":{"n":"Jackson","r":12},"geometry":{"type":"MultiLineString","coordinates":[[[-79.723,38.192],[-79.791,38.113],[-79.906,38.027]],[[-79.884,37.798],[-79.817,37.815],[-79.774,37.781]]]}},{"type":"Feature","properties":{"n":"Craig","r":12},"geometry":{"type":"LineString","coordinates":[[-79.794,37.651],[-79.847,37.66]]}},{"type":"Feature","properties":{"n":"York","r":12},"geometry":{"type":"LineString","coordinates":[[-77.713,38.007],[-77.65,37.992],[-77.488,37.891],[-77.437,37.882],[-77.392,37.778],[-77.337,37.788],[-77.322,37.739],[-77.295,37.72],[-77.234,37.719],[-77.241,37.692],[-77.199,37.691],[-77.187,37.662],[-77.118,37.658],[-77.123,37.631],[-77.088,37.604],[-77.037,37.591],[-76.957,37.537],[-76.931,37.564],[-76.865,37.531],[-76.827,37.54],[-76.795,37.526]]}},{"type":"Feature","properties":{"n":"Nottoway","r":12},"geometry":{"type":"LineString","coordinates":[[-77.673,36.898],[-77.569,36.85],[-77.495,36.85],[-77.41,36.89],[-77.328,36.991],[-77.291,36.997],[-77.221,36.961],[-77.205,36.908]]}},{"type":"Feature","properties":{"n":"Meherrin","r":11},"geometry":{"type":"LineString","coordinates":[[-77.834,36.718],[-77.702,36.709]]}},{"type":"Feature","properties":{"n":"Catawba","r":10},"geometry":{"type":"MultiLineString","coordinates":[[[-80.97,35.387],[-80.973,35.371]],[[-80.98,35.333],[-81.01,35.277],[-81.015,35.225]]]}},{"type":"Feature","properties":{"n":"Catawba","r":10},"geometry":{"type":"LineString","coordinates":[[-81.517,35.779],[-81.444,35.783],[-81.383,35.764],[-81.328,35.795],[-81.152,35.829],[-81.047,35.711]]}},{"type":"Feature","properties":{"n":"Saluda","r":11},"geometry":{"type":"LineString","coordinates":[[-82.519,34.931],[-82.457,34.786],[-82.461,34.664],[-82.415,34.556],[-82.338,34.508],[-82.16,34.33],[-82.104,34.345]]}},{"type":"Feature","properties":{"n":"Sangamon","r":10},"geometry":{"type":"LineString","coordinates":[[-90.33,40.069],[-90.423,40.068]]}},{"type":"Feature","properties":{"n":"Spoon","r":11},"geometry":{"type":"LineString","coordinates":[[-90.24,40.388],[-90.284,40.413],[-90.331,40.408],[-90.366,40.472],[-90.32,40.529],[-90.308,40.572],[-90.352,40.599],[-90.308,40.63],[-90.294,40.697],[-90.255,40.734]]}},{"type":"Feature","properties":{"n":"Black","r":11},"geometry":{"type":"LineString","coordinates":[[-91.366,43.953],[-91.329,43.987],[-91.341,44.024],[-91.32,44.053],[-91.23,44.061],[-91.185,44.088],[-91.076,44.086],[-91.055,44.069],[-90.915,44.16],[-90.836,44.308],[-90.615,44.525],[-90.62,44.552],[-90.599,44.588],[-90.64,44.706],[-90.61,44.772],[-90.624,44.844]]}},{"type":"Feature","properties":{"n":"Chippewa","r":12},"geometry":{"type":"LineString","coordinates":[[-92.055,44.499],[-92.09,44.427]]}},{"type":"Feature","properties":{"n":"Osage Fork Gasconade","r":11},"geometry":{"type":"LineString","coordinates":[[-92.457,37.623],[-92.479,37.581],[-92.521,37.588],[-92.532,37.577],[-92.518,37.549],[-92.588,37.55]]}},{"type":"Feature","properties":{"n":"South Skunk","r":11},"geometry":{"type":"LineString","coordinates":[[-93.057,41.586],[-93.014,41.536],[-92.926,41.496],[-92.9,41.466],[-92.848,41.455],[-92.742,41.38],[-92.463,41.294],[-92.434,41.268],[-92.348,41.264],[-92.295,41.237],[-92.018,41.248]]}},{"type":"Feature","properties":{"n":"Skunk","r":11},"geometry":{"type":"LineString","coordinates":[[-92.018,41.248],[-91.909,41.218],[-91.844,41.222],[-91.813,41.194],[-91.75,41.177],[-91.723,41.099],[-91.734,41.049],[-91.704,40.996],[-91.67,40.997],[-91.662,40.964],[-91.544,40.887],[-91.506,40.841],[-91.467,40.849],[-91.437,40.823],[-91.195,40.717],[-91.121,40.716]]}},{"type":"Feature","properties":{"n":"Iowa","r":10},"geometry":{"type":"LineString","coordinates":[[-92.243,41.837],[-91.895,41.776],[-91.719,41.783],[-91.645,41.803],[-91.586,41.784],[-91.538,41.719],[-91.555,41.681],[-91.516,41.55],[-91.529,41.517],[-91.497,41.443],[-91.462,41.42],[-91.428,41.361],[-91.354,41.318]]}},{"type":"Feature","properties":{"n":"Wapsipinicon","r":10},"geometry":{"type":"LineString","coordinates":[[-92.516,43.152],[-92.452,43.06],[-92.38,42.996],[-92.313,42.863],[-92.259,42.834],[-92.188,42.749],[-92.17,42.667],[-92.11,42.566],[-92.078,42.539],[-91.892,42.474],[-91.835,42.409],[-91.772,42.39],[-91.741,42.342]]}},{"type":"Feature","properties":{"n":"Turkey","r":11},"geometry":{"type":"LineString","coordinates":[[-91.033,42.729],[-91.241,42.735],[-91.463,42.904],[-91.638,42.96],[-91.686,43.009],[-91.777,43.026],[-91.799,43.053],[-91.854,43.053],[-91.886,43.075],[-91.919,43.141],[-91.944,43.15],[-91.966,43.214]]}},{"type":"Feature","properties":{"n":"Thompson","r":11},"geometry":{"type":"LineString","coordinates":[[-93.615,39.96],[-93.626,40.024],[-93.693,40.123]]}},{"type":"Feature","properties":{"n":"Grand","r":12},"geometry":{"type":"LineString","coordinates":[[-93.423,39.708],[-93.294,39.673],[-93.272,39.633],[-93.273,39.571]]}},{"type":"Feature","properties":{"n":"Chariton","r":11},"geometry":{"type":"LineString","coordinates":[[-92.959,39.369],[-92.886,39.43],[-92.85,39.499],[-92.697,39.622],[-92.688,39.881],[-92.669,39.945],[-92.699,40.024],[-92.686,40.158],[-92.708,40.202],[-92.692,40.235],[-92.694,40.378],[-92.674,40.401],[-92.7,40.453],[-92.694,40.501],[-92.71,40.536],[-92.697,40.562],[-92.825,40.775],[-92.865,40.792],[-92.888,40.828]]}},{"type":"Feature","properties":{"n":"Chariton","r":11},"geometry":{"type":"LineString","coordinates":[[-93.422,40.951],[-93.379,40.96],[-93.337,40.998],[-93.315,40.994],[-93.233,40.93],[-93.049,40.882]]}},{"type":"Feature","properties":{"n":"Petit Jean","r":11},"geometry":{"type":"MultiLineString","coordinates":[[[-92.928,35.192],[-92.979,35.124],[-93.04,35.105],[-93.034,35.082],[-93.097,35.078],[-93.137,35.058],[-93.268,35.085],[-93.41,35.053],[-93.454,35.059]],[[-93.492,35.073],[-93.497,35.075]]]}},{"type":"Feature","properties":{"n":"Purgatoire","r":11},"geometry":{"type":"LineString","coordinates":[[-104.589,37.126],[-104.514,37.151],[-104.357,37.261],[-104.313,37.268]]}},{"type":"Feature","properties":{"n":"Rio Chama","r":12},"geometry":{"type":"LineString","coordinates":[[-106.474,36.28],[-106.341,36.212],[-106.232,36.209],[-106.16,36.157],[-106.131,36.096],[-106.064,36.032]]}},{"type":"Feature","properties":{"n":"North Umpqua","r":10},"geometry":{"type":"LineString","coordinates":[[-122.353,43.308],[-122.443,43.268],[-122.518,43.307],[-122.596,43.29],[-122.673,43.304],[-122.744,43.343],[-122.914,43.294],[-123.003,43.329],[-123.103,43.3],[-123.201,43.309],[-123.251,43.284],[-123.273,43.313],[-123.35,43.279],[-123.387,43.287],[-123.445,43.264]]}},{"type":"Feature","properties":{"n":"South Umpqua","r":10},"geometry":{"type":"LineString","coordinates":[[-123.445,43.264],[-123.413,43.242],[-123.405,43.214],[-123.356,43.203],[-123.366,43.176]]}},{"type":"Feature","properties":{"n":"Santium","r":12},"geometry":{"type":"LineString","coordinates":[[-123.081,44.771],[-123.01,44.688]]}},{"type":"Feature","properties":{"n":"South Santium","r":12},"geometry":{"type":"LineString","coordinates":[[-123.01,44.688],[-122.955,44.672],[-122.887,44.605],[-122.881,44.53],[-122.776,44.48],[-122.774,44.452],[-122.74,44.41],[-122.644,44.419],[-122.502,44.477],[-122.463,44.478]]}},{"type":"Feature","properties":{"n":"North Santium","r":12},"geometry":{"type":"LineString","coordinates":[[-122.244,44.716],[-122.322,44.756],[-122.498,44.755],[-122.62,44.785],[-122.782,44.795],[-122.926,44.74],[-123.01,44.688]]}},{"type":"Feature","properties":{"n":"Crooked","r":10},"geometry":{"type":"LineString","coordinates":[[-121.126,44.369],[-121.163,44.403],[-121.22,44.401],[-121.239,44.438],[-121.276,44.465]]}},{"type":"Feature","properties":{"n":"Deschutes","r":10},"geometry":{"type":"LineString","coordinates":[[-121.156,44.793],[-121.234,44.75],[-121.235,44.688],[-121.28,44.619],[-121.263,44.539],[-121.295,44.491],[-121.268,44.448],[-121.262,44.34],[-121.237,44.3],[-121.253,44.226],[-121.302,44.195],[-121.335,44.123],[-121.309,44.089],[-121.325,44.038],[-121.404,43.976],[-121.445,43.918],[-121.467,43.833],[-121.51,43.788],[-121.69,43.688]]}},{"type":"Feature","properties":{"n":"Elk","r":11},"geometry":{"type":"LineString","coordinates":[[-115.233,49.157],[-115.12,49.21],[-115.092,49.247],[-115.102,49.286],[-115.09,49.302],[-115.016,49.334],[-115.01,49.367],[-115.066,49.46],[-115.071,49.501],[-114.937,49.628]]}},{"type":"Feature","properties":{"n":"Duncan","r":11},"geometry":{"type":"LineString","coordinates":[[-116.954,50.235],[-116.954,50.175]]}},{"type":"Feature","properties":{"n":"Duncan","r":11},"geometry":{"type":"LineString","coordinates":[[-116.994,50.533],[-117.062,50.671],[-117.101,50.701]]}},{"type":"Feature","properties":{"n":"Lardeau","r":11},"geometry":{"type":"LineString","coordinates":[[-116.954,50.235],[-116.967,50.297],[-116.994,50.328],[-117.222,50.482],[-117.337,50.523]]}},{"type":"Feature","properties":{"n":"Priest","r":12},"geometry":{"type":"LineString","coordinates":[[-116.879,48.501],[-116.906,48.48],[-116.903,48.427],[-116.922,48.408],[-116.872,48.396],[-116.854,48.335],[-116.876,48.294],[-116.863,48.248],[-116.894,48.223],[-116.906,48.187]]}},{"type":"Feature","properties":{"n":"Kootenay","r":10},"geometry":{"type":"LineString","coordinates":[[-115.426,49.44],[-115.537,49.499],[-115.581,49.57],[-115.675,49.647],[-115.766,49.793],[-115.713,49.871],[-115.779,49.945],[-115.803,50.019],[-115.789,50.126],[-115.697,50.228],[-115.686,50.311],[-115.641,50.333],[-115.617,50.393],[-115.631,50.432],[-115.732,50.515],[-115.792,50.601]]}},{"type":"Feature","properties":{"n":"Slocan","r":10},"geometry":{"type":"LineString","coordinates":[[-117.433,49.874],[-117.467,49.806],[-117.475,49.735],[-117.513,49.665],[-117.58,49.597],[-117.628,49.58],[-117.653,49.552],[-117.526,49.421]]}},{"type":"Feature","properties":{"n":"Kettle","r":11},"geometry":{"type":"MultiLineString","coordinates":[[[-118.684,49.948],[-118.699,49.834],[-118.767,49.706],[-118.793,49.551],[-118.822,49.484],[-118.866,49.454],[-118.866,49.35],[-118.893,49.297],[-118.893,49.259],[-118.984,49.135]],[[-118.942,49.051],[-118.768,48.992],[-118.769,48.959],[-118.738,48.909],[-118.681,48.885],[-118.596,48.888],[-118.485,49.014],[-118.423,49.027],[-118.291,49.005],[-118.195,49.018],[-118.214,48.967],[-118.206,48.874],[-118.128,48.781],[-118.098,48.68]]]}},{"type":"Feature","properties":{"n":"Shuswap","r":10},"geometry":{"type":"LineString","coordinates":[[-118.728,50.255],[-118.653,50.249],[-118.598,50.277],[-118.523,50.372],[-118.521,50.424]]}},{"type":"Feature","properties":{"n":"Saint-François","r":11},"geometry":{"type":"LineString","coordinates":[[-72.916,46.138],[-72.907,46.106],[-72.75,46.032],[-72.546,45.966],[-72.503,45.935],[-72.467,45.874],[-72.289,45.816],[-72.237,45.772],[-72.214,45.711],[-72.182,45.678],[-72.019,45.578],[-71.975,45.499],[-71.858,45.373],[-71.811,45.391],[-71.76,45.448],[-71.7,45.481],[-71.628,45.492],[-71.58,45.534],[-71.54,45.603],[-71.469,45.655],[-71.405,45.755],[-71.35,45.8],[-71.34,45.902],[-71.273,45.96],[-71.232,45.974]]}},{"type":"Feature","properties":{"n":"Chaudière","r":10},"geometry":{"type":"LineString","coordinates":[[-71.247,46.643],[-71.235,46.596],[-71.2,46.558],[-71.085,46.498],[-71.041,46.44],[-70.945,46.381],[-70.921,46.33],[-70.802,46.22],[-70.738,46.195],[-70.719,46.139],[-70.659,46.095],[-70.676,46.035],[-70.638,45.898],[-70.648,45.842],[-70.633,45.805],[-70.857,45.616],[-70.868,45.582],[-70.903,45.559],[-70.891,45.538]]}},{"type":"Feature","properties":{"n":"Yamaska","r":12},"geometry":{"type":"LineString","coordinates":[[-72.919,46.127],[-72.945,46.079],[-72.91,46.01],[-72.906,45.963],[-72.955,45.831],[-72.896,45.801],[-72.88,45.77],[-72.98,45.568],[-72.967,45.537],[-73.006,45.401],[-72.99,45.348],[-72.996,45.304],[-72.968,45.286],[-72.811,45.275]]}},{"type":"Feature","properties":{"n":"Nicolet","r":11},"geometry":{"type":"LineString","coordinates":[[-72.652,46.259],[-72.576,46.204],[-72.555,46.165],[-72.364,46.096],[-72.257,46.036],[-72.221,45.989],[-72.117,45.989],[-71.971,46.053],[-71.883,45.997]]}},{"type":"Feature","properties":{"n":"St. Francis","r":12},"geometry":{"type":"LineString","coordinates":[[-68.898,47.19],[-69.04,47.249],[-69.057,47.269],[-69.066,47.33],[-69.054,47.418],[-69.184,47.453]]}},{"type":"Feature","properties":{"n":"Madawaska","r":10},"geometry":{"type":"LineString","coordinates":[[-68.326,47.363],[-68.41,47.452],[-68.546,47.527],[-68.623,47.547],[-68.645,47.574]]}},{"type":"Feature","properties":{"n":"Matapédia","r":12},"geometry":{"type":"LineString","coordinates":[[-66.898,47.99],[-66.943,47.969],[-67.098,48.04],[-67.11,48.084],[-67.152,48.117],[-67.145,48.166],[-67.251,48.281],[-67.235,48.359],[-67.295,48.402],[-67.409,48.443],[-67.459,48.511]]}},{"type":"Feature","properties":{"n":"Restigouche","r":11},"geometry":{"type":"MultiLineString","coordinates":[[[-67.375,47.844],[-67.351,47.85],[-67.32,47.896],[-67.188,47.885],[-67.073,47.927],[-67.03,47.927],[-66.962,47.895],[-66.942,47.902],[-66.949,47.949],[-66.938,47.968]],[[-67.579,47.586],[-67.452,47.697],[-67.44,47.759],[-67.392,47.77],[-67.405,47.801],[-67.375,47.844]]]}},{"type":"Feature","properties":{"n":"Patapédia","r":11},"geometry":{"type":"LineString","coordinates":[[-67.668,48.067],[-67.62,48.065],[-67.59,48.033],[-67.612,47.992],[-67.606,47.938],[-67.415,47.881],[-67.375,47.844]]}},{"type":"Feature","properties":{"n":"Tobique","r":11},"geometry":{"type":"LineString","coordinates":[[-67.161,47.242],[-67.179,47.298]]}},{"type":"Feature","properties":{"n":"Saint Croix","r":11},"geometry":{"type":"MultiLineString","coordinates":[[[-67.191,45.18],[-67.255,45.205],[-67.319,45.154],[-67.356,45.166],[-67.477,45.279]],[[-67.477,45.279],[-67.429,45.387],[-67.482,45.456],[-67.493,45.493],[-67.426,45.533],[-67.422,45.569],[-67.441,45.605]],[[-67.811,45.762],[-67.811,45.767]]]}},{"type":"Feature","properties":{"n":"Kennebecasis","r":12},"geometry":{"type":"LineString","coordinates":[[-65.899,45.512],[-66.005,45.459]]}},{"type":"Feature","properties":{"n":"Shubenacadie","r":10},"geometry":{"type":"LineString","coordinates":[[-63.563,44.66],[-63.551,44.726],[-63.609,44.804],[-63.62,44.882],[-63.595,44.917],[-63.53,44.938],[-63.442,45.001],[-63.395,45.074],[-63.404,45.109],[-63.387,45.145],[-63.399,45.192],[-63.469,45.292]]}},{"type":"Feature","properties":{"n":"Betsiamites","r":11},"geometry":{"type":"LineString","coordinates":[[-69.318,49.219],[-69.269,49.182],[-69.129,49.161],[-68.987,49.117],[-68.965,49.089],[-68.949,48.989],[-68.783,48.945],[-68.699,48.945]]}},{"type":"Feature","properties":{"n":"Portneuf","r":11},"geometry":{"type":"LineString","coordinates":[[-70.114,48.888],[-69.97,48.804],[-69.851,48.79],[-69.809,48.806],[-69.614,48.743],[-69.464,48.74],[-69.326,48.685],[-69.109,48.654]]}},{"type":"Feature","properties":{"n":"Rivière aux Outardes","r":11},"geometry":{"type":"LineString","coordinates":[[-68.511,49.224],[-68.486,49.194],[-68.444,49.198]]}},{"type":"Feature","properties":{"n":"Jacques-Cartier","r":11},"geometry":{"type":"LineString","coordinates":[[-71.7,46.732],[-71.752,46.67]]}},{"type":"Feature","properties":{"n":"Batiscan","r":12},"geometry":{"type":"LineString","coordinates":[[-72.242,46.518],[-72.403,46.548],[-72.417,46.574],[-72.388,46.601],[-72.394,46.679],[-72.429,46.715]]}},{"type":"Feature","properties":{"n":"L'Assomption","r":10},"geometry":{"type":"LineString","coordinates":[[-73.551,46.2],[-73.484,46.176],[-73.487,46.162],[-73.456,46.141],[-73.497,46.093],[-73.387,45.977],[-73.385,45.958],[-73.44,45.909],[-73.438,45.798],[-73.481,45.735]]}},{"type":"Feature","properties":{"n":"Penobscot","r":10},"geometry":{"type":"LineString","coordinates":[[-68.658,45.028],[-68.644,44.905],[-68.707,44.828],[-68.762,44.801],[-68.842,44.719],[-68.823,44.678],[-68.835,44.628],[-68.796,44.562]]}},{"type":"Feature","properties":{"n":"Umpqua","r":10},"geometry":{"type":"LineString","coordinates":[[-123.445,43.264],[-123.467,43.295],[-123.45,43.336],[-123.463,43.354],[-123.541,43.39],[-123.536,43.4],[-123.563,43.419],[-123.57,43.452],[-123.485,43.485],[-123.572,43.537],[-123.506,43.543],[-123.53,43.564],[-123.531,43.589],[-123.578,43.574],[-123.612,43.59],[-123.613,43.602],[-123.576,43.619],[-123.585,43.633],[-123.659,43.639],[-123.657,43.668],[-123.673,43.673],[-123.744,43.653],[-123.8,43.668],[-123.827,43.649],[-123.895,43.654],[-123.965,43.689],[-124.073,43.705]]}},{"type":"Feature","properties":{"n":"Kootenay","r":10},"geometry":{"type":"LineString","coordinates":[[-116.613,49.17],[-116.582,49.123],[-116.581,49.084],[-116.515,49.027],[-116.509,49.009],[-116.532,48.971],[-116.409,48.907],[-116.423,48.883],[-116.403,48.864],[-116.407,48.84],[-116.383,48.796],[-116.411,48.745],[-116.387,48.711],[-116.279,48.698],[-116.153,48.716],[-115.983,48.576],[-115.94,48.512],[-115.868,48.449],[-115.716,48.449]]}},{"type":"Feature","properties":{"n":"Santo Domingo","r":10},"geometry":{"type":"LineString","coordinates":[[-96.293,18.011],[-96.425,18.027]]}},{"type":"Feature","properties":{"n":"Erie Canal","r":10},"geometry":{"type":"LineString","coordinates":[[-76.12,43.264],[-75.935,43.223],[-75.732,43.206]]}},{"type":"Feature","properties":{"n":"Winooski","r":10},"geometry":{"type":"LineString","coordinates":[[-73.27,44.526],[-73.329,44.542],[-73.317,44.58],[-73.252,44.633],[-73.242,44.751],[-73.308,44.862],[-73.346,44.987],[-73.325,45.076]]}},{"type":"Feature","properties":{"n":"Lamoille","r":12},"geometry":{"type":"LineString","coordinates":[[-73.23,44.61],[-73.249,44.644]]}},{"type":"Feature","properties":{"n":"Canandaigua Outlet","r":12},"geometry":{"type":"LineString","coordinates":[[-77.258,42.87],[-77.254,42.879]]}},{"type":"Feature","properties":{"n":"Saint Croix","r":11},"geometry":{"type":"LineString","coordinates":[[-67.441,45.605],[-67.608,45.62],[-67.691,45.654],[-67.728,45.692],[-67.762,45.68],[-67.8,45.7],[-67.811,45.762]]}},{"type":"Feature","properties":{"n":"Kettle","r":11},"geometry":{"type":"LineString","coordinates":[[-118.098,48.68],[-118.096,48.648]]}},{"type":"Feature","properties":{"n":"Dan","r":11},"geometry":{"type":"LineString","coordinates":[[-78.665,36.701],[-78.652,36.706]]}},{"type":"Feature","properties":{"n":"North Fork Salt","r":12},"geometry":{"type":"LineString","coordinates":[[-91.84,39.511],[-91.787,39.499],[-91.674,39.531]]}},{"type":"Feature","properties":{"n":"Bryant","r":12},"geometry":{"type":"LineString","coordinates":[[-92.286,36.581],[-92.26,36.485],[-92.298,36.412],[-92.242,36.365],[-92.252,36.324],[-92.226,36.247]]}},{"type":"Feature","properties":{"n":"Middle Fork Little Red","r":12},"geometry":{"type":"LineString","coordinates":[[-92.204,35.626],[-92.183,35.611],[-92.193,35.578],[-92.164,35.538],[-92.013,35.524]]}},{"type":"Feature","properties":{"n":"Sacandaga","r":10},"geometry":{"type":"MultiLineString","coordinates":[[[-73.94,43.304],[-74.03,43.289],[-74.069,43.258],[-74.13,43.158],[-74.147,43.155]],[[-74.158,43.166],[-74.195,43.242]]]}},{"type":"Feature","properties":{"n":"French Broad","r":10},"geometry":{"type":"LineString","coordinates":[[-83.26,36.044],[-83.322,36.033],[-83.353,35.996],[-83.402,35.993],[-83.458,35.957],[-83.547,35.947]]}},{"type":"Feature","properties":{"n":"Powell","r":11},"geometry":{"type":"LineString","coordinates":[[-83.851,36.403],[-83.956,36.38]]}},{"type":"Feature","properties":{"n":"Clinch","r":11},"geometry":{"type":"LineString","coordinates":[[-83.487,36.372],[-83.55,36.358],[-83.58,36.367],[-83.66,36.34],[-83.702,36.36],[-83.863,36.293],[-83.972,36.274],[-84.033,36.282]]}},{"type":"Feature","properties":{"n":"Middle Fk.  Holston","r":12},"geometry":{"type":"LineString","coordinates":[[-82.094,36.512],[-82.065,36.53],[-82.023,36.596],[-81.947,36.643]]}},{"type":"Feature","properties":{"n":"Fish","r":12},"geometry":{"type":"LineString","coordinates":[[-68.506,47.043],[-68.455,47.05]]}},{"type":"Feature","properties":{"n":"W.  Br.  Penobscot","r":10},"geometry":{"type":"LineString","coordinates":[[-68.812,45.632],[-68.884,45.674],[-68.886,45.712],[-68.951,45.768]]}},{"type":"Feature","properties":{"n":"North Branch Dead","r":12},"geometry":{"type":"LineString","coordinates":[[-70.199,45.213],[-70.205,45.178],[-70.223,45.174],[-70.353,45.205],[-70.451,45.191]]}},{"type":"Feature","properties":{"n":"Catawba","r":10},"geometry":{"type":"MultiLineString","coordinates":[[[-80.95,35.522],[-80.961,35.561],[-80.945,35.598]],[[-80.947,35.643],[-81.003,35.702],[-81.047,35.711]]]}},{"type":"Feature","properties":{"n":"Saluda","r":11},"geometry":{"type":"LineString","coordinates":[[-82.088,34.316],[-82.104,34.345]]}},{"type":"Feature","properties":{"n":"Chariton","r":11},"geometry":{"type":"LineString","coordinates":[[-92.888,40.828],[-93.049,40.882]]}},{"type":"Feature","properties":{"n":"Elk","r":10},"geometry":{"type":"LineString","coordinates":[[-115.233,49.157],[-115.245,49.153]]}},{"type":"Feature","properties":{"n":"Duncan","r":11},"geometry":{"type":"LineString","coordinates":[[-116.954,50.175],[-116.895,50.052],[-116.876,49.811],[-116.905,49.646],[-116.896,49.629]]}},{"type":"Feature","properties":{"n":"Duncan","r":11},"geometry":{"type":"LineString","coordinates":[[-116.943,50.261],[-116.934,50.342],[-116.97,50.399],[-116.937,50.442],[-116.994,50.533]]}},{"type":"Feature","properties":{"n":"Kootenay","r":10},"geometry":{"type":"LineString","coordinates":[[-115.315,48.729],[-115.298,48.796],[-115.177,48.947],[-115.17,49.032],[-115.242,49.127],[-115.245,49.153]]}},{"type":"Feature","properties":{"n":"Kootenay","r":10},"geometry":{"type":"LineString","coordinates":[[-115.426,49.44],[-115.404,49.377],[-115.238,49.206],[-115.245,49.153]]}},{"type":"Feature","properties":{"n":"Kootenay","r":10},"geometry":{"type":"LineString","coordinates":[[-116.895,49.628],[-116.945,49.624]]}},{"type":"Feature","properties":{"n":"Kootenay","r":10},"geometry":{"type":"LineString","coordinates":[[-116.896,49.629],[-116.826,49.572],[-116.75,49.347],[-116.613,49.17]]}}]}